{"version": 0.6, "generator": "Overpass API 0.7.62.8 e802775f", "osm3s": {"timestamp_osm_base": "2025-12-01T14:37:09Z", "copyright": "The data included in this document is from www.openstreetmap.org. The data is made available under ODbL."}, "elements": [{"type": "node", "id": 210222626, "lat": 39.5235435, "lon": 46.0235784, "tags": {"is_in:country": "Armenia", "is_in:country_code": "AM", "is_in:municipality": "\u054d\u056b\u057d\u056b\u0561\u0576\u056b \u0570\u0561\u0574\u0561\u0575\u0576\u0584", "is_in:region": "\u054d\u0575\u0578\u0582\u0576\u056b\u0584\u056b \u0574\u0561\u0580\u0566", "name": "\u054d\u056b\u057d\u056b\u0561\u0576", "name:ckb": "\u0633\u06cc\u0633\u06cc\u0627\u0646", "name:de": "Sissian", "name:en": "Sisian", "name:fa": "\u0633\u06cc\u0633\u06cc\u0627\u0646", "name:hr": "Sisijan", "name:hy": "\u054d\u056b\u057d\u056b\u0561\u0576", "name:ja": "\u30b7\u30b7\u30a2\u30f3", "name:ku": "S\u00eesyan", "name:ml": "\u0d38\u0d3f\u0d38\u0d3f\u0d2f\u0d3e\u0d7b", "name:ru": "\u0421\u0438\u0441\u0438\u0430\u043d", "name:sr": "\u0421\u0438\u0441\u0438\u0458\u0430\u043d", "place": "town", "population": "14297", "population:date": "2022-01-01", "source:population": "Armstat", "wikidata": "Q39551", "wikipedia": "en:Sisian"}}, {"type": "node", "id": 928427639, "lat": 39.4648066, "lon": 45.9224152, "tags": {"is_in:country": "Armenia", "is_in:country_code": "AM", "is_in:municipality": "\u054d\u056b\u057d\u056b\u0561\u0576\u056b \u0570\u0561\u0574\u0561\u0575\u0576\u0584", "is_in:region": "\u054d\u0575\u0578\u0582\u0576\u056b\u0584\u056b \u0574\u0561\u0580\u0566", "name": "\u054d\u0561\u056c\u057e\u0561\u0580\u0564", "name:en": "Salvard", "name:hy": "\u054d\u0561\u056c\u057e\u0561\u0580\u0564", "name:ru": "\u0421\u0430\u043b\u0432\u0430\u0440\u0434", "place": "village", "population": "204", "population:date": "2022-01-01", "source:population": "Armstat", "wikidata": "Q640498", "wikipedia": "en:Salvard"}}, {"type": "node", "id": 928427641, "lat": 39.4744875, "lon": 46.0333494, "tags": {"is_in:country": "Armenia", "is_in:country_code": "AM", "is_in:municipality": "\u054d\u056b\u057d\u056b\u0561\u0576\u056b \u0570\u0561\u0574\u0561\u0575\u0576\u0584", "is_in:region": "\u054d\u0575\u0578\u0582\u0576\u056b\u0584\u056b \u0574\u0561\u0580\u0566", "name": "\u054f\u0578\u056c\u0578\u0580\u057d", "name:en": "Tolors", "name:hy": "\u054f\u0578\u056c\u0578\u0580\u057d", "name:ru": "\u0422\u043e\u043b\u043e\u0440\u0441", "place": "village", "population": "397", "population:date": "2022-01-01", "source:population": "Armstat", "wikidata": "Q2224285", "wikipedia": "en:Tolors"}}, {"type": "node", "id": 928427643, "lat": 39.4770368, "lon": 45.994736, "tags": {"is_in:country": "Armenia", "is_in:country_code": "AM", "is_in:municipality": "\u054d\u056b\u057d\u056b\u0561\u0576\u056b \u0570\u0561\u0574\u0561\u0575\u0576\u0584", "is_in:region": "\u054d\u0575\u0578\u0582\u0576\u056b\u0584\u056b \u0574\u0561\u0580\u0566", "name": "\u0531\u0577\u0578\u057f\u0561\u057e\u0561\u0576", "name:en": "Ashotavan", "name:hy": "\u0531\u0577\u0578\u057f\u0561\u057e\u0561\u0576", "name:ru": "\u0410\u0448\u043e\u0442\u0430\u0432\u0430\u043d", "place": "village", "population": "417", "population:date": "2022-01-01", "source:population": "Armstat", "wikidata": "Q640510", "wikipedia": "en:Ashotavan"}}, {"type": "node", "id": 928427649, "lat": 39.497043, "lon": 45.973086, "tags": {"is_in:country": "Armenia", "is_in:country_code": "AM", "is_in:municipality": "\u054d\u056b\u057d\u056b\u0561\u0576\u056b \u0570\u0561\u0574\u0561\u0575\u0576\u0584", "is_in:region": "\u054d\u0575\u0578\u0582\u0576\u056b\u0584\u056b \u0574\u0561\u0580\u0566", "name": "\u0532\u057c\u0576\u0561\u056f\u0578\u0569", "name:en": "Brnakot", "name:hy": "\u0532\u057c\u0576\u0561\u056f\u0578\u0569", "name:ru": "\u0411\u0440\u043d\u0430\u043a\u043e\u0442", "place": "village", "population": "1748", "population:date": "2022-01-01", "source:population": "Armstat", "wikidata": "Q713488", "wikipedia": "en:Brnakot"}}, {"type": "node", "id": 928427651, "lat": 39.564005, "lon": 45.99754, "tags": {"is_in:country": "Armenia", "is_in:country_code": "AM", "is_in:municipality": "\u054d\u056b\u057d\u056b\u0561\u0576\u056b \u0570\u0561\u0574\u0561\u0575\u0576\u0584", "is_in:region": "\u054d\u0575\u0578\u0582\u0576\u056b\u0584\u056b \u0574\u0561\u0580\u0566", "name": "\u0547\u0561\u0584\u056b", "name:en": "Shaqi", "name:hy": "\u0547\u0561\u0584\u056b", "name:ru": "\u0428\u0430\u043a\u0438", "place": "village", "population": "1114", "population:date": "2022-01-01", "source:population": "Armstat", "wikidata": "Q640539", "wikipedia": "en:Shaki, Armenia"}}, {"type": "node", "id": 928427654, "lat": 39.4054692, "lon": 45.9015356, "tags": {"is_in:country": "Armenia", "is_in:country_code": "AM", "is_in:municipality": "\u054d\u056b\u057d\u056b\u0561\u0576\u056b \u0570\u0561\u0574\u0561\u0575\u0576\u0584", "is_in:region": "\u054d\u0575\u0578\u0582\u0576\u056b\u0584\u056b \u0574\u0561\u0580\u0566", "name": "\u0531\u0580\u0587\u056b\u057d", "name:en": "Arevis", "name:hy": "\u0531\u0580\u0587\u056b\u057d", "name:ru": "\u0410\u0440\u0435\u0432\u0438\u0441", "place": "village", "population": "45", "population:date": "2022-01-01", "source:population": "Armstat", "wikidata": "Q641359", "wikipedia": "en:Arevis"}}, {"type": "node", "id": 928427656, "lat": 39.4634335, "lon": 45.9723913, "tags": {"is_in:country": "Armenia", "is_in:country_code": "AM", "is_in:municipality": "\u054d\u056b\u057d\u056b\u0561\u0576\u056b \u0570\u0561\u0574\u0561\u0575\u0576\u0584", "is_in:region": "\u054d\u0575\u0578\u0582\u0576\u056b\u0584\u056b \u0574\u0561\u0580\u0566", "name": "\u0540\u0561\u0581\u0561\u057e\u0561\u0576", "name:en": "Hatsavan", "name:hy": "\u0540\u0561\u0581\u0561\u057e\u0561\u0576", "name:ru": "\u0410\u0446\u0430\u0432\u0430\u043d", "place": "village", "population": "228", "population:date": "2022-01-01", "source:population": "Armstat", "wikidata": "Q590465", "wikipedia": "en:Hatsavan, Syunik"}}, {"type": "node", "id": 928427658, "lat": 39.4511662, "lon": 45.9628535, "tags": {"is_in:country": "Armenia", "is_in:country_code": "AM", "is_in:municipality": "\u054d\u056b\u057d\u056b\u0561\u0576\u056b \u0570\u0561\u0574\u0561\u0575\u0576\u0584", "is_in:region": "\u054d\u0575\u0578\u0582\u0576\u056b\u0584\u056b \u0574\u0561\u0580\u0566", "name": "\u0539\u0561\u057d\u056b\u056f", "name:en": "Tasik", "name:hy": "\u0539\u0561\u057d\u056b\u056f", "name:ru": "\u0422\u0430\u0441\u0438\u043a", "place": "village", "population": "255", "population:date": "2022-01-01", "source:population": "Armstat", "wikidata": "Q2224102", "wikipedia": "en:Tasik"}}, {"type": "node", "id": 928427660, "lat": 39.4345499, "lon": 45.9217388, "tags": {"is_in:country": "Armenia", "is_in:country_code": "AM", "is_in:municipality": "\u054d\u056b\u057d\u056b\u0561\u0576\u056b \u0570\u0561\u0574\u0561\u0575\u0576\u0584", "is_in:region": "\u054d\u0575\u0578\u0582\u0576\u056b\u0584\u056b \u0574\u0561\u0580\u0566", "name": "\u0539\u0561\u0576\u0561\u0570\u0561\u057f", "name:en": "Tanahat", "name:hy": "\u0539\u0561\u0576\u0561\u0570\u0561\u057f", "name:ru": "\u0422\u0430\u043d\u0430\u0430\u0442", "place": "village", "population": "12", "population:date": "2022-01-01", "source:population": "Armstat", "wikidata": "Q2702251", "wikipedia": "en:Tanahat"}}, {"type": "node", "id": 928437694, "lat": 39.411103, "lon": 46.019775, "tags": {"is_in:country": "Armenia", "is_in:country_code": "AM", "is_in:municipality": "\u054d\u056b\u057d\u056b\u0561\u0576\u056b \u0570\u0561\u0574\u0561\u0575\u0576\u0584", "is_in:region": "\u054d\u0575\u0578\u0582\u0576\u056b\u0584\u056b \u0574\u0561\u0580\u0566", "name": "\u054f\u0578\u0580\u0578\u0582\u0576\u056b\u0584", "name:en": "Torunik", "name:hy": "\u054f\u0578\u0580\u0578\u0582\u0576\u056b\u0584", "name:ru": "\u0422\u043e\u0440\u0443\u043d\u0438\u043a", "place": "village", "population": "83", "population:date": "2022-01-01", "source:population": "Armstat", "wikidata": "Q2074347", "wikipedia": "en:Torunik"}}, {"type": "node", "id": 928437704, "lat": 39.37521, "lon": 45.996166, "tags": {"is_in:country": "Armenia", "is_in:country_code": "AM", "is_in:municipality": "\u054d\u056b\u057d\u056b\u0561\u0576\u056b \u0570\u0561\u0574\u0561\u0575\u0576\u0584", "is_in:region": "\u054d\u0575\u0578\u0582\u0576\u056b\u0584\u056b \u0574\u0561\u0580\u0566", "name": "\u0546\u056a\u0564\u0565\u0570", "name:en": "Nzhdeh", "name:hy": "\u0546\u056a\u0564\u0565\u0570", "name:ru": "\u041d\u0436\u0434\u0435", "place": "village", "population": "61", "population:date": "2022-01-01", "source:population": "Armstat", "wikidata": "Q713180", "wikipedia": "en:Nzhdeh, Armenia"}}, {"type": "node", "id": 928437707, "lat": 39.4428059, "lon": 46.0376167, "tags": {"is_in:country": "Armenia", "is_in:country_code": "AM", "is_in:municipality": "\u054d\u056b\u057d\u056b\u0561\u0576\u056b \u0570\u0561\u0574\u0561\u0575\u0576\u0584", "is_in:region": "\u054d\u0575\u0578\u0582\u0576\u056b\u0584\u056b \u0574\u0561\u0580\u0566", "name": "\u0531\u056d\u056c\u0561\u0569\u0575\u0561\u0576", "name:en": "Akhlatyan", "name:hy": "\u0531\u056d\u056c\u0561\u0569\u0575\u0561\u0576", "name:ru": "\u0410\u0445\u043b\u0430\u0442\u044f\u043d", "place": "village", "population": "541", "population:date": "2022-01-01", "source:population": "Armstat", "wikidata": "Q590573", "wikipedia": "en:Akhlatyan"}}, {"type": "node", "id": 928437708, "lat": 39.3795732, "lon": 46.027005, "tags": {"is_in:country": "Armenia", "is_in:country_code": "AM", "is_in:municipality": "\u054d\u056b\u057d\u056b\u0561\u0576\u056b \u0570\u0561\u0574\u0561\u0575\u0576\u0584", "is_in:region": "\u054d\u0575\u0578\u0582\u0576\u056b\u0584\u056b \u0574\u0561\u0580\u0566", "name": "\u0534\u0561\u057d\u057f\u0561\u056f\u0565\u0580\u057f", "name:en": "Dastakert", "name:hy": "\u0534\u0561\u057d\u057f\u0561\u056f\u0565\u0580\u057f", "name:ru": "\u0414\u0430\u0441\u0442\u0430\u043a\u0435\u0440\u0442", "place": "village", "population": "267", "population:date": "2022-01-01", "source:population": "Armstat", "wikidata": "Q39621", "wikipedia": "en:Dastakert"}}, {"type": "node", "id": 928448429, "lat": 39.647877, "lon": 45.885077, "tags": {"is_in:country": "Armenia", "is_in:country_code": "AM", "is_in:municipality": "\u0533\u0578\u0580\u0561\u0575\u0584\u056b \u0570\u0561\u0574\u0561\u0575\u0576\u0584", "is_in:region": "\u054d\u0575\u0578\u0582\u0576\u056b\u0584\u056b \u0574\u0561\u0580\u0566", "name": "\u054d\u0561\u057c\u0576\u0561\u056f\u0578\u0582\u0576\u0584", "name:en": "Sarnakunk", "name:hy": "\u054d\u0561\u057c\u0576\u0561\u056f\u0578\u0582\u0576\u0584", "name:ru": "\u0421\u0430\u0440\u043d\u0430\u043a\u0443\u043d\u043a", "place": "village", "population": "461", "population:date": "2022-01-01", "source:population": "Armstat", "wikidata": "Q640522", "wikipedia": "en:Sarnakunk"}}, {"type": "node", "id": 928448431, "lat": 39.5719939, "lon": 45.9416856, "tags": {"is_in:country": "Armenia", "is_in:country_code": "AM", "is_in:municipality": "\u054d\u056b\u057d\u056b\u0561\u0576\u056b \u0570\u0561\u0574\u0561\u0575\u0576\u0584", "is_in:region": "\u054d\u0575\u0578\u0582\u0576\u056b\u0584\u056b \u0574\u0561\u0580\u0566", "name": "\u0531\u0576\u0563\u0565\u0572\u0561\u056f\u0578\u0569", "name:en": "Angeghakot", "name:hy": "\u0531\u0576\u0563\u0565\u0572\u0561\u056f\u0578\u0569", "name:ru": "\u0410\u043d\u0433\u0435\u0445\u0430\u043a\u043e\u0442", "place": "village", "population": "1546", "population:date": "2022-01-01", "source:population": "Armstat", "wikidata": "Q590508", "wikipedia": "en:Angeghakot"}}, {"type": "node", "id": 928448439, "lat": 39.6222835, "lon": 45.9056894, "tags": {"is_in:country": "Armenia", "is_in:country_code": "AM", "is_in:municipality": "\u0533\u0578\u0580\u0561\u0575\u0584\u056b \u0570\u0561\u0574\u0561\u0575\u0576\u0584", "is_in:region": "\u054d\u0575\u0578\u0582\u0576\u056b\u0584\u056b \u0574\u0561\u0580\u0566", "name": "\u054d\u057a\u0561\u0576\u0564\u0561\u0580\u0575\u0561\u0576", "name:en": "Spandaryan", "name:hy": "\u054d\u057a\u0561\u0576\u0564\u0561\u0580\u0575\u0561\u0576", "name:ru": "\u0421\u043f\u0430\u043d\u0434\u0430\u0440\u044f\u043d", "place": "village", "population": "267", "population:date": "2022-01-01", "source:population": "Armstat", "wikidata": "Q428721", "wikipedia": "en:Spandaryan, Syunik"}}, {"type": "node", "id": 928448440, "lat": 39.557263, "lon": 45.931394, "tags": {"is_in:country": "Armenia", "is_in:country_code": "AM", "is_in:municipality": "\u054d\u056b\u057d\u056b\u0561\u0576\u056b \u0570\u0561\u0574\u0561\u0575\u0576\u0584", "is_in:region": "\u054d\u0575\u0578\u0582\u0576\u056b\u0584\u056b \u0574\u0561\u0580\u0566", "name": "\u0532\u0561\u056c\u0561\u0584", "name:en": "Balak", "name:hy": "\u0532\u0561\u056c\u0561\u0584", "name:ru": "\u0411\u0430\u043b\u0430\u043a", "place": "village", "population": "146", "population:date": "2022-01-01", "source:population": "Armstat", "wikidata": "Q712648", "wikipedia": "en:Balak, Armenia"}}, {"type": "node", "id": 928448444, "lat": 39.5324491, "lon": 45.9065501, "tags": {"is_in:country": "Armenia", "is_in:country_code": "AM", "is_in:municipality": "\u054d\u056b\u057d\u056b\u0561\u0576\u056b \u0570\u0561\u0574\u0561\u0575\u0576\u0584", "is_in:region": "\u054d\u0575\u0578\u0582\u0576\u056b\u0584\u056b \u0574\u0561\u0580\u0566", "name": "\u0544\u0578\u0582\u0581\u0584", "name:en": "Mutsk", "name:hy": "\u0544\u0578\u0582\u0581\u0584", "name:ru": "\u041c\u0443\u0446\u043a", "place": "village", "population": "150", "population:date": "2022-01-01", "source:population": "Armstat", "wikidata": "Q713178", "wikipedia": "en:Mutsk"}}, {"type": "node", "id": 928462017, "lat": 39.5179144, "lon": 46.0818131, "tags": {"is_in:country": "Armenia", "is_in:country_code": "AM", "is_in:municipality": "\u054d\u056b\u057d\u056b\u0561\u0576\u056b \u0570\u0561\u0574\u0561\u0575\u0576\u0584", "is_in:region": "\u054d\u0575\u0578\u0582\u0576\u056b\u0584\u056b \u0574\u0561\u0580\u0566", "name": "\u0531\u0572\u056b\u057f\u0578\u0582", "name:en": "Aghitu", "name:hy": "\u0531\u0572\u056b\u057f\u0578\u0582", "name:ru": "\u0410\u0433\u0438\u0442\u0443", "place": "village", "population": "337", "population:date": "2022-01-01", "source:population": "Armstat", "wikidata": "Q2154981", "wikipedia": "en:Aghitu"}}, {"type": "node", "id": 928462024, "lat": 39.5069546, "lon": 46.0501756, "tags": {"is_in:country": "Armenia", "is_in:country_code": "AM", "is_in:municipality": "\u054d\u056b\u057d\u056b\u0561\u0576\u056b \u0570\u0561\u0574\u0561\u0575\u0576\u0584", "is_in:region": "\u054d\u0575\u0578\u0582\u0576\u056b\u0584\u056b \u0574\u0561\u0580\u0566", "name": "\u0548\u0582\u0575\u056e", "name:en": "Uyts", "name:hy": "\u0548\u0582\u0575\u056e", "name:ru": "\u0423\u0439\u0446", "place": "village", "population": "412", "population:date": "2022-01-01", "source:population": "Armstat", "wikidata": "Q430895", "wikipedia": "en:Uyts"}}, {"type": "node", "id": 928462064, "lat": 39.5226707, "lon": 46.0911823, "tags": {"is_in:country": "Armenia", "is_in:country_code": "AM", "is_in:municipality": "\u054d\u056b\u057d\u056b\u0561\u0576\u056b \u0570\u0561\u0574\u0561\u0575\u0576\u0584", "is_in:region": "\u054d\u0575\u0578\u0582\u0576\u056b\u0584\u056b \u0574\u0561\u0580\u0566", "name": "\u0546\u0578\u0580\u0561\u057e\u0561\u0576", "name:en": "Noravan", "name:hy": "\u0546\u0578\u0580\u0561\u057e\u0561\u0576", "name:ru": "\u041d\u043e\u0440\u0430\u0432\u0430\u043d", "place": "village", "population": "348", "population:date": "2022-01-01", "source:population": "Armstat", "wikidata": "Q590427", "wikipedia": "en:Noravan, Syunik"}}, {"type": "node", "id": 1376550587, "lat": 39.3647562, "lon": 45.987667, "tags": {"is_in:country": "Armenia", "is_in:country_code": "AM", "is_in:municipality": "\u054d\u056b\u057d\u056b\u0561\u0576\u056b \u0570\u0561\u0574\u0561\u0575\u0576\u0584", "is_in:region": "\u054d\u0575\u0578\u0582\u0576\u056b\u0584\u056b \u0574\u0561\u0580\u0566", "name": "\u0551\u0572\u0578\u0582\u0576\u056b", "name:en": "Tsghuni", "name:hy": "\u0551\u0572\u0578\u0582\u0576\u056b", "name:ru": "\u0426\u0445\u0443\u043d\u0438", "place": "village", "population": "30", "population:date": "2022-01-01", "source:population": "Armstat", "wikidata": "Q7849598", "wikipedia": "en:Tsghuni"}}, {"type": "node", "id": 1376930315, "lat": 39.2522599, "lon": 46.0827431, "tags": {"is_in:country": "Armenia", "is_in:country_code": "AM", "is_in:municipality": "\u0554\u0561\u057b\u0561\u0580\u0561\u0576\u056b \u0570\u0561\u0574\u0561\u0575\u0576\u0584", "is_in:region": "\u054d\u0575\u0578\u0582\u0576\u056b\u0584\u056b \u0574\u0561\u0580\u0566", "name": "\u0531\u057b\u0561\u0562\u0561\u057b", "name:en": "Ajabaj", "name:hy": "\u0531\u057b\u0561\u0562\u0561\u057b", "name:ru": "\u0410\u0434\u0436\u0430\u0431\u0430\u0434\u0436", "place": "village", "population": "12", "population:date": "2022-01-01", "source:population": "Armstat", "wikidata": "Q4699491", "wikipedia": "en:Ajabaj"}}, {"type": "node", "id": 1376930347, "lat": 39.2883811, "lon": 46.1096347, "tags": {"is_in:country": "Armenia", "is_in:country_code": "AM", "is_in:municipality": "\u0554\u0561\u057b\u0561\u0580\u0561\u0576\u056b \u0570\u0561\u0574\u0561\u0575\u0576\u0584", "is_in:region": "\u054d\u0575\u0578\u0582\u0576\u056b\u0584\u056b \u0574\u0561\u0580\u0566", "name": "\u053f\u056b\u0581\u0584", "name:en": "Kitsk", "name:hy": "\u053f\u056b\u0581\u0584", "name:ru": "\u041a\u0438\u0446\u043a", "place": "village", "population": "0", "population:date": "2022-01-01", "source:population": "Armstat", "wikidata": "Q10956397", "wikipedia": "en:Kitsk"}}, {"type": "node", "id": 1988177673, "lat": 39.568231, "lon": 45.9091842, "tags": {"is_in:country": "Armenia", "is_in:country_code": "AM", "is_in:municipality": "\u054d\u056b\u057d\u056b\u0561\u0576\u056b \u0570\u0561\u0574\u0561\u0575\u0576\u0584", "is_in:region": "\u054d\u0575\u0578\u0582\u0576\u056b\u0584\u056b \u0574\u0561\u0580\u0566", "name": "\u0547\u0561\u0572\u0561\u057f", "name:en": "Shaghat", "name:hy": "\u0547\u0561\u0572\u0561\u057f", "name:ru": "\u0428\u0430\u0433\u0430\u0442", "place": "village", "population": "762", "population:date": "2022-01-01", "source:population": "Armstat", "wikidata": "Q640486", "wikipedia": "en:Shaghat"}}, {"type": "node", "id": 2981713356, "lat": 39.3631483, "lon": 45.6622535, "tags": {"name": "K\u00fcl\u00fcs", "name:az": "K\u00fcl\u00fcs", "place": "village"}}, {"type": "node", "id": 2981721221, "lat": 39.3743927, "lon": 45.7208043, "tags": {"name": "Ke\u00e7ili", "name:az": "Ke\u00e7ili", "place": "village"}}, {"type": "node", "id": 2981786281, "lat": 39.4942194, "lon": 45.6083813, "tags": {"name": "Q\u0131z\u0131l Q\u0131\u015flaq", "name:az": "Q\u0131z\u0131l Q\u0131\u015flaq", "name:ru": "\u041a\u044b\u0437\u044b\u043b \u041a\u044b\u0448\u043b\u0430\u043a", "place": "village"}}, {"type": "node", "id": 2981786942, "lat": 39.4325442, "lon": 45.5871382, "tags": {"name": "Ayr\u0131nc", "name:az": "Ayr\u0131nc", "place": "village"}}, {"type": "node", "id": 2981809828, "lat": 39.521122, "lon": 45.6232515, "tags": {"name": "K\u00fck\u00fc", "name:az": "K\u00fck\u00fc", "place": "village"}}, {"type": "node", "id": 2981823776, "lat": 39.4104984, "lon": 45.5917269, "tags": {"name": "Qarababa", "name:az": "Qarababa", "name:tr": "Karababa", "place": "village"}}, {"type": "node", "id": 2981825835, "lat": 39.4111917, "lon": 45.6268746, "tags": {"name": "Mahmudoba", "name:az": "Mahmudoba", "place": "village"}}, {"type": "node", "id": 2981826577, "lat": 39.4011445, "lon": 45.6675583, "tags": {"name": "Nursu", "name:az": "Nursu", "place": "village"}}, {"type": "node", "id": 2981839267, "lat": 39.4516045, "lon": 45.685461, "tags": {"name": "Kolan\u0131", "name:az": "Kolan\u0131", "place": "village"}}, {"type": "node", "id": 2981839810, "lat": 39.4635919, "lon": 45.703054, "tags": {"name": "A\u015fa\u011f\u0131 Q\u0131\u015flaq", "name:az": "A\u015fa\u011f\u0131 Q\u0131\u015flaq", "place": "village"}}, {"type": "node", "id": 2981843336, "lat": 39.4949558, "lon": 45.6958718, "tags": {"name": "Yuxar\u0131 Q\u0131\u015flaq", "name:az": "Yuxar\u0131 Q\u0131\u015flaq", "place": "village"}}, {"type": "node", "id": 2981844535, "lat": 39.5059654, "lon": 45.7708037, "tags": {"name": "Bi\u00e7\u0259n\u0259k", "name:az": "Bi\u00e7\u0259n\u0259k", "place": "village"}}, {"type": "node", "id": 2981872938, "lat": 39.4478615, "lon": 45.7230313, "tags": {"name": "A\u011fbulaq", "name:az": "A\u011fbulaq", "place": "village"}}, {"type": "node", "id": 2981872963, "lat": 39.4613479, "lon": 45.75157, "tags": {"name": "G\u00f6m\u00fcr", "name:az": "G\u00f6m\u00fcr", "place": "village"}}, {"type": "node", "id": 2982378739, "lat": 39.2557765, "lon": 45.6145772, "tags": {"name": "N\u0259h\u0259cir", "name:az": "N\u0259h\u0259cir", "name:en": "Nahajir", "place": "village", "wikipedia": "en:Nahajir"}}, {"type": "node", "id": 2982379694, "lat": 39.2929169, "lon": 45.6613869, "tags": {"name": "G\u00f6yn\u00fck", "name:az": "G\u00f6yn\u00fck", "place": "village"}}, {"type": "node", "id": 3015786086, "lat": 39.5682688, "lon": 46.0396827, "tags": {"is_in:country": "Armenia", "is_in:country_code": "AM", "is_in:municipality": "\u054d\u056b\u057d\u056b\u0561\u0576\u056b \u0570\u0561\u0574\u0561\u0575\u0576\u0584", "is_in:region": "\u054d\u0575\u0578\u0582\u0576\u056b\u0584\u056b \u0574\u0561\u0580\u0566", "name": "\u053b\u0577\u056d\u0561\u0576\u0561\u057d\u0561\u0580", "name:de": "Ischchanasar", "name:en": "Ishkhanasar", "name:hy": "\u053b\u0577\u056d\u0561\u0576\u0561\u057d\u0561\u0580", "name:ru": "\u0418\u0448\u0445\u0430\u043d\u0430\u0441\u0430\u0440", "place": "village", "population": "195", "population:date": "2022-01-01", "source:population": "Armstat", "wikidata": "Q713175", "wikipedia": "en:Ishkhanasar"}}, {"type": "node", "id": 3446282632, "lat": 39.2553413, "lon": 45.7712267, "tags": {"name": "Teyvaz", "name:az": "Teyvaz", "place": "village", "population": "324"}}, {"type": "node", "id": 3966688290, "lat": 39.5658366, "lon": 46.0405814}, {"type": "node", "id": 3966688294, "lat": 39.5659692, "lon": 46.042282}, {"type": "node", "id": 3966688306, "lat": 39.5663594, "lon": 46.0395792}, {"type": "node", "id": 3966688341, "lat": 39.5671631, "lon": 46.0367146}, {"type": "node", "id": 3966688352, "lat": 39.5679278, "lon": 46.0368968}, {"type": "node", "id": 3966688358, "lat": 39.5687359, "lon": 46.0360988}, {"type": "node", "id": 3966688361, "lat": 39.5691919, "lon": 46.0427476}, {"type": "node", "id": 3966688364, "lat": 39.56952, "lon": 46.0339426}, {"type": "node", "id": 3966688371, "lat": 39.5699566, "lon": 46.0430209}, {"type": "node", "id": 3966688379, "lat": 39.570932, "lon": 46.0435169}, {"type": "node", "id": 3966688383, "lat": 39.5713221, "lon": 46.0419783}, {"type": "node", "id": 3966688385, "lat": 39.5717591, "lon": 46.041462}, {"type": "node", "id": 3966688390, "lat": 39.5723053, "lon": 46.0404599}, {"type": "node", "id": 3966688392, "lat": 39.5724851, "lon": 46.0339123}, {"type": "node", "id": 3966688400, "lat": 39.5732107, "lon": 46.0393177}, {"type": "node", "id": 3966688404, "lat": 39.5735307, "lon": 46.0380524}, {"type": "node", "id": 3966688406, "lat": 39.5737803, "lon": 46.0362202}, {"type": "node", "id": 3966688407, "lat": 39.5738037, "lon": 46.0349751}, {"type": "node", "id": 4271275179, "lat": 39.5189036, "lon": 46.0906385}, {"type": "node", "id": 4271275180, "lat": 39.5200446, "lon": 46.0931272}, {"type": "node", "id": 4271275181, "lat": 39.5204505, "lon": 46.0881071}, {"type": "node", "id": 4271275182, "lat": 39.5248714, "lon": 46.0886333}, {"type": "node", "id": 4271275183, "lat": 39.5259573, "lon": 46.0942792}, {"type": "node", "id": 4271275184, "lat": 39.5263743, "lon": 46.093243}, {"type": "node", "id": 4271275185, "lat": 39.5266155, "lon": 46.0916482}, {"type": "node", "id": 4271275186, "lat": 39.5270104, "lon": 46.091634}, {"type": "node", "id": 4271275187, "lat": 39.5273504, "lon": 46.0896572}, {"type": "node", "id": 4271293121, "lat": 39.4990668, "lon": 46.120936}, {"type": "node", "id": 4271293122, "lat": 39.50004, "lon": 46.1146414}, {"type": "node", "id": 4271293123, "lat": 39.5002788, "lon": 46.1227361}, {"type": "node", "id": 4271293124, "lat": 39.5006504, "lon": 46.119778}, {"type": "node", "id": 4271293125, "lat": 39.5009335, "lon": 46.1165447}, {"type": "node", "id": 4271293127, "lat": 39.5019155, "lon": 46.112933}, {"type": "node", "id": 4271293128, "lat": 39.5036229, "lon": 46.1241807}, {"type": "node", "id": 4271293129, "lat": 39.504313, "lon": 46.1133572}, {"type": "node", "id": 4271293130, "lat": 39.5050561, "lon": 46.1128069}, {"type": "node", "id": 4271293131, "lat": 39.5064184, "lon": 46.1162007}, {"type": "node", "id": 4271293132, "lat": 39.5068254, "lon": 46.1190442}, {"type": "node", "id": 4271293133, "lat": 39.5068254, "lon": 46.1234469}, {"type": "node", "id": 4271293134, "lat": 39.5071261, "lon": 46.1171409}, {"type": "node", "id": 4271293135, "lat": 39.5074269, "lon": 46.113105}, {"type": "node", "id": 4271293136, "lat": 39.5076923, "lon": 46.116086}, {"type": "node", "id": 4271293137, "lat": 39.5081877, "lon": 46.1211538}, {"type": "node", "id": 4271293141, "lat": 39.5086469, "lon": 46.1223487}, {"type": "node", "id": 4271293177, "lat": 39.512573, "lon": 46.0876256}, {"type": "node", "id": 4271293182, "lat": 39.5131656, "lon": 46.0883709}, {"type": "node", "id": 4271293183, "lat": 39.5132275, "lon": 46.086502}, {"type": "node", "id": 4271293187, "lat": 39.5133337, "lon": 46.0826152}, {"type": "node", "id": 4271293290, "lat": 39.5136698, "lon": 46.0805973}, {"type": "node", "id": 4271293295, "lat": 39.5140236, "lon": 46.0789462}, {"type": "node", "id": 4271293334, "lat": 39.5165003, "lon": 46.0793819}, {"type": "node", "id": 4271293362, "lat": 39.5177651, "lon": 46.0840369}, {"type": "node", "id": 4271293363, "lat": 39.5179774, "lon": 46.0850459}, {"type": "node", "id": 4271293365, "lat": 39.5185169, "lon": 46.0827642}, {"type": "node", "id": 4271293366, "lat": 39.5187469, "lon": 46.0778226}, {"type": "node", "id": 4271293368, "lat": 39.5196579, "lon": 46.0834522}, {"type": "node", "id": 4271293370, "lat": 39.5213029, "lon": 46.0778111}, {"type": "node", "id": 4271293371, "lat": 39.5220282, "lon": 46.0829248}, {"type": "node", "id": 4271293372, "lat": 39.5221874, "lon": 46.0771232}, {"type": "node", "id": 4271293373, "lat": 39.5238501, "lon": 46.0806087}, {"type": "node", "id": 4271293374, "lat": 39.5243984, "lon": 46.077169}, {"type": "node", "id": 4271294861, "lat": 39.49768, "lon": 46.0522028}, {"type": "node", "id": 4271294862, "lat": 39.4977773, "lon": 46.0487516}, {"type": "node", "id": 4271294863, "lat": 39.5017231, "lon": 46.0442915}, {"type": "node", "id": 4271294864, "lat": 39.5017673, "lon": 46.0527646}, {"type": "node", "id": 4271294865, "lat": 39.5045215, "lon": 46.0434864}, {"type": "node", "id": 4271294866, "lat": 39.5047221, "lon": 46.0525009}, {"type": "node", "id": 4271294867, "lat": 39.5073812, "lon": 46.0419271}, {"type": "node", "id": 4271294868, "lat": 39.5090391, "lon": 46.0513199}, {"type": "node", "id": 4271294869, "lat": 39.5098175, "lon": 46.0489351}, {"type": "node", "id": 4271294870, "lat": 39.5092289, "lon": 46.0425234}, {"type": "node", "id": 4271294871, "lat": 39.5124801, "lon": 46.0486714}, {"type": "node", "id": 4271294872, "lat": 39.5125049, "lon": 46.0473889}, {"type": "node", "id": 4271295098, "lat": 39.5196623, "lon": 46.0779086}, {"type": "node", "id": 4271295100, "lat": 39.520445, "lon": 46.076762}, {"type": "node", "id": 4271325055, "lat": 39.4706154, "lon": 46.0379287}, {"type": "node", "id": 4271325056, "lat": 39.4718803, "lon": 45.991113}, {"type": "node", "id": 4271325057, "lat": 39.4721073, "lon": 46.0328452}, {"type": "node", "id": 4271325058, "lat": 39.4721613, "lon": 46.0386709}, {"type": "node", "id": 4271325059, "lat": 39.4721937, "lon": 46.0343156}, {"type": "node", "id": 4271325060, "lat": 39.4726586, "lon": 46.0368224}, {"type": "node", "id": 4271325061, "lat": 39.4735234, "lon": 46.0364863}, {"type": "node", "id": 4271325062, "lat": 39.4738045, "lon": 45.9889004}, {"type": "node", "id": 4271325063, "lat": 39.4738801, "lon": 46.0299884}, {"type": "node", "id": 4271325064, "lat": 39.475934, "lon": 46.0314868}, {"type": "node", "id": 4271325065, "lat": 39.4773392, "lon": 46.0326772}, {"type": "node", "id": 4271325066, "lat": 39.4775122, "lon": 46.0362622}, {"type": "node", "id": 4271325067, "lat": 39.4779121, "lon": 46.0350158}, {"type": "node", "id": 4271325068, "lat": 39.4786039, "lon": 46.0008319}, {"type": "node", "id": 4271325069, "lat": 39.4816737, "lon": 45.9986752}, {"type": "node", "id": 4271327467, "lat": 39.4380359, "lon": 46.0416258}, {"type": "node", "id": 4271327468, "lat": 39.4390309, "lon": 46.0436144}, {"type": "node", "id": 4271327469, "lat": 39.4393986, "lon": 46.0382928}, {"type": "node", "id": 4271327470, "lat": 39.4401773, "lon": 46.0359121}, {"type": "node", "id": 4271327471, "lat": 39.4412804, "lon": 46.04227}, {"type": "node", "id": 4271327472, "lat": 39.4414319, "lon": 46.0331673}, {"type": "node", "id": 4271327473, "lat": 39.4422754, "lon": 46.0435303}, {"type": "node", "id": 4271327474, "lat": 39.4445249, "lon": 46.0319069}, {"type": "node", "id": 4271327475, "lat": 39.4448926, "lon": 46.0393291}, {"type": "node", "id": 4271327476, "lat": 39.4451954, "lon": 46.0408696}, {"type": "node", "id": 4271327477, "lat": 39.4456712, "lon": 46.0344557}, {"type": "node", "id": 4271327478, "lat": 39.446385, "lon": 46.0379847}, {"type": "node", "id": 4484195068, "lat": 39.6468123, "lon": 45.8810268}, {"type": "node", "id": 4484195069, "lat": 39.6478532, "lon": 45.880383}, {"type": "node", "id": 4484195070, "lat": 39.6484314, "lon": 45.8793101}, {"type": "node", "id": 4484195071, "lat": 39.649274, "lon": 45.8792672}, {"type": "node", "id": 4484195072, "lat": 39.649588, "lon": 45.8802543}, {"type": "node", "id": 4484195073, "lat": 39.6495219, "lon": 45.881177}, {"type": "node", "id": 4484195074, "lat": 39.6500836, "lon": 45.8813915}, {"type": "node", "id": 4484195075, "lat": 39.6508022, "lon": 45.8811877}, {"type": "node", "id": 4484195076, "lat": 39.6515994, "lon": 45.881692}, {"type": "node", "id": 4484195077, "lat": 39.6519133, "lon": 45.8825663}, {"type": "node", "id": 4484195078, "lat": 39.6526939, "lon": 45.8837733}, {"type": "node", "id": 4484195079, "lat": 39.6528591, "lon": 45.8852539}, {"type": "node", "id": 4484195080, "lat": 39.6530904, "lon": 45.8863268}, {"type": "node", "id": 4484195081, "lat": 39.6535695, "lon": 45.887228}, {"type": "node", "id": 4484195082, "lat": 39.6541478, "lon": 45.8887944}, {"type": "node", "id": 4484195083, "lat": 39.6541312, "lon": 45.889524}, {"type": "node", "id": 4484195084, "lat": 39.6539991, "lon": 45.8899532}, {"type": "node", "id": 4484195085, "lat": 39.6532061, "lon": 45.8907256}, {"type": "node", "id": 4484195086, "lat": 39.6525122, "lon": 45.8907471}, {"type": "node", "id": 4484195087, "lat": 39.6518349, "lon": 45.8899746}, {"type": "node", "id": 4484195088, "lat": 39.6512897, "lon": 45.8886872}, {"type": "node", "id": 4484202789, "lat": 39.6505627, "lon": 45.8881507}, {"type": "node", "id": 4484202790, "lat": 39.649621, "lon": 45.8883009}, {"type": "node", "id": 4484202791, "lat": 39.6492245, "lon": 45.8893523}, {"type": "node", "id": 4484202792, "lat": 39.6484645, "lon": 45.8911119}, {"type": "node", "id": 4484202793, "lat": 39.6473079, "lon": 45.8914766}, {"type": "node", "id": 4484202794, "lat": 39.6457879, "lon": 45.8923564}, {"type": "node", "id": 4484202795, "lat": 39.6432103, "lon": 45.8934508}, {"type": "node", "id": 4484202796, "lat": 39.6429625, "lon": 45.893322}, {"type": "node", "id": 4484202797, "lat": 39.642285, "lon": 45.892292}, {"type": "node", "id": 4484202798, "lat": 39.6418059, "lon": 45.89079}, {"type": "node", "id": 4484202799, "lat": 39.6411614, "lon": 45.8890305}, {"type": "node", "id": 4484202800, "lat": 39.6407649, "lon": 45.8867989}, {"type": "node", "id": 4484202801, "lat": 39.6416241, "lon": 45.8853398}, {"type": "node", "id": 4484202802, "lat": 39.6426485, "lon": 45.8851252}, {"type": "node", "id": 4484202803, "lat": 39.6435243, "lon": 45.8849106}, {"type": "node", "id": 4484202804, "lat": 39.6261068, "lon": 45.9060464}, {"type": "node", "id": 4484202805, "lat": 39.6259225, "lon": 45.9049425}, {"type": "node", "id": 4484202806, "lat": 39.624421, "lon": 45.9046087}, {"type": "node", "id": 4484202807, "lat": 39.6242723, "lon": 45.9040723}, {"type": "node", "id": 4484202808, "lat": 39.624768, "lon": 45.9031497}, {"type": "node", "id": 4484202809, "lat": 39.6247516, "lon": 45.9018622}, {"type": "node", "id": 4484202810, "lat": 39.6246028, "lon": 45.9011541}, {"type": "node", "id": 4484202811, "lat": 39.6236442, "lon": 45.9007893}, {"type": "node", "id": 4484202812, "lat": 39.6226195, "lon": 45.9006391}, {"type": "node", "id": 4484202813, "lat": 39.6211898, "lon": 45.9007517}, {"type": "node", "id": 4484202814, "lat": 39.6206691, "lon": 45.9016476}, {"type": "node", "id": 4484202815, "lat": 39.6203882, "lon": 45.903214}, {"type": "node", "id": 4484202816, "lat": 39.6202064, "lon": 45.9048019}, {"type": "node", "id": 4484202817, "lat": 39.6200907, "lon": 45.9062395}, {"type": "node", "id": 4484202818, "lat": 39.6196774, "lon": 45.9079347}, {"type": "node", "id": 4484202819, "lat": 39.6193964, "lon": 45.9093723}, {"type": "node", "id": 4484202820, "lat": 39.619727, "lon": 45.9101448}, {"type": "node", "id": 4484202821, "lat": 39.6205865, "lon": 45.9107456}, {"type": "node", "id": 4484202822, "lat": 39.6213303, "lon": 45.9111533}, {"type": "node", "id": 4484202823, "lat": 39.6221567, "lon": 45.9115181}, {"type": "node", "id": 4484202824, "lat": 39.6231484, "lon": 45.9116254}, {"type": "node", "id": 4484202825, "lat": 39.6236277, "lon": 45.9110031}, {"type": "node", "id": 4484202826, "lat": 39.6236773, "lon": 45.9104023}, {"type": "node", "id": 4484202827, "lat": 39.6241458, "lon": 45.9092635}, {"type": "node", "id": 4484202828, "lat": 39.624309, "lon": 45.9088773}, {"type": "node", "id": 4484202829, "lat": 39.625925, "lon": 45.9070549}, {"type": "node", "id": 4484202830, "lat": 39.5720272, "lon": 46.0029379}, {"type": "node", "id": 4484202831, "lat": 39.5728953, "lon": 45.9986409}, {"type": "node", "id": 4484202832, "lat": 39.5720832, "lon": 45.99836}, {"type": "node", "id": 4484202833, "lat": 39.5719976, "lon": 45.9968807}, {"type": "node", "id": 4484202834, "lat": 39.5710163, "lon": 45.9962759}, {"type": "node", "id": 4484202835, "lat": 39.5706193, "lon": 45.9960613}, {"type": "node", "id": 4484202836, "lat": 39.5708013, "lon": 45.9950528}, {"type": "node", "id": 4484202837, "lat": 39.5700073, "lon": 45.9943233}, {"type": "node", "id": 4484202838, "lat": 39.5687131, "lon": 45.9946236}, {"type": "node", "id": 4484202839, "lat": 39.5673298, "lon": 45.9942937}, {"type": "node", "id": 4484202840, "lat": 39.5664593, "lon": 45.9946236}, {"type": "node", "id": 4484202841, "lat": 39.5663724, "lon": 45.9944252}, {"type": "node", "id": 4484202842, "lat": 39.5664448, "lon": 45.9940202}, {"type": "node", "id": 4484202843, "lat": 39.5666495, "lon": 45.9931431}, {"type": "node", "id": 4484202844, "lat": 39.5670796, "lon": 45.992156}, {"type": "node", "id": 4484202845, "lat": 39.567857, "lon": 45.9911475}, {"type": "node", "id": 4484202846, "lat": 39.5687833, "lon": 45.9901176}, {"type": "node", "id": 4484202847, "lat": 39.569478, "lon": 45.9888087}, {"type": "node", "id": 4484202848, "lat": 39.5694615, "lon": 45.9866843}, {"type": "node", "id": 4484202849, "lat": 39.5684029, "lon": 45.9860621}, {"type": "node", "id": 4484202850, "lat": 39.5670465, "lon": 45.9862337}, {"type": "node", "id": 4484202851, "lat": 39.5652766, "lon": 45.9878645}, {"type": "node", "id": 4484202852, "lat": 39.564069, "lon": 45.9894738}, {"type": "node", "id": 4484202853, "lat": 39.5625968, "lon": 45.9908471}, {"type": "node", "id": 4484202854, "lat": 39.5617531, "lon": 45.9916196}, {"type": "node", "id": 4484202855, "lat": 39.5598838, "lon": 45.9935508}, {"type": "node", "id": 4484202856, "lat": 39.5592055, "lon": 45.9952889}, {"type": "node", "id": 4484202857, "lat": 39.5591559, "lon": 45.9963832}, {"type": "node", "id": 4484202858, "lat": 39.5592882, "lon": 45.9979925}, {"type": "node", "id": 4484202859, "lat": 39.5594702, "lon": 45.9989367}, {"type": "node", "id": 4484202860, "lat": 39.5607109, "lon": 45.9999237}, {"type": "node", "id": 4484202861, "lat": 39.5619185, "lon": 46.0009537}, {"type": "node", "id": 4484202862, "lat": 39.5622163, "lon": 46.0015116}, {"type": "node", "id": 4484202863, "lat": 39.5631757, "lon": 46.0031209}, {"type": "node", "id": 4484202864, "lat": 39.564842, "lon": 46.0038403}, {"type": "node", "id": 4484202865, "lat": 39.5661533, "lon": 46.0035286}, {"type": "node", "id": 4484202866, "lat": 39.5668646, "lon": 46.0044298}, {"type": "node", "id": 4484202867, "lat": 39.567824, "lon": 46.004859}, {"type": "node", "id": 4484202868, "lat": 39.5687172, "lon": 46.0048161}, {"type": "node", "id": 4484202869, "lat": 39.5695773, "lon": 46.0044513}, {"type": "node", "id": 4484202870, "lat": 39.5704374, "lon": 46.0035072}, {"type": "node", "id": 5026644840, "lat": 39.5742123, "lon": 45.9350717}, {"type": "node", "id": 5026644841, "lat": 39.5736251, "lon": 45.9361875}, {"type": "node", "id": 5026644842, "lat": 39.5727071, "lon": 45.9360158}, {"type": "node", "id": 5026644843, "lat": 39.5724921, "lon": 45.9371638}, {"type": "node", "id": 5026644844, "lat": 39.5726823, "lon": 45.9389341}, {"type": "node", "id": 5026644846, "lat": 39.5744686, "lon": 45.9405219}, {"type": "node", "id": 5026644847, "lat": 39.573683, "lon": 45.9411657}, {"type": "node", "id": 5026644848, "lat": 39.5734349, "lon": 45.9421635}, {"type": "node", "id": 5026644849, "lat": 39.5721861, "lon": 45.9435367}, {"type": "node", "id": 5026644850, "lat": 39.5726327, "lon": 45.94432}, {"type": "node", "id": 5026644851, "lat": 39.5727154, "lon": 45.9472167}, {"type": "node", "id": 5026644852, "lat": 39.5718388, "lon": 45.9479248}, {"type": "node", "id": 5026644853, "lat": 39.5721117, "lon": 45.9486115}, {"type": "node", "id": 5026644854, "lat": 39.5704494, "lon": 45.9489548}, {"type": "node", "id": 5026644855, "lat": 39.5694983, "lon": 45.9517658}, {"type": "node", "id": 5026644856, "lat": 39.5678773, "lon": 45.9510577}, {"type": "node", "id": 5026644857, "lat": 39.5682578, "lon": 45.9503174}, {"type": "node", "id": 5026644858, "lat": 39.5690931, "lon": 45.9485149}, {"type": "node", "id": 5026644859, "lat": 39.5667856, "lon": 45.9470987}, {"type": "node", "id": 5026644860, "lat": 39.5653961, "lon": 45.9449208}, {"type": "node", "id": 5026644861, "lat": 39.5664548, "lon": 45.9427857}, {"type": "node", "id": 5026644862, "lat": 39.5662811, "lon": 45.940876}, {"type": "node", "id": 5026644863, "lat": 39.5662811, "lon": 45.9393096}, {"type": "node", "id": 5026644864, "lat": 39.5676954, "lon": 45.9382474}, {"type": "node", "id": 5026644865, "lat": 39.5682495, "lon": 45.9347927}, {"type": "node", "id": 5026644866, "lat": 39.5719546, "lon": 45.9348142}, {"type": "node", "id": 5026644867, "lat": 39.5733853, "lon": 45.9319067}, {"type": "node", "id": 5026644868, "lat": 39.5747746, "lon": 45.9329367}, {"type": "node", "id": 5026644882, "lat": 39.5725748, "lon": 45.9075093}, {"type": "node", "id": 5026644883, "lat": 39.5719049, "lon": 45.9078205}, {"type": "node", "id": 5026644884, "lat": 39.5719711, "lon": 45.9084964}, {"type": "node", "id": 5026644885, "lat": 39.5726741, "lon": 45.9089684}, {"type": "node", "id": 5026644886, "lat": 39.57255, "lon": 45.9097195}, {"type": "node", "id": 5026644887, "lat": 39.5735507, "lon": 45.9109211}, {"type": "node", "id": 5026644888, "lat": 39.5731372, "lon": 45.9118974}, {"type": "node", "id": 5026644889, "lat": 39.5722688, "lon": 45.9116828}, {"type": "node", "id": 5026644890, "lat": 39.5719962, "lon": 45.913115}, {"type": "node", "id": 5026644891, "lat": 39.569366, "lon": 45.9122515}, {"type": "node", "id": 5026644892, "lat": 39.5685638, "lon": 45.9130561}, {"type": "node", "id": 5026644893, "lat": 39.5678194, "lon": 45.909698}, {"type": "node", "id": 5026644894, "lat": 39.5663969, "lon": 45.910095}, {"type": "node", "id": 5026644895, "lat": 39.5666615, "lon": 45.9116292}, {"type": "node", "id": 5026644896, "lat": 39.5663307, "lon": 45.9123158}, {"type": "node", "id": 5026644897, "lat": 39.5648998, "lon": 45.9102666}, {"type": "node", "id": 5026644898, "lat": 39.5645277, "lon": 45.9038508}, {"type": "node", "id": 5026644899, "lat": 39.5657435, "lon": 45.9017908}, {"type": "node", "id": 5026644900, "lat": 39.5689938, "lon": 45.9027886}, {"type": "node", "id": 5026644901, "lat": 39.5694239, "lon": 45.9052777}, {"type": "node", "id": 5026644902, "lat": 39.5710614, "lon": 45.9048271}, {"type": "node", "id": 5026644903, "lat": 39.5724012, "lon": 45.9068119}, {"type": "node", "id": 5026644976, "lat": 39.564875, "lon": 45.9118438}, {"type": "node", "id": 5026644978, "lat": 39.5598958, "lon": 45.91223}, {"type": "node", "id": 5026644979, "lat": 39.5560246, "lon": 45.9156847}, {"type": "node", "id": 5026644980, "lat": 39.5588039, "lon": 45.9187317}, {"type": "node", "id": 5026644981, "lat": 39.5608222, "lon": 45.9186244}, {"type": "node", "id": 5026644982, "lat": 39.5618644, "lon": 45.9168434}, {"type": "node", "id": 5026645031, "lat": 39.5597634, "lon": 45.9268963}, {"type": "node", "id": 5026645032, "lat": 39.5594987, "lon": 45.9277868}, {"type": "node", "id": 5026645033, "lat": 39.5583076, "lon": 45.9285915}, {"type": "node", "id": 5026645034, "lat": 39.5563555, "lon": 45.928098}, {"type": "node", "id": 5026645035, "lat": 39.5542875, "lon": 45.9287095}, {"type": "node", "id": 5026645036, "lat": 39.5548003, "lon": 45.9365415}, {"type": "node", "id": 5026645037, "lat": 39.5588453, "lon": 45.9357476}, {"type": "node", "id": 5026645038, "lat": 39.5593747, "lon": 45.9335482}, {"type": "node", "id": 5026645039, "lat": 39.5602184, "lon": 45.9287739}, {"type": "node", "id": 5026645040, "lat": 39.5606154, "lon": 45.9268212}, {"type": "node", "id": 5026658031, "lat": 39.4354162, "lon": 45.9194398}, {"type": "node", "id": 5026658032, "lat": 39.4442964, "lon": 46.0068637, "tags": {"is_in:country": "Armenia", "is_in:country_code": "AM", "is_in:municipality": "\u054d\u056b\u057d\u056b\u0561\u0576\u056b \u0570\u0561\u0574\u0561\u0575\u0576\u0584", "is_in:region": "\u054d\u0575\u0578\u0582\u0576\u056b\u0584\u056b \u0574\u0561\u0580\u0566", "name": "\u0532\u0576\u0578\u0582\u0576\u056b\u057d", "name:en": "Bnunis", "name:hy": "\u0532\u0576\u0578\u0582\u0576\u056b\u057d", "name:ru": "\u0411\u043d\u0443\u043d\u0438\u0441", "place": "village", "population": "111", "population:date": "2022-01-01", "source:population": "Armstat", "wikidata": "Q713160", "wikipedia": "en:Bnunis"}}, {"type": "node", "id": 5026658033, "lat": 39.4465335, "lon": 46.0106349}, {"type": "node", "id": 5026658034, "lat": 39.4467323, "lon": 46.0089934}, {"type": "node", "id": 5026658035, "lat": 39.4455061, "lon": 46.0048306}, {"type": "node", "id": 5026658036, "lat": 39.4440065, "lon": 46.0029852}, {"type": "node", "id": 5026658037, "lat": 39.4432608, "lon": 46.0025239}, {"type": "node", "id": 5026658038, "lat": 39.4421837, "lon": 46.0019231}, {"type": "node", "id": 5026658039, "lat": 39.4414711, "lon": 46.0033607}, {"type": "node", "id": 5026658040, "lat": 39.4429294, "lon": 46.0060215}, {"type": "node", "id": 5026658041, "lat": 39.4434017, "lon": 46.0072553}, {"type": "node", "id": 5026658042, "lat": 39.4425897, "lon": 46.0100555}, {"type": "node", "id": 5026658043, "lat": 39.4421588, "lon": 46.0112464}, {"type": "node", "id": 5026658044, "lat": 39.4468483, "lon": 46.0137892}, {"type": "node", "id": 5026658045, "lat": 39.4473785, "lon": 46.0118472}, {"type": "node", "id": 5026658046, "lat": 39.4354141, "lon": 45.9202981}, {"type": "node", "id": 5026658047, "lat": 39.435497, "lon": 45.9214997}, {"type": "node", "id": 5026658048, "lat": 39.4350412, "lon": 45.9227228}, {"type": "node", "id": 5026658049, "lat": 39.4341629, "lon": 45.9231198}, {"type": "node", "id": 5026658050, "lat": 39.4331685, "lon": 45.9224117}, {"type": "node", "id": 5026658051, "lat": 39.4334254, "lon": 45.9201264}, {"type": "node", "id": 5026658052, "lat": 39.4350744, "lon": 45.9186029}, {"type": "node", "id": 5026658053, "lat": 39.4091664, "lon": 45.8947956}, {"type": "node", "id": 5026658054, "lat": 39.4092161, "lon": 45.8955359}, {"type": "node", "id": 5026658055, "lat": 39.408354, "lon": 45.8970809}, {"type": "node", "id": 5026658056, "lat": 39.4067541, "lon": 45.9001279}, {"type": "node", "id": 5026658057, "lat": 39.4070194, "lon": 45.900439}, {"type": "node", "id": 5026658058, "lat": 39.4068702, "lon": 45.9014368}, {"type": "node", "id": 5026658059, "lat": 39.4062236, "lon": 45.9014904}, {"type": "node", "id": 5026658060, "lat": 39.4060743, "lon": 45.9027243}, {"type": "node", "id": 5026658061, "lat": 39.4067873, "lon": 45.9040868}, {"type": "node", "id": 5026658062, "lat": 39.4063894, "lon": 45.9044945}, {"type": "node", "id": 5026658063, "lat": 39.4064474, "lon": 45.9068012}, {"type": "node", "id": 5026658064, "lat": 39.40595, "lon": 45.9069192}, {"type": "node", "id": 5026658065, "lat": 39.405693, "lon": 45.9051382}, {"type": "node", "id": 5026658066, "lat": 39.4046236, "lon": 45.9030461}, {"type": "node", "id": 5026658067, "lat": 39.4049469, "lon": 45.9012115}, {"type": "node", "id": 5026658068, "lat": 39.4060163, "lon": 45.8995914}, {"type": "node", "id": 5026658069, "lat": 39.4066546, "lon": 45.8984542}, {"type": "node", "id": 5026658070, "lat": 39.4082628, "lon": 45.8953428}, {"type": "node", "id": 5026658071, "lat": 39.4083208, "lon": 45.8936906}, {"type": "node", "id": 5026658072, "lat": 39.4089757, "lon": 45.8933365}, {"type": "node", "id": 5026658073, "lat": 39.4546689, "lon": 45.9650588}, {"type": "node", "id": 5026658074, "lat": 39.4548677, "lon": 45.9638142}, {"type": "node", "id": 5026658075, "lat": 39.452515, "lon": 45.9605098}, {"type": "node", "id": 5026658076, "lat": 39.4511729, "lon": 45.9608316}, {"type": "node", "id": 5026658077, "lat": 39.4500131, "lon": 45.9598446}, {"type": "node", "id": 5026658078, "lat": 39.4479253, "lon": 45.9595227}, {"type": "node", "id": 5026658079, "lat": 39.4462849, "lon": 45.9585142}, {"type": "node", "id": 5026658080, "lat": 39.4457381, "lon": 45.9593081}, {"type": "node", "id": 5026658081, "lat": 39.4524321, "lon": 45.9662819}, {"type": "node", "id": 5026658082, "lat": 39.4555304, "lon": 45.9678268}, {"type": "node", "id": 5026658083, "lat": 39.4566073, "lon": 45.9673977}, {"type": "node", "id": 5026658545, "lat": 39.4655035, "lon": 45.9166181}, {"type": "node", "id": 5026658546, "lat": 39.4649403, "lon": 45.9162319}, {"type": "node", "id": 5026658547, "lat": 39.4647995, "lon": 45.9175837}, {"type": "node", "id": 5026658548, "lat": 39.4643274, "lon": 45.9180343}, {"type": "node", "id": 5026658549, "lat": 39.4635902, "lon": 45.9194505}, {"type": "node", "id": 5026658550, "lat": 39.4626376, "lon": 45.9205127}, {"type": "node", "id": 5026658551, "lat": 39.4632506, "lon": 45.9238493}, {"type": "node", "id": 5026658552, "lat": 39.4646007, "lon": 45.9264028}, {"type": "node", "id": 5026658553, "lat": 39.4656112, "lon": 45.9255338}, {"type": "node", "id": 5026658554, "lat": 39.4662655, "lon": 45.923506}, {"type": "node", "id": 5026658555, "lat": 39.4663483, "lon": 45.9199977}, {"type": "node", "id": 5026658556, "lat": 39.4655201, "lon": 45.9173477}, {"type": "node", "id": 5026658634, "lat": 39.4614449, "lon": 45.9675264}, {"type": "node", "id": 5026658635, "lat": 39.4599539, "lon": 45.9710884}, {"type": "node", "id": 5026658636, "lat": 39.4654207, "lon": 45.977354}, {"type": "node", "id": 5026658637, "lat": 39.4673423, "lon": 45.9739637}, {"type": "node", "id": 5026658638, "lat": 39.4650563, "lon": 45.9704017}, {"type": "node", "id": 5026658639, "lat": 39.4647581, "lon": 45.9670114}, {"type": "node", "id": 5026658640, "lat": 39.5020208, "lon": 45.9735346}, {"type": "node", "id": 5026658641, "lat": 39.4999181, "lon": 45.9780621}, {"type": "node", "id": 5026658642, "lat": 39.5050175, "lon": 45.986731}, {"type": "node", "id": 5026658643, "lat": 39.5025341, "lon": 45.990572}, {"type": "node", "id": 5026658644, "lat": 39.4931955, "lon": 45.9787917}, {"type": "node", "id": 5026658645, "lat": 39.4933942, "lon": 45.9746933}, {"type": "node", "id": 5026658646, "lat": 39.491225, "lon": 45.9685349}, {"type": "node", "id": 5026658647, "lat": 39.4932121, "lon": 45.9613037}, {"type": "node", "id": 5026658648, "lat": 39.4953647, "lon": 45.9612393}, {"type": "node", "id": 5026658649, "lat": 39.4967059, "lon": 45.9631705}, {"type": "node", "id": 5026658650, "lat": 39.4962588, "lon": 45.9661746}, {"type": "node", "id": 5026658651, "lat": 39.4972357, "lon": 45.9706807}, {"type": "node", "id": 5026658652, "lat": 39.4988584, "lon": 45.9680199}, {"type": "node", "id": 5026658653, "lat": 39.5009446, "lon": 45.9628057}, {"type": "node", "id": 5026658654, "lat": 39.5020871, "lon": 45.9658527}, {"type": "node", "id": 5026658655, "lat": 39.5033454, "lon": 45.9659385}, {"type": "node", "id": 5026677964, "lat": 39.4140487, "lon": 46.0178554}, {"type": "node", "id": 5026677965, "lat": 39.414604, "lon": 46.0192287}, {"type": "node", "id": 5026677966, "lat": 39.4141233, "lon": 46.0211062}, {"type": "node", "id": 5026677967, "lat": 39.4153666, "lon": 46.0208166}, {"type": "node", "id": 5026677968, "lat": 39.4150268, "lon": 46.0219216}, {"type": "node", "id": 5026677969, "lat": 39.4132695, "lon": 46.0217178}, {"type": "node", "id": 5026677970, "lat": 39.4131452, "lon": 46.0221791}, {"type": "node", "id": 5026677971, "lat": 39.4112553, "lon": 46.0225117}, {"type": "node", "id": 5026677972, "lat": 39.41099, "lon": 46.0244858}, {"type": "node", "id": 5026677973, "lat": 39.4085861, "lon": 46.0252797}, {"type": "node", "id": 5026677974, "lat": 39.4071686, "lon": 46.0245395}, {"type": "node", "id": 5026677975, "lat": 39.4078318, "lon": 46.0228443}, {"type": "node", "id": 5026677976, "lat": 39.4100533, "lon": 46.0233915}, {"type": "node", "id": 5026677977, "lat": 39.4108657, "lon": 46.0224581}, {"type": "node", "id": 5026677978, "lat": 39.4102357, "lon": 46.0212242}, {"type": "node", "id": 5026677979, "lat": 39.409042, "lon": 46.0221684}, {"type": "node", "id": 5026677980, "lat": 39.4084949, "lon": 46.0221898}, {"type": "node", "id": 5026677981, "lat": 39.4084949, "lon": 46.0203445}, {"type": "node", "id": 5026677982, "lat": 39.4115123, "lon": 46.0184455}, {"type": "node", "id": 5026677983, "lat": 39.4116698, "lon": 46.0157203}, {"type": "node", "id": 5026677984, "lat": 39.4138, "lon": 46.0170293}, {"type": "node", "id": 5026678450, "lat": 39.3813498, "lon": 46.0241747}, {"type": "node", "id": 5026678451, "lat": 39.3802634, "lon": 46.0249472}, {"type": "node", "id": 5026678452, "lat": 39.3792848, "lon": 46.0248399}, {"type": "node", "id": 5026678453, "lat": 39.3755529, "lon": 46.023488}, {"type": "node", "id": 5026678454, "lat": 39.3726584, "lon": 46.0242927}, {"type": "node", "id": 5026678455, "lat": 39.3725257, "lon": 46.0253763}, {"type": "node", "id": 5026678456, "lat": 39.3738693, "lon": 46.0254729}, {"type": "node", "id": 5026678457, "lat": 39.3773525, "lon": 46.0264707}, {"type": "node", "id": 5026678458, "lat": 39.3780409, "lon": 46.0273933}, {"type": "node", "id": 5026678459, "lat": 39.3777755, "lon": 46.028831}, {"type": "node", "id": 5026678460, "lat": 39.3766559, "lon": 46.0304832}, {"type": "node", "id": 5026678461, "lat": 39.3770706, "lon": 46.0324144}, {"type": "node", "id": 5026678462, "lat": 39.3761749, "lon": 46.0349786}, {"type": "node", "id": 5026678463, "lat": 39.3763408, "lon": 46.0357726}, {"type": "node", "id": 5026678464, "lat": 39.3772281, "lon": 46.0354507}, {"type": "node", "id": 5026678465, "lat": 39.3789614, "lon": 46.0314703}, {"type": "node", "id": 5026678466, "lat": 39.3813415, "lon": 46.0295284}, {"type": "node", "id": 5026678467, "lat": 39.3813829, "lon": 46.0271788}, {"type": "node", "id": 5026678468, "lat": 39.3823283, "lon": 46.0259128}, {"type": "node", "id": 5026678469, "lat": 39.38198, "lon": 46.024636}, {"type": "node", "id": 5026678586, "lat": 39.3785643, "lon": 46.0005696}, {"type": "node", "id": 5026678596, "lat": 39.3772779, "lon": 45.9904754}, {"type": "node", "id": 5026678597, "lat": 39.3750884, "lon": 45.9927285}, {"type": "node", "id": 5026678598, "lat": 39.3737366, "lon": 45.9939194}, {"type": "node", "id": 5026678599, "lat": 39.3731809, "lon": 45.9953785}, {"type": "node", "id": 5026678600, "lat": 39.3742591, "lon": 45.9977174}, {"type": "node", "id": 5026678601, "lat": 39.3793926, "lon": 46.0011184}, {"type": "node", "id": 5026678602, "lat": 39.3802717, "lon": 46.0008609}, {"type": "node", "id": 5026678603, "lat": 39.3755446, "lon": 45.995475}, {"type": "node", "id": 5026678604, "lat": 39.3758266, "lon": 45.9943592}, {"type": "node", "id": 5026678605, "lat": 39.3780492, "lon": 45.991044}, {"type": "node", "id": 5026678606, "lat": 39.3656664, "lon": 45.9845209}, {"type": "node", "id": 5026678607, "lat": 39.3660148, "lon": 45.9864199}, {"type": "node", "id": 5026678608, "lat": 39.366529, "lon": 45.9865272}, {"type": "node", "id": 5026678609, "lat": 39.3668857, "lon": 45.987525}, {"type": "node", "id": 5026678610, "lat": 39.3656747, "lon": 45.9891665}, {"type": "node", "id": 5026678611, "lat": 39.3665042, "lon": 45.989542}, {"type": "node", "id": 5026678612, "lat": 39.3662221, "lon": 45.990529}, {"type": "node", "id": 5026678613, "lat": 39.3650941, "lon": 45.9898317}, {"type": "node", "id": 5026678614, "lat": 39.3638996, "lon": 45.9882867}, {"type": "node", "id": 5026678615, "lat": 39.3625144, "lon": 45.9878147}, {"type": "node", "id": 5026678616, "lat": 39.3626576, "lon": 45.986781}, {"type": "node", "id": 5026678617, "lat": 39.3640158, "lon": 45.986377}, {"type": "node", "id": 5026678618, "lat": 39.3653512, "lon": 45.9840274}, {"type": "node", "id": 5026897324, "lat": 39.5355319, "lon": 45.9073162}, {"type": "node", "id": 5026897325, "lat": 39.5349362, "lon": 45.9065866}, {"type": "node", "id": 5026897326, "lat": 39.5341087, "lon": 45.9067154}, {"type": "node", "id": 5026897327, "lat": 39.5321311, "lon": 45.9080565}, {"type": "node", "id": 5026897328, "lat": 39.5316925, "lon": 45.9074664}, {"type": "node", "id": 5026897329, "lat": 39.5296155, "lon": 45.9071767}, {"type": "node", "id": 5026897330, "lat": 39.5271826, "lon": 45.9071875}, {"type": "node", "id": 5026897331, "lat": 39.5270998, "lon": 45.9059858}, {"type": "node", "id": 5026897332, "lat": 39.5283825, "lon": 45.9049666}, {"type": "node", "id": 5026897333, "lat": 39.531105, "lon": 45.9053099}, {"type": "node", "id": 5026897334, "lat": 39.5332813, "lon": 45.9043121}, {"type": "node", "id": 5026897335, "lat": 39.5347293, "lon": 45.9030139}, {"type": "node", "id": 5026897336, "lat": 39.535354, "lon": 45.9033465}, {"type": "node", "id": 5026897337, "lat": 39.5362559, "lon": 45.9043229}, {"type": "node", "id": 5026897338, "lat": 39.5367814, "lon": 45.9056854}, {"type": "node", "id": 5026897339, "lat": 39.5362684, "lon": 45.9070051}, {"type": "node", "id": 5306505858, "lat": 39.267554, "lon": 45.8465825, "tags": {"alt_name": "B\u0259y\u0259hm\u0259d", "alt_name:az": "B\u0259y\u0259hm\u0259d", "name": "Boy\u0259hm\u0259d", "name:az": "Boy\u0259hm\u0259d", "place": "village", "population": "317"}}, {"type": "node", "id": 5306505862, "lat": 39.2933585, "lon": 45.7865355, "tags": {"name": "\u018fr\u0259fs\u0259", "name:az": "\u018fr\u0259fs\u0259", "place": "village", "population": "951"}}, {"type": "node", "id": 5306505872, "lat": 39.2880884, "lon": 45.8261436, "tags": {"name": "L\u0259k\u0259ta\u011f", "name:az": "L\u0259k\u0259ta\u011f", "place": "village", "population": "459"}}, {"type": "node", "id": 5306505873, "lat": 39.2686137, "lon": 45.737504, "tags": {"name": "Milax", "name:az": "Milax", "place": "village", "population": "1000"}}, {"type": "node", "id": 5333109018, "lat": 39.658568, "lon": 45.613876}, {"type": "node", "id": 5333109019, "lat": 39.6612302, "lon": 45.6085637}, {"type": "node", "id": 5333109020, "lat": 39.6611806, "lon": 45.6093067}, {"type": "node", "id": 5333109321, "lat": 39.6605198, "lon": 45.609827}, {"type": "node", "id": 5333109322, "lat": 39.660334, "lon": 45.6101596}, {"type": "node", "id": 5333109323, "lat": 39.6603402, "lon": 45.6112727}, {"type": "node", "id": 5333109324, "lat": 39.6596939, "lon": 45.6126165}, {"type": "node", "id": 5333109325, "lat": 39.6592644, "lon": 45.6135902}, {"type": "node", "id": 5333109326, "lat": 39.6579428, "lon": 45.6141186}, {"type": "node", "id": 5333109327, "lat": 39.6571829, "lon": 45.614419}, {"type": "node", "id": 5333109328, "lat": 39.656803, "lon": 45.6149554}, {"type": "node", "id": 5333109329, "lat": 39.6563693, "lon": 45.6148589}, {"type": "node", "id": 5333109330, "lat": 39.6561711, "lon": 45.6148696}, {"type": "node", "id": 5333109331, "lat": 39.6559439, "lon": 45.6150627}, {"type": "node", "id": 5333109332, "lat": 39.6558531, "lon": 45.6152236}, {"type": "node", "id": 5333109333, "lat": 39.6557085, "lon": 45.6154329}, {"type": "node", "id": 5333109334, "lat": 39.6554525, "lon": 45.6155187}, {"type": "node", "id": 5333109335, "lat": 39.6552253, "lon": 45.6156152}, {"type": "node", "id": 5333109336, "lat": 39.6551634, "lon": 45.6162536}, {"type": "node", "id": 5333109337, "lat": 39.6550353, "lon": 45.616554}, {"type": "node", "id": 5333109338, "lat": 39.6549775, "lon": 45.6171334}, {"type": "node", "id": 5333109339, "lat": 39.6545604, "lon": 45.6176645}, {"type": "node", "id": 5333109340, "lat": 39.6544778, "lon": 45.6178951}, {"type": "node", "id": 5333109341, "lat": 39.6540565, "lon": 45.6181312}, {"type": "node", "id": 5333109342, "lat": 39.6537674, "lon": 45.6182009}, {"type": "node", "id": 5333109343, "lat": 39.653532, "lon": 45.6180507}, {"type": "node", "id": 5333109344, "lat": 39.6532594, "lon": 45.6180239}, {"type": "node", "id": 5333109345, "lat": 39.6530694, "lon": 45.6181955}, {"type": "node", "id": 5333109346, "lat": 39.6528711, "lon": 45.6184584}, {"type": "node", "id": 5333109347, "lat": 39.6523961, "lon": 45.6191289}, {"type": "node", "id": 5333109348, "lat": 39.6523879, "lon": 45.6196493}, {"type": "node", "id": 5333109349, "lat": 39.652487, "lon": 45.619778}, {"type": "node", "id": 5333109350, "lat": 39.6527059, "lon": 45.6196654}, {"type": "node", "id": 5333109351, "lat": 39.6529868, "lon": 45.6194133}, {"type": "node", "id": 5333109352, "lat": 39.653342, "lon": 45.6195152}, {"type": "node", "id": 5333109353, "lat": 39.6537509, "lon": 45.6195259}, {"type": "node", "id": 5333109354, "lat": 39.6539987, "lon": 45.6194401}, {"type": "node", "id": 5333109355, "lat": 39.6543332, "lon": 45.6193328}, {"type": "node", "id": 5333109356, "lat": 39.6545397, "lon": 45.6196117}, {"type": "node", "id": 5333109357, "lat": 39.6546884, "lon": 45.6199443}, {"type": "node", "id": 5333109358, "lat": 39.6551716, "lon": 45.6199712}, {"type": "node", "id": 5333109359, "lat": 39.6553533, "lon": 45.6198692}, {"type": "node", "id": 5333109360, "lat": 39.6555888, "lon": 45.6197727}, {"type": "node", "id": 5333109361, "lat": 39.6558283, "lon": 45.6197298}, {"type": "node", "id": 5333109362, "lat": 39.6560059, "lon": 45.6197351}, {"type": "node", "id": 5333109363, "lat": 39.6561711, "lon": 45.6197083}, {"type": "node", "id": 5333109364, "lat": 39.6563239, "lon": 45.6196761}, {"type": "node", "id": 5333109365, "lat": 39.6564478, "lon": 45.6194508}, {"type": "node", "id": 5333109366, "lat": 39.6565758, "lon": 45.61966}, {"type": "node", "id": 5333109367, "lat": 39.6566915, "lon": 45.6195581}, {"type": "node", "id": 5333109368, "lat": 39.6567534, "lon": 45.6198049}, {"type": "node", "id": 5333109369, "lat": 39.6567658, "lon": 45.6201643}, {"type": "node", "id": 5333109370, "lat": 39.657026, "lon": 45.6201857}, {"type": "node", "id": 5333109371, "lat": 39.6573316, "lon": 45.6200141}, {"type": "node", "id": 5333109372, "lat": 39.6575546, "lon": 45.6196171}, {"type": "node", "id": 5333109373, "lat": 39.6577694, "lon": 45.6194293}, {"type": "node", "id": 5333109374, "lat": 39.6580296, "lon": 45.6192416}, {"type": "node", "id": 5333109375, "lat": 39.6583145, "lon": 45.6191343}, {"type": "node", "id": 5333109376, "lat": 39.6585995, "lon": 45.6190968}, {"type": "node", "id": 5333109377, "lat": 39.6588679, "lon": 45.6191128}, {"type": "node", "id": 5333109378, "lat": 39.6590455, "lon": 45.6193918}, {"type": "node", "id": 5333109379, "lat": 39.6593305, "lon": 45.6195795}, {"type": "node", "id": 5333109380, "lat": 39.6594667, "lon": 45.6196815}, {"type": "node", "id": 5333109381, "lat": 39.6597228, "lon": 45.6195635}, {"type": "node", "id": 5333109382, "lat": 39.6599375, "lon": 45.6193811}, {"type": "node", "id": 5333109383, "lat": 39.6601605, "lon": 45.6191397}, {"type": "node", "id": 5333109384, "lat": 39.6605116, "lon": 45.6190538}, {"type": "node", "id": 5333109385, "lat": 39.6608007, "lon": 45.6190324}, {"type": "node", "id": 5333109386, "lat": 39.6609824, "lon": 45.6188017}, {"type": "node", "id": 5333109387, "lat": 39.6608791, "lon": 45.6183511}, {"type": "node", "id": 5333109388, "lat": 39.6607924, "lon": 45.6180561}, {"type": "node", "id": 5333109389, "lat": 39.6609039, "lon": 45.6179005}, {"type": "node", "id": 5333109390, "lat": 39.6613004, "lon": 45.6179702}, {"type": "node", "id": 5333109391, "lat": 39.6616349, "lon": 45.6178361}, {"type": "node", "id": 5333109392, "lat": 39.6620891, "lon": 45.6171977}, {"type": "node", "id": 5333109393, "lat": 39.6621965, "lon": 45.6166828}, {"type": "node", "id": 5333109394, "lat": 39.6621758, "lon": 45.616318}, {"type": "node", "id": 5333109395, "lat": 39.6622873, "lon": 45.6160766}, {"type": "node", "id": 5333109396, "lat": 39.6631959, "lon": 45.6164306}, {"type": "node", "id": 5333109397, "lat": 39.6634973, "lon": 45.6165111}, {"type": "node", "id": 5333109398, "lat": 39.6638153, "lon": 45.6163609}, {"type": "node", "id": 5333109399, "lat": 39.6638318, "lon": 45.6153631}, {"type": "node", "id": 5333109400, "lat": 39.6638153, "lon": 45.6148052}, {"type": "node", "id": 5333109401, "lat": 39.6638132, "lon": 45.6144807}, {"type": "node", "id": 5333109402, "lat": 39.6636749, "lon": 45.6140408}, {"type": "node", "id": 5333109403, "lat": 39.6635345, "lon": 45.6136036}, {"type": "node", "id": 5333109404, "lat": 39.663295, "lon": 45.6133461}, {"type": "node", "id": 5333109405, "lat": 39.6628655, "lon": 45.6127882}, {"type": "node", "id": 5333109406, "lat": 39.6626342, "lon": 45.6117582}, {"type": "node", "id": 5333109407, "lat": 39.6627003, "lon": 45.6107497}, {"type": "node", "id": 5333109408, "lat": 39.6625517, "lon": 45.6101703}, {"type": "node", "id": 5333109409, "lat": 39.6624525, "lon": 45.6093979}, {"type": "node", "id": 5333109410, "lat": 39.6625269, "lon": 45.6089312}, {"type": "node", "id": 5333109411, "lat": 39.6626838, "lon": 45.6082606}, {"type": "node", "id": 5333109412, "lat": 39.6624773, "lon": 45.6077269}, {"type": "node", "id": 5333109413, "lat": 39.6617071, "lon": 45.6076383}, {"type": "node", "id": 5333135299, "lat": 39.624371, "lon": 45.5920386}, {"type": "node", "id": 5333135300, "lat": 39.6251685, "lon": 45.5920225}, {"type": "node", "id": 5333135301, "lat": 39.6255651, "lon": 45.5916899}, {"type": "node", "id": 5333135302, "lat": 39.6258544, "lon": 45.5916578}, {"type": "node", "id": 5333135303, "lat": 39.6264452, "lon": 45.5923551}, {"type": "node", "id": 5333135304, "lat": 39.6269328, "lon": 45.5930418}, {"type": "node", "id": 5333135305, "lat": 39.6270484, "lon": 45.593605}, {"type": "node", "id": 5333135306, "lat": 39.6272344, "lon": 45.5944633}, {"type": "node", "id": 5333135307, "lat": 39.6274471, "lon": 45.5955819}, {"type": "node", "id": 5333135308, "lat": 39.6276765, "lon": 45.5985672}, {"type": "node", "id": 5333135309, "lat": 39.6280607, "lon": 45.5956542}, {"type": "node", "id": 5333135310, "lat": 39.6282838, "lon": 45.5950105}, {"type": "node", "id": 5333135311, "lat": 39.6280917, "lon": 45.5940073}, {"type": "node", "id": 5333135312, "lat": 39.6278252, "lon": 45.5936748}, {"type": "node", "id": 5333135313, "lat": 39.6278004, "lon": 45.5930257}, {"type": "node", "id": 5333135314, "lat": 39.628007, "lon": 45.5919152}, {"type": "node", "id": 5333135315, "lat": 39.6279202, "lon": 45.5914593}, {"type": "node", "id": 5333135316, "lat": 39.6277302, "lon": 45.5913091}, {"type": "node", "id": 5333135317, "lat": 39.627569, "lon": 45.591175}, {"type": "node", "id": 5333135318, "lat": 39.6275566, "lon": 45.59066}, {"type": "node", "id": 5333135319, "lat": 39.6278748, "lon": 45.5902308}, {"type": "node", "id": 5333135320, "lat": 39.6279905, "lon": 45.5896515}, {"type": "node", "id": 5333135521, "lat": 39.6277508, "lon": 45.5893511}, {"type": "node", "id": 5333135522, "lat": 39.6273955, "lon": 45.5893135}, {"type": "node", "id": 5333135523, "lat": 39.6268419, "lon": 45.5894905}, {"type": "node", "id": 5333135524, "lat": 39.6262345, "lon": 45.5890131}, {"type": "node", "id": 5333135525, "lat": 39.6259163, "lon": 45.5889165}, {"type": "node", "id": 5333135526, "lat": 39.6257841, "lon": 45.5893725}, {"type": "node", "id": 5333135527, "lat": 39.62578, "lon": 45.5898446}, {"type": "node", "id": 5333135528, "lat": 39.6253668, "lon": 45.5901557}, {"type": "node", "id": 5333135529, "lat": 39.6251106, "lon": 45.5902684}, {"type": "node", "id": 5333135530, "lat": 39.6247016, "lon": 45.5905527}, {"type": "node", "id": 5333135531, "lat": 39.6243049, "lon": 45.5905634}, {"type": "node", "id": 5333135532, "lat": 39.6239165, "lon": 45.5905902}, {"type": "node", "id": 5333135533, "lat": 39.6235984, "lon": 45.5907887}, {"type": "node", "id": 5333135534, "lat": 39.6234537, "lon": 45.5912018}, {"type": "node", "id": 5333135535, "lat": 39.6235157, "lon": 45.5916899}, {"type": "node", "id": 5333135536, "lat": 39.6239496, "lon": 45.5919045}, {"type": "node", "id": 5649288647, "lat": 39.6269038, "lon": 45.5972743}, {"type": "node", "id": 5649288648, "lat": 39.6272716, "lon": 45.5985779}, {"type": "node", "id": 5659256798, "lat": 39.6597352, "lon": 45.6154597, "tags": {"is_in:country": "Armenia", "is_in:country_code": "AM", "is_in:municipality": "\u054e\u0561\u0575\u0584\u056b \u0570\u0561\u0574\u0561\u0575\u0576\u0584", "is_in:region": "\u054e\u0561\u0575\u0578\u0581 \u0571\u0578\u0580\u056b \u0574\u0561\u0580\u0566", "name": "\u0531\u0580\u057f\u0561\u057e\u0561\u0576", "name:en": "Artavan", "name:hy": "\u0531\u0580\u057f\u0561\u057e\u0561\u0576", "name:ru": "\u0410\u0440\u0442\u0430\u0432\u0430\u043d", "place": "village", "population": "256", "population:date": "2022-01-01", "source:population": "Armstat", "wikidata": "Q554363", "wikipedia": "en:Artavan"}}, {"type": "node", "id": 5660399746, "lat": 39.6268047, "lon": 45.590955, "tags": {"is_in:country": "Armenia", "is_in:country_code": "AM", "is_in:municipality": "\u054e\u0561\u0575\u0584\u056b \u0570\u0561\u0574\u0561\u0575\u0576\u0584", "is_in:region": "\u054e\u0561\u0575\u0578\u0581 \u0571\u0578\u0580\u056b \u0574\u0561\u0580\u0566", "name": "\u053f\u0561\u057a\u0578\u0582\u0575\u057f", "name:en": "Kapuyt", "name:hy": "\u053f\u0561\u057a\u0578\u0582\u0575\u057f", "name:ru": "\u041a\u0430\u043f\u0443\u0439\u0442", "place": "village", "population": "27", "population:date": "2022-01-01", "source:population": "Armstat", "wikidata": "Q6367406", "wikipedia": "en:Kapuyt"}}, {"type": "node", "id": 5934947564, "lat": 39.2499023, "lon": 46.0857689}, {"type": "node", "id": 5934947565, "lat": 39.2501682, "lon": 46.0818314}, {"type": "node", "id": 5934947566, "lat": 39.2520541, "lon": 46.0776901}, {"type": "node", "id": 5934947567, "lat": 39.2537988, "lon": 46.0834193}, {"type": "node", "id": 5934947568, "lat": 39.2524328, "lon": 46.0851179}, {"type": "node", "id": 6324629707, "lat": 39.6285214, "lon": 45.594399}, {"type": "node", "id": 6417443698, "lat": 39.6202351, "lon": 45.904305}, {"type": "node", "id": 6417443699, "lat": 39.6202145, "lon": 45.904448}, {"type": "node", "id": 6792444845, "lat": 39.6208382, "lon": 45.9011149}, {"type": "node", "id": 6792724775, "lat": 39.6202994, "lon": 45.9039041}, {"type": "node", "id": 6792724776, "lat": 39.6202607, "lon": 45.9041217}, {"type": "node", "id": 6801504262, "lat": 39.6524127, "lon": 45.6197244}, {"type": "node", "id": 6801504263, "lat": 39.6523982, "lon": 45.6193596}, {"type": "node", "id": 6801504264, "lat": 39.6526626, "lon": 45.6190082}, {"type": "node", "id": 6801504265, "lat": 39.6528174, "lon": 45.6190163}, {"type": "node", "id": 6801504266, "lat": 39.6527968, "lon": 45.6186274}, {"type": "node", "id": 6801504267, "lat": 39.6528422, "lon": 45.6189465}, {"type": "node", "id": 6938744101, "lat": 39.6513103, "lon": 45.8812199}, {"type": "node", "id": 7743423182, "lat": 39.3986095, "lon": 45.5507105}, {"type": "node", "id": 7743423183, "lat": 39.3978932, "lon": 45.5508306}, {"type": "node", "id": 7743423184, "lat": 39.3965667, "lon": 45.5528219}, {"type": "node", "id": 7743429485, "lat": 39.3964075, "lon": 45.5560491}, {"type": "node", "id": 7743429486, "lat": 39.3971371, "lon": 45.5603578}, {"type": "node", "id": 7743429487, "lat": 39.3982381, "lon": 45.5637739}, {"type": "node", "id": 7743429488, "lat": 39.3991269, "lon": 45.5664175}, {"type": "node", "id": 7743429489, "lat": 39.4012625, "lon": 45.5711038}, {"type": "node", "id": 7743429490, "lat": 39.4020318, "lon": 45.5736616}, {"type": "node", "id": 7743429491, "lat": 39.4035838, "lon": 45.5749319}, {"type": "node", "id": 7743429492, "lat": 39.4046449, "lon": 45.5767343}, {"type": "node", "id": 7743429493, "lat": 39.4065284, "lon": 45.5785711}, {"type": "node", "id": 7743429494, "lat": 39.4076955, "lon": 45.5806482}, {"type": "node", "id": 7743429495, "lat": 39.408929, "lon": 45.5838583}, {"type": "node", "id": 7743429496, "lat": 39.4084781, "lon": 45.5856951}, {"type": "node", "id": 7743429497, "lat": 39.4114092, "lon": 45.5877207}, {"type": "node", "id": 7743429498, "lat": 39.4123508, "lon": 45.5891626}, {"type": "node", "id": 7743429499, "lat": 39.4138097, "lon": 45.5919779}, {"type": "node", "id": 7743429500, "lat": 39.4175628, "lon": 45.5919607}, {"type": "node", "id": 7743429501, "lat": 39.4174434, "lon": 45.5897291}, {"type": "node", "id": 7743429502, "lat": 39.4134649, "lon": 45.5865877}, {"type": "node", "id": 7743429503, "lat": 39.4129211, "lon": 45.5849397}, {"type": "node", "id": 7743429504, "lat": 39.415494, "lon": 45.583515}, {"type": "node", "id": 7743429505, "lat": 39.4163029, "lon": 45.5809572}, {"type": "node", "id": 7743429506, "lat": 39.4159051, "lon": 45.5770777}, {"type": "node", "id": 7743429507, "lat": 39.4135842, "lon": 45.572872}, {"type": "node", "id": 7743429508, "lat": 39.4118999, "lon": 45.5711553}, {"type": "node", "id": 7743429509, "lat": 39.4096585, "lon": 45.5710352}, {"type": "node", "id": 7743429510, "lat": 39.4084648, "lon": 45.5679453}, {"type": "node", "id": 7743429511, "lat": 39.4075629, "lon": 45.564924}, {"type": "node", "id": 7743429512, "lat": 39.4065814, "lon": 45.5621431}, {"type": "node", "id": 7743429513, "lat": 39.4062631, "lon": 45.559242}, {"type": "node", "id": 7743429514, "lat": 39.4054009, "lon": 45.5572679}, {"type": "node", "id": 7743429515, "lat": 39.4029604, "lon": 45.5557058}, {"type": "node", "id": 7743429516, "lat": 39.4016604, "lon": 45.5530794}, {"type": "node", "id": 7743437240, "lat": 39.4079753, "lon": 45.5833063}, {"type": "node", "id": 7743437241, "lat": 39.4085474, "lon": 45.5845687}, {"type": "node", "id": 7743437242, "lat": 39.4084723, "lon": 45.5859767}, {"type": "node", "id": 7743437243, "lat": 39.4115719, "lon": 45.5879698}, {"type": "node", "id": 7743437244, "lat": 39.4130489, "lon": 45.5907228}, {"type": "node", "id": 7743437245, "lat": 39.4146525, "lon": 45.5936845}, {"type": "node", "id": 7743437246, "lat": 39.4157591, "lon": 45.5967798}, {"type": "node", "id": 7743437247, "lat": 39.4153465, "lon": 45.5977023}, {"type": "node", "id": 7743437248, "lat": 39.4127676, "lon": 45.5975445}, {"type": "node", "id": 7743437249, "lat": 39.4119517, "lon": 45.5992317}, {"type": "node", "id": 7743437250, "lat": 39.4111827, "lon": 45.6027275}, {"type": "node", "id": 7743437251, "lat": 39.4106856, "lon": 45.6027154}, {"type": "node", "id": 7743437252, "lat": 39.4098885, "lon": 45.6009432}, {"type": "node", "id": 7743437253, "lat": 39.4085474, "lon": 45.5998629}, {"type": "node", "id": 7743437254, "lat": 39.4078252, "lon": 45.5983699}, {"type": "node", "id": 7743437255, "lat": 39.4060151, "lon": 45.593551}, {"type": "node", "id": 7743437256, "lat": 39.4067936, "lon": 45.5923736}, {"type": "node", "id": 7743437257, "lat": 39.4070843, "lon": 45.5912568}, {"type": "node", "id": 7743437258, "lat": 39.4071218, "lon": 45.5878217}, {"type": "node", "id": 7743437259, "lat": 39.4073938, "lon": 45.5852484}, {"type": "node", "id": 8036313572, "lat": 39.5742794, "lon": 45.9981447}, {"type": "node", "id": 8036313573, "lat": 39.5761697, "lon": 45.9956629}, {"type": "node", "id": 8036313574, "lat": 39.5740572, "lon": 46.0016592}, {"type": "node", "id": 8036313575, "lat": 39.5756368, "lon": 46.0014844}, {"type": "node", "id": 8036313576, "lat": 39.5767297, "lon": 46.001951}, {"type": "node", "id": 8036313577, "lat": 39.5785708, "lon": 45.9984317}, {"type": "node", "id": 8036313578, "lat": 39.5793811, "lon": 45.9957965}, {"type": "node", "id": 8036313579, "lat": 39.5775826, "lon": 45.9945146}, {"type": "node", "id": 8206789271, "lat": 39.5094709, "lon": 46.029169}, {"type": "node", "id": 8206789272, "lat": 39.512773, "lon": 46.0328769}, {"type": "node", "id": 8206789273, "lat": 39.5144027, "lon": 46.030661}, {"type": "node", "id": 8206789274, "lat": 39.5152356, "lon": 46.0316621}, {"type": "node", "id": 8206789278, "lat": 39.5162828, "lon": 46.0325952}, {"type": "node", "id": 8206789282, "lat": 39.5158142, "lon": 46.0339141}, {"type": "node", "id": 8206789284, "lat": 39.5155548, "lon": 46.0348718}, {"type": "node", "id": 8206789285, "lat": 39.5149286, "lon": 46.0377856}, {"type": "node", "id": 8206789286, "lat": 39.514714, "lon": 46.0387047}, {"type": "node", "id": 8206789287, "lat": 39.5145225, "lon": 46.0394476}, {"type": "node", "id": 8206789288, "lat": 39.5143622, "lon": 46.0409107}, {"type": "node", "id": 8206789289, "lat": 39.5140444, "lon": 46.0431995}, {"type": "node", "id": 8206789290, "lat": 39.5128613, "lon": 46.0452137}, {"type": "node", "id": 8206789291, "lat": 39.5131438, "lon": 46.0467014}, {"type": "node", "id": 8206789292, "lat": 39.5145035, "lon": 46.0486469}, {"type": "node", "id": 8206789293, "lat": 39.5149626, "lon": 46.0483951}, {"type": "node", "id": 8206789294, "lat": 39.5154415, "lon": 46.048433}, {"type": "node", "id": 8206789295, "lat": 39.5162549, "lon": 46.0487749}, {"type": "node", "id": 8206789298, "lat": 39.5175106, "lon": 46.0488056}, {"type": "node", "id": 8206789299, "lat": 39.5187405, "lon": 46.0491569}, {"type": "node", "id": 8206789300, "lat": 39.5201536, "lon": 46.0484638}, {"type": "node", "id": 8206789301, "lat": 39.5207009, "lon": 46.0478916}, {"type": "node", "id": 8206789302, "lat": 39.52003, "lon": 46.0464267}, {"type": "node", "id": 8206789303, "lat": 39.5207539, "lon": 46.0464267}, {"type": "node", "id": 8206789304, "lat": 39.5207009, "lon": 46.0457401}, {"type": "node", "id": 8206789305, "lat": 39.5215837, "lon": 46.0457172}, {"type": "node", "id": 8206789306, "lat": 39.521725, "lon": 46.0444583}, {"type": "node", "id": 8206789307, "lat": 39.5237024, "lon": 46.0442295}, {"type": "node", "id": 8206789308, "lat": 39.5236141, "lon": 46.0428791}, {"type": "node", "id": 8206789309, "lat": 39.5262093, "lon": 46.0383243}, {"type": "node", "id": 8206789310, "lat": 39.5287162, "lon": 46.0400867}, {"type": "node", "id": 8206789311, "lat": 39.5300281, "lon": 46.0400567}, {"type": "node", "id": 8206789312, "lat": 39.5305306, "lon": 46.0389931}, {"type": "node", "id": 8206789313, "lat": 39.5318232, "lon": 46.0392398}, {"type": "node", "id": 8206789314, "lat": 39.5320704, "lon": 46.0379123}, {"type": "node", "id": 8206789315, "lat": 39.5315231, "lon": 46.0378437}, {"type": "node", "id": 8206789316, "lat": 39.5319998, "lon": 46.0350513}, {"type": "node", "id": 8206789317, "lat": 39.5327765, "lon": 46.0335636}, {"type": "node", "id": 8206789318, "lat": 39.5314349, "lon": 46.0326938}, {"type": "node", "id": 8206789319, "lat": 39.5307817, "lon": 46.0321674}, {"type": "node", "id": 8206789320, "lat": 39.5310112, "lon": 46.0312061}, {"type": "node", "id": 8206789321, "lat": 39.5307817, "lon": 46.0290317}, {"type": "node", "id": 8206789322, "lat": 39.5308523, "lon": 46.0285739}, {"type": "node", "id": 8206789323, "lat": 39.5285927, "lon": 46.0272922}, {"type": "node", "id": 8206789324, "lat": 39.5274805, "lon": 46.026308}, {"type": "node", "id": 8206789325, "lat": 39.5278335, "lon": 46.0255298}, {"type": "node", "id": 8206789326, "lat": 39.528063, "lon": 46.0248203}, {"type": "node", "id": 8206789327, "lat": 39.5270588, "lon": 46.0235212}, {"type": "node", "id": 8206789328, "lat": 39.52745, "lon": 46.0213802}, {"type": "node", "id": 8206789329, "lat": 39.5277806, "lon": 46.0203113}, {"type": "node", "id": 8206789330, "lat": 39.5288045, "lon": 46.0208149}, {"type": "node", "id": 8206789331, "lat": 39.5297754, "lon": 46.0204029}, {"type": "node", "id": 8206789332, "lat": 39.5297401, "lon": 46.0195789}, {"type": "node", "id": 8206789333, "lat": 39.5311701, "lon": 46.0181369}, {"type": "node", "id": 8206789334, "lat": 39.5309759, "lon": 46.0178394}, {"type": "node", "id": 8206789335, "lat": 39.5303227, "lon": 46.0180225}, {"type": "node", "id": 8206789336, "lat": 39.5294577, "lon": 46.0172214}, {"type": "node", "id": 8206789337, "lat": 39.5292635, "lon": 46.0165348}, {"type": "node", "id": 8206789338, "lat": 39.5288239, "lon": 46.0153884}, {"type": "node", "id": 8206789339, "lat": 39.5295989, "lon": 46.0146808}, {"type": "node", "id": 8206789340, "lat": 39.530817, "lon": 46.0153446}, {"type": "node", "id": 8206789341, "lat": 39.5315761, "lon": 46.0147037}, {"type": "node", "id": 8206789342, "lat": 39.5312936, "lon": 46.0142002}, {"type": "node", "id": 8206789343, "lat": 39.5320174, "lon": 46.0132846}, {"type": "node", "id": 8206789344, "lat": 39.5353759, "lon": 46.0129581}, {"type": "node", "id": 8206789345, "lat": 39.5324726, "lon": 46.0065846}, {"type": "node", "id": 8206789346, "lat": 39.5315258, "lon": 46.0071436}, {"type": "node", "id": 8206789347, "lat": 39.5293903, "lon": 46.0099165}, {"type": "node", "id": 8206789357, "lat": 39.5236312, "lon": 46.0128691}, {"type": "node", "id": 8206789358, "lat": 39.5227313, "lon": 46.0119342}, {"type": "node", "id": 8206789359, "lat": 39.5223429, "lon": 46.0109043}, {"type": "node", "id": 8206789360, "lat": 39.5220604, "lon": 46.011156}, {"type": "node", "id": 8206789361, "lat": 39.5220957, "lon": 46.0122089}, {"type": "node", "id": 8206789362, "lat": 39.5209032, "lon": 46.012718}, {"type": "node", "id": 8206789363, "lat": 39.5206656, "lon": 46.0122089}, {"type": "node", "id": 8206789364, "lat": 39.5202419, "lon": 46.0098514}, {"type": "node", "id": 8206789365, "lat": 39.5200829, "lon": 46.0089631}, {"type": "node", "id": 8206789367, "lat": 39.5195516, "lon": 46.0081627}, {"type": "node", "id": 8206789368, "lat": 39.5187434, "lon": 46.007421}, {"type": "node", "id": 8206789369, "lat": 39.5178138, "lon": 46.0062587}, {"type": "node", "id": 8206789370, "lat": 39.5173485, "lon": 46.0020065}, {"type": "node", "id": 8206789371, "lat": 39.5153864, "lon": 45.9970012}, {"type": "node", "id": 8206789372, "lat": 39.5144252, "lon": 45.9971156}, {"type": "node", "id": 8206789373, "lat": 39.5136813, "lon": 45.998702}, {"type": "node", "id": 8206789374, "lat": 39.5158597, "lon": 46.010528}, {"type": "node", "id": 8206789375, "lat": 39.5100311, "lon": 46.0118176}, {"type": "node", "id": 8206789376, "lat": 39.5094727, "lon": 46.0137629}, {"type": "node", "id": 8206789377, "lat": 39.5094061, "lon": 46.0158111}, {"type": "node", "id": 8206789378, "lat": 39.510585, "lon": 46.0214522}, {"type": "node", "id": 8206789379, "lat": 39.5098064, "lon": 46.0252781}, {"type": "node", "id": 8206789380, "lat": 39.5094533, "lon": 46.0262165}, {"type": "node", "id": 8206789381, "lat": 39.5091697, "lon": 46.0268387}, {"type": "node", "id": 8206789382, "lat": 39.5089588, "lon": 46.0279789}, {"type": "node", "id": 8889820036, "lat": 39.5106357, "lon": 46.0234546}, {"type": "node", "id": 8990375802, "lat": 39.5175798, "lon": 46.0906632}, {"type": "node", "id": 8990375803, "lat": 39.5184484, "lon": 46.0935864}, {"type": "node", "id": 8990375804, "lat": 39.5176127, "lon": 46.0912467}, {"type": "node", "id": 8990448749, "lat": 39.5146504, "lon": 46.0045867}, {"type": "node", "id": 8990448750, "lat": 39.5111925, "lon": 46.0110029}, {"type": "node", "id": 8990448751, "lat": 39.5128764, "lon": 46.0446549}, {"type": "node", "id": 8990448752, "lat": 39.5129521, "lon": 46.046135}, {"type": "node", "id": 8990448753, "lat": 39.5123688, "lon": 46.0457362}, {"type": "node", "id": 8990448754, "lat": 39.512623, "lon": 46.0427297}, {"type": "node", "id": 8990448755, "lat": 39.5123813, "lon": 46.0389839}, {"type": "node", "id": 8990448756, "lat": 39.5115453, "lon": 46.0385257}, {"type": "node", "id": 8990448757, "lat": 39.5098727, "lon": 46.0385569}, {"type": "node", "id": 8990448758, "lat": 39.5350325, "lon": 46.0068055}, {"type": "node", "id": 8990448759, "lat": 39.5380647, "lon": 46.0084944}, {"type": "node", "id": 8990448760, "lat": 39.5381396, "lon": 46.0145061}, {"type": "node", "id": 8990448761, "lat": 39.5419233, "lon": 46.0130858}, {"type": "node", "id": 8990448762, "lat": 39.5412167, "lon": 46.0059768}, {"type": "node", "id": 8990448763, "lat": 39.5396298, "lon": 46.0075187}, {"type": "node", "id": 8990448764, "lat": 39.5421469, "lon": 46.0095557}, {"type": "node", "id": 8990448765, "lat": 39.541895, "lon": 46.0077093}, {"type": "node", "id": 8990448766, "lat": 39.5430419, "lon": 46.0061194}, {"type": "node", "id": 8990448767, "lat": 39.5433839, "lon": 46.0071014}, {"type": "node", "id": 8990448768, "lat": 39.543307, "lon": 46.0065291}, {"type": "node", "id": 8990448769, "lat": 39.5633644, "lon": 46.0036861}, {"type": "node", "id": 9764662090, "lat": 39.412663, "lon": 45.5960552}, {"type": "node", "id": 9814804907, "lat": 39.505477, "lon": 46.042867}, {"type": "node", "id": 10687167942, "lat": 39.2542176, "lon": 46.0777893}, {"type": "node", "id": 10687167943, "lat": 39.2533182, "lon": 46.0851807}, {"type": "node", "id": 10687232958, "lat": 39.2865108, "lon": 46.1105553}, {"type": "node", "id": 10687232959, "lat": 39.2865852, "lon": 46.1083603}, {"type": "node", "id": 10687232960, "lat": 39.2882097, "lon": 46.1073993}, {"type": "node", "id": 10687232961, "lat": 39.2893958, "lon": 46.1071212}, {"type": "node", "id": 10687232962, "lat": 39.2902804, "lon": 46.1088357}, {"type": "node", "id": 10687232963, "lat": 39.2915487, "lon": 46.1103985}, {"type": "node", "id": 10687232964, "lat": 39.2908519, "lon": 46.1121383}, {"type": "node", "id": 11168786382, "lat": 39.5370334, "lon": 45.6169117}, {"type": "node", "id": 11168786383, "lat": 39.5343244, "lon": 45.6207495}, {"type": "node", "id": 11168786384, "lat": 39.5333838, "lon": 45.6232539}, {"type": "node", "id": 11168786385, "lat": 39.5315777, "lon": 45.6222131}, {"type": "node", "id": 11168786386, "lat": 39.5293075, "lon": 45.6216277}, {"type": "node", "id": 11168786387, "lat": 39.5271376, "lon": 45.6220342}, {"type": "node", "id": 11168786388, "lat": 39.526109, "lon": 45.6228473}, {"type": "node", "id": 11168786389, "lat": 39.5262345, "lon": 45.6243109}, {"type": "node", "id": 11168786390, "lat": 39.5245536, "lon": 45.6242784}, {"type": "node", "id": 11168786391, "lat": 39.5232491, "lon": 45.6246361}, {"type": "node", "id": 11168786392, "lat": 39.5216936, "lon": 45.6266363}, {"type": "node", "id": 11168786393, "lat": 39.5201507, "lon": 45.6264737}, {"type": "node", "id": 11168786394, "lat": 39.5187833, "lon": 45.6264574}, {"type": "node", "id": 11168786395, "lat": 39.5170396, "lon": 45.6274982}, {"type": "node", "id": 11168786396, "lat": 39.5163496, "lon": 45.6287341}, {"type": "node", "id": 11168786397, "lat": 39.5182314, "lon": 45.6321328}, {"type": "node", "id": 11168786398, "lat": 39.5197367, "lon": 45.6348648}, {"type": "node", "id": 11168786399, "lat": 39.5224086, "lon": 45.6368163}, {"type": "node", "id": 11168786400, "lat": 39.51926, "lon": 45.6366699}, {"type": "node", "id": 11168786401, "lat": 39.5180683, "lon": 45.6372228}, {"type": "node", "id": 11168786402, "lat": 39.5154213, "lon": 45.6314173}, {"type": "node", "id": 11168786403, "lat": 39.5146936, "lon": 45.6288967}, {"type": "node", "id": 11168786404, "lat": 39.5130753, "lon": 45.6270591}, {"type": "node", "id": 11168786405, "lat": 39.5108923, "lon": 45.625189}, {"type": "node", "id": 11168786406, "lat": 39.5130627, "lon": 45.6232376}, {"type": "node", "id": 11168786407, "lat": 39.5153084, "lon": 45.6231888}, {"type": "node", "id": 11168786408, "lat": 39.5171023, "lon": 45.6225058}, {"type": "node", "id": 11168786409, "lat": 39.5184195, "lon": 45.622148}, {"type": "node", "id": 11168786410, "lat": 39.5209159, "lon": 45.6212211}, {"type": "node", "id": 11168786411, "lat": 39.5224212, "lon": 45.6205056}, {"type": "node", "id": 11168786412, "lat": 39.524077, "lon": 45.6197575}, {"type": "node", "id": 11168786413, "lat": 39.524817, "lon": 45.6187493}, {"type": "node", "id": 11168786414, "lat": 39.5257202, "lon": 45.6177736}, {"type": "node", "id": 11168786415, "lat": 39.5275766, "lon": 45.6160986}, {"type": "node", "id": 11168786416, "lat": 39.529019, "lon": 45.615627}, {"type": "node", "id": 11168786417, "lat": 39.5302608, "lon": 45.6158872}, {"type": "node", "id": 11168786418, "lat": 39.5314147, "lon": 45.6171231}, {"type": "node", "id": 11168786419, "lat": 39.5331329, "lon": 45.6168467}, {"type": "node", "id": 11168786420, "lat": 39.5352149, "lon": 45.6156921}, {"type": "node", "id": 11168786491, "lat": 39.4975831, "lon": 45.6013722}, {"type": "node", "id": 11168786492, "lat": 39.4957697, "lon": 45.6024198}, {"type": "node", "id": 11168786493, "lat": 39.4948629, "lon": 45.60443}, {"type": "node", "id": 11168786494, "lat": 39.493836, "lon": 45.6057325}, {"type": "node", "id": 11168786495, "lat": 39.4916838, "lon": 45.6068792}, {"type": "node", "id": 11168786496, "lat": 39.4900014, "lon": 45.6071057}, {"type": "node", "id": 11168786497, "lat": 39.4878818, "lon": 45.6050671}, {"type": "node", "id": 11168786498, "lat": 39.4867674, "lon": 45.6046849}, {"type": "node", "id": 11168786499, "lat": 39.4843746, "lon": 45.6028728}, {"type": "node", "id": 11168786500, "lat": 39.482233, "lon": 45.602802}, {"type": "node", "id": 11168786501, "lat": 39.4822112, "lon": 45.6047698}, {"type": "node", "id": 11168786502, "lat": 39.4844839, "lon": 45.6055626}, {"type": "node", "id": 11168786503, "lat": 39.4867237, "lon": 45.6070632}, {"type": "node", "id": 11168786504, "lat": 39.4890727, "lon": 45.6101918}, {"type": "node", "id": 11168786505, "lat": 39.4902745, "lon": 45.6114801}, {"type": "node", "id": 11168786506, "lat": 39.4913561, "lon": 45.6112111}, {"type": "node", "id": 11168786507, "lat": 39.4915637, "lon": 45.6096964}, {"type": "node", "id": 11168786508, "lat": 39.4935301, "lon": 45.6103334}, {"type": "node", "id": 11168786509, "lat": 39.4950814, "lon": 45.61039}, {"type": "node", "id": 11168786510, "lat": 39.4959663, "lon": 45.6115651}, {"type": "node", "id": 11168786511, "lat": 39.4971898, "lon": 45.6119473}, {"type": "node", "id": 11168786512, "lat": 39.4987738, "lon": 45.6136178}, {"type": "node", "id": 11168786513, "lat": 39.4995494, "lon": 45.6140991}, {"type": "node", "id": 11168786514, "lat": 39.500751, "lon": 45.6157696}, {"type": "node", "id": 11168786515, "lat": 39.5034382, "lon": 45.6184169}, {"type": "node", "id": 11168786516, "lat": 39.5050875, "lon": 45.6199883}, {"type": "node", "id": 11168786517, "lat": 39.5077964, "lon": 45.6205546}, {"type": "node", "id": 11168786518, "lat": 39.5085063, "lon": 45.6198468}, {"type": "node", "id": 11168786519, "lat": 39.5069772, "lon": 45.6182329}, {"type": "node", "id": 11168786520, "lat": 39.5059068, "lon": 45.6164491}, {"type": "node", "id": 11168786521, "lat": 39.5053279, "lon": 45.6147362}, {"type": "node", "id": 11168786522, "lat": 39.5029466, "lon": 45.6146795}, {"type": "node", "id": 11168786523, "lat": 39.5020946, "lon": 45.6132356}, {"type": "node", "id": 11168786524, "lat": 39.499604, "lon": 45.6130232}, {"type": "node", "id": 11168786525, "lat": 39.498599, "lon": 45.6100361}, {"type": "node", "id": 11168786526, "lat": 39.4977579, "lon": 45.6084506}, {"type": "node", "id": 11168786527, "lat": 39.4954419, "lon": 45.6067942}, {"type": "node", "id": 11168786528, "lat": 39.49601, "lon": 45.6055484}, {"type": "node", "id": 11168786529, "lat": 39.4976705, "lon": 45.6026746}, {"type": "node", "id": 11626618276, "lat": 39.5741916, "lon": 45.9395161}, {"type": "node", "id": 12002894284, "lat": 39.6255569, "lon": 45.9046206}, {"type": "node", "id": 12716891313, "lat": 39.5166513, "lon": 45.629279}, {"type": "way", "id": 393477746, "nodes": [3966688400, 3966688404, 3966688406, 3966688407, 3966688392, 3966688364, 3966688358, 3966688352, 3966688341, 3966688306, 3966688290, 3966688294, 3966688361, 3966688371, 3966688379, 3966688383, 3966688385, 3966688390, 3966688400], "tags": {"name": "\u053b\u0577\u056d\u0561\u0576\u0561\u057d\u0561\u0580", "name:de": "Ischchanasar", "name:en": "Ishkhanasar", "name:hy": "\u053b\u0577\u056d\u0561\u0576\u0561\u057d\u0561\u0580", "name:ru": "\u0418\u0448\u0445\u0430\u043d\u0430\u0441\u0430\u0440", "place": "village", "wikidata": "Q713175", "wikipedia": "en:Ishkhanasar"}}, {"type": "way", "id": 427968824, "nodes": [4271275179, 4271275181, 4271275182, 4271275187, 4271275186, 4271275185, 4271275184, 4271275183, 4271275180, 8990375803, 8990375804, 8990375802, 4271275179], "tags": {"landuse": "residential", "name": "\u0546\u0578\u0580\u0561\u057e\u0561\u0576", "name:en": "Noravan", "name:hy": "\u0546\u0578\u0580\u0561\u057e\u0561\u0576", "name:ru": "\u041d\u043e\u0440\u0430\u0432\u0430\u043d", "place": "village", "wikidata": "Q590427", "wikipedia": "en:Noravan, Syunik"}}, {"type": "way", "id": 427969958, "nodes": [4271293366, 4271293334, 4271293295, 4271293290, 4271293187, 4271293183, 4271293177, 4271293182, 4271293363, 4271293362, 4271293365, 4271293368, 4271293371, 4271293373, 4271293374, 4271293372, 4271293370, 4271295100, 4271295098, 4271293366], "tags": {"landuse": "residential", "name": "\u0531\u0572\u056b\u057f\u0578\u0582", "name:en": "Aghitu", "name:hy": "\u0531\u0572\u056b\u057f\u0578\u0582", "name:ru": "\u0410\u0433\u0438\u0442\u0443", "place": "village", "wikidata": "Q2154981", "wikipedia": "en:Aghitu"}}, {"type": "way", "id": 427969963, "nodes": [4271293127, 4271293122, 4271293125, 4271293124, 4271293121, 4271293123, 4271293128, 4271293133, 4271293141, 4271293137, 4271293132, 4271293134, 4271293131, 4271293136, 4271293135, 4271293130, 4271293129, 4271293127], "tags": {"landuse": "residential", "name": "\u054e\u0561\u0572\u0561\u057f\u056b\u0576", "name:en": "Vaghatin", "name:hy": "\u054e\u0561\u0572\u0561\u057f\u056b\u0576", "name:ru": "\u0412\u0430\u0433\u0430\u0442\u0438\u043d", "place": "village", "wikidata": "Q428725", "wikipedia": "en:Vaghatin"}}, {"type": "way", "id": 427970589, "nodes": [4271294862, 4271294861, 4271294864, 4271294866, 4271294868, 4271294869, 4271294871, 4271294872, 8990448753, 8990448754, 8990448755, 8990448756, 8990448757, 4271294870, 4271294867, 9814804907, 4271294865, 4271294863, 4271294862], "tags": {"landuse": "residential", "name": "\u0548\u0582\u0575\u056e", "name:en": "Uyts", "name:hy": "\u0548\u0582\u0575\u056e", "name:ru": "\u0423\u0439\u0446", "place": "village", "wikidata": "Q430895", "wikipedia": "en:Uyts"}}, {"type": "way", "id": 427974647, "nodes": [4271325058, 4271325055, 4271325059, 4271325057, 4271325063, 4271325064, 4271325065, 4271325067, 4271325066, 4271325061, 4271325060, 4271325058], "tags": {"landuse": "residential", "name": "\u054f\u0578\u056c\u0578\u0580\u057d", "name:en": "Tolors", "name:hy": "\u054f\u0578\u056c\u0578\u0580\u057d", "name:ru": "\u0422\u043e\u043b\u043e\u0440\u0441", "place": "village", "wikidata": "Q2224285", "wikipedia": "en:Tolors"}}, {"type": "way", "id": 427974648, "nodes": [4271325056, 4271325062, 4271325069, 4271325068, 4271325056], "tags": {"landuse": "residential", "name": "\u0531\u0577\u0578\u057f\u0561\u057e\u0561\u0576", "name:en": "Ashotavan", "name:hy": "\u0531\u0577\u0578\u057f\u0561\u057e\u0561\u0576", "name:ru": "\u0410\u0448\u043e\u0442\u0430\u0432\u0430\u043d", "place": "village", "wikidata": "Q640510", "wikipedia": "en:Ashotavan"}}, {"type": "way", "id": 427974895, "nodes": [4271327477, 4271327474, 4271327472, 4271327470, 4271327469, 4271327467, 4271327468, 4271327471, 4271327473, 4271327476, 4271327475, 4271327478, 4271327477], "tags": {"landuse": "residential", "name": "\u0531\u056d\u056c\u0561\u0569\u0575\u0561\u0576", "name:en": "Akhlatyan", "name:hy": "\u0531\u056d\u056c\u0561\u0569\u0575\u0561\u0576", "name:ru": "\u0410\u0445\u043b\u0430\u0442\u044f\u043d", "place": "village", "wikidata": "Q590573", "wikipedia": "en:Akhlatyan"}}, {"type": "way", "id": 451595718, "nodes": [4484195068, 4484195069, 4484195070, 4484195071, 4484195072, 4484195073, 4484195074, 4484195075, 6938744101, 4484195076, 4484195077, 4484195078, 4484195079, 4484195080, 4484195081, 4484195082, 4484195083, 4484195084, 4484195085, 4484195086, 4484195087, 4484195088, 4484202789, 4484202790, 4484202791, 4484202792, 4484202793, 4484202794, 4484202795, 4484202796, 4484202797, 4484202798, 4484202799, 4484202800, 4484202801, 4484202802, 4484202803, 4484195068], "tags": {"name": "\u054d\u0561\u057c\u0576\u0561\u056f\u0578\u0582\u0576\u0584", "name:en": "Sarnakunk", "name:hy": "\u054d\u0561\u057c\u0576\u0561\u056f\u0578\u0582\u0576\u0584", "name:ru": "\u0421\u0430\u0440\u043d\u0430\u043a\u0443\u043d\u043a", "place": "village", "wikidata": "Q640522", "wikipedia": "en:Sarnakunk"}}, {"type": "way", "id": 451595719, "nodes": [4484202804, 4484202805, 12002894284, 4484202806, 4484202807, 4484202808, 4484202809, 4484202810, 4484202811, 4484202812, 4484202813, 6792444845, 4484202814, 4484202815, 6792724775, 6792724776, 6417443698, 6417443699, 4484202816, 4484202817, 4484202818, 4484202819, 4484202820, 4484202821, 4484202822, 4484202823, 4484202824, 4484202825, 4484202826, 4484202827, 4484202828, 4484202829, 4484202804], "tags": {"landuse": "residential", "name": "\u054d\u057a\u0561\u0576\u0564\u0561\u0580\u0575\u0561\u0576", "name:en": "Spandaryan", "name:hy": "\u054d\u057a\u0561\u0576\u0564\u0561\u0580\u0575\u0561\u0576", "name:ru": "\u0421\u043f\u0430\u043d\u0434\u0430\u0440\u044f\u043d", "place": "village", "wikidata": "Q428721", "wikipedia": "en:Spandaryan, Syunik"}}, {"type": "way", "id": 451595720, "nodes": [4484202830, 8036313574, 8036313575, 8036313576, 8036313577, 8036313578, 8036313579, 8036313573, 8036313572, 4484202831, 4484202832, 4484202833, 4484202834, 4484202835, 4484202836, 4484202837, 4484202838, 4484202839, 4484202840, 4484202841, 4484202842, 4484202843, 4484202844, 4484202845, 4484202846, 4484202847, 4484202848, 4484202849, 4484202850, 4484202851, 4484202852, 4484202853, 4484202854, 4484202855, 4484202856, 4484202857, 4484202858, 4484202859, 4484202860, 4484202861, 4484202862, 4484202863, 8990448769, 4484202864, 4484202865, 4484202866, 4484202867, 4484202868, 4484202869, 4484202870, 4484202830], "tags": {"name": "\u0547\u0561\u0584\u056b", "name:en": "Shaqi", "name:hy": "\u0547\u0561\u0584\u056b", "name:ru": "\u0428\u0430\u043a\u0438", "place": "village", "wikidata": "Q640539", "wikipedia": "en:Shaki, Armenia"}}, {"type": "way", "id": 514539281, "nodes": [5026644868, 5026644867, 5026644866, 5026644865, 5026644864, 5026644863, 5026644862, 5026644861, 5026644860, 5026644859, 5026644858, 5026644857, 5026644856, 5026644855, 5026644854, 5026644853, 5026644852, 5026644851, 5026644850, 5026644849, 5026644848, 5026644847, 5026644846, 11626618276, 5026644844, 5026644843, 5026644842, 5026644841, 5026644840, 5026644868], "tags": {"landuse": "residential", "name": "\u0531\u0576\u0563\u0565\u0572\u0561\u056f\u0578\u0569", "name:en": "Angeghakot", "name:hy": "\u0531\u0576\u0563\u0565\u0572\u0561\u056f\u0578\u0569", "name:ru": "\u0410\u043d\u0433\u0435\u0445\u0430\u043a\u043e\u0442", "place": "village", "wikidata": "Q590508", "wikipedia": "en:Angeghakot"}}, {"type": "way", "id": 514539299, "nodes": [5026644897, 5026644978, 5026644979, 5026644980, 5026644981, 5026644982, 5026644976, 5026644896, 5026644895, 5026644894, 5026644893, 5026644892, 5026644891, 5026644890, 5026644889, 5026644888, 5026644887, 5026644886, 5026644885, 5026644884, 5026644883, 5026644882, 5026644903, 5026644902, 5026644901, 5026644900, 5026644899, 5026644898, 5026644897], "tags": {"name": "\u0547\u0561\u0572\u0561\u057f", "name:en": "Shaghat", "name:hy": "\u0547\u0561\u0572\u0561\u057f", "name:ru": "\u0428\u0430\u0433\u0430\u0442", "place": "village", "wikidata": "Q640486", "wikipedia": "en:Shaghat"}}, {"type": "way", "id": 514539308, "nodes": [5026645040, 5026645039, 5026645038, 5026645037, 5026645036, 5026645035, 5026645034, 5026645033, 5026645032, 5026645031, 5026645040], "tags": {"landuse": "residential", "name": "\u0532\u0561\u056c\u0561\u0584", "name:en": "Balak", "name:hy": "\u0532\u0561\u056c\u0561\u0584", "name:ru": "\u0411\u0430\u043b\u0430\u043a", "place": "village", "wikidata": "Q712648", "wikipedia": "en:Balak, Armenia"}}, {"type": "way", "id": 514540816, "nodes": [5026658045, 5026658044, 5026658043, 5026658042, 5026658041, 5026658040, 5026658039, 5026658038, 5026658037, 5026658036, 5026658035, 5026658034, 5026658033, 5026658045], "tags": {"landuse": "residential", "name": "\u0532\u0576\u0578\u0582\u0576\u056b\u057d", "name:en": "Bnunis", "name:hy": "\u0532\u0576\u0578\u0582\u0576\u056b\u057d", "name:ru": "\u0411\u043d\u0443\u043d\u0438\u0441", "place": "village", "wikidata": "Q713160", "wikipedia": "en:Bnunis"}}, {"type": "way", "id": 514540817, "nodes": [5026658052, 5026658051, 5026658050, 5026658049, 5026658048, 5026658047, 5026658046, 5026658031, 5026658052], "tags": {"landuse": "residential", "name": "\u0539\u0561\u0576\u0561\u0570\u0561\u057f", "name:en": "Tanahat", "name:hy": "\u0539\u0561\u0576\u0561\u0570\u0561\u057f", "name:ru": "\u0422\u0430\u043d\u0430\u0430\u0442", "place": "village", "wikidata": "Q2702251", "wikipedia": "en:Tanahat"}}, {"type": "way", "id": 514540818, "nodes": [5026658072, 5026658071, 5026658070, 5026658069, 5026658068, 5026658067, 5026658066, 5026658065, 5026658064, 5026658063, 5026658062, 5026658061, 5026658060, 5026658059, 5026658058, 5026658057, 5026658056, 5026658055, 5026658054, 5026658053, 5026658072], "tags": {"landuse": "residential", "name": "\u0531\u0580\u0587\u056b\u057d", "name:en": "Arevis", "name:hy": "\u0531\u0580\u0587\u056b\u057d", "name:ru": "\u0410\u0440\u0435\u0432\u0438\u0441", "place": "village", "wikidata": "Q641359", "wikipedia": "en:Arevis"}}, {"type": "way", "id": 514540819, "nodes": [5026658083, 5026658082, 5026658081, 5026658080, 5026658079, 5026658078, 5026658077, 5026658076, 5026658075, 5026658074, 5026658073, 5026658083], "tags": {"landuse": "residential", "name": "\u0539\u0561\u057d\u056b\u056f", "name:en": "Tasik", "name:hy": "\u0539\u0561\u057d\u056b\u056f", "name:ru": "\u0422\u0430\u0441\u0438\u043a", "place": "village", "wikidata": "Q2224102", "wikipedia": "en:Tasik"}}, {"type": "way", "id": 514540832, "nodes": [5026658556, 5026658555, 5026658554, 5026658553, 5026658552, 5026658551, 5026658550, 5026658549, 5026658548, 5026658547, 5026658546, 5026658545, 5026658556], "tags": {"landuse": "residential", "name": "\u054d\u0561\u056c\u057e\u0561\u0580\u0564", "name:en": "Salvard", "name:hy": "\u054d\u0561\u056c\u057e\u0561\u0580\u0564", "name:ru": "\u0421\u0430\u043b\u0432\u0430\u0440\u0434", "place": "village", "wikidata": "Q640498", "wikipedia": "en:Salvard"}}, {"type": "way", "id": 514540849, "nodes": [5026658639, 5026658638, 5026658637, 5026658636, 5026658635, 5026658634, 5026658639], "tags": {"landuse": "residential", "name": "\u0540\u0561\u0581\u0561\u057e\u0561\u0576", "name:en": "Hatsavan", "name:hy": "\u0540\u0561\u0581\u0561\u057e\u0561\u0576", "name:ru": "\u0410\u0446\u0430\u0432\u0430\u043d", "place": "village", "wikidata": "Q590465", "wikipedia": "en:Hatsavan, Syunik"}}, {"type": "way", "id": 514540850, "nodes": [5026658655, 5026658654, 5026658653, 5026658652, 5026658651, 5026658650, 5026658649, 5026658648, 5026658647, 5026658646, 5026658645, 5026658644, 5026658643, 5026658642, 5026658641, 5026658640, 5026658655], "tags": {"landuse": "residential", "name": "\u0532\u057c\u0576\u0561\u056f\u0578\u0569", "name:en": "Brnakot", "name:hy": "\u0532\u057c\u0576\u0561\u056f\u0578\u0569", "name:ru": "\u0411\u0440\u043d\u0430\u043a\u043e\u0442", "place": "village", "wikidata": "Q713488", "wikipedia": "en:Brnakot"}}, {"type": "way", "id": 514542431, "nodes": [5026677984, 5026677983, 5026677982, 5026677981, 5026677980, 5026677979, 5026677978, 5026677977, 5026677976, 5026677975, 5026677974, 5026677973, 5026677972, 5026677971, 5026677970, 5026677969, 5026677968, 5026677967, 5026677966, 5026677965, 5026677964, 5026677984], "tags": {"landuse": "residential", "name": "\u054f\u0578\u0580\u0578\u0582\u0576\u056b\u0584", "name:en": "Torunik", "name:hy": "\u054f\u0578\u0580\u0578\u0582\u0576\u056b\u0584", "name:ru": "\u0422\u043e\u0440\u0443\u043d\u0438\u043a", "place": "village", "wikidata": "Q2074347", "wikipedia": "en:Torunik"}}, {"type": "way", "id": 514542446, "nodes": [5026678469, 5026678468, 5026678467, 5026678466, 5026678465, 5026678464, 5026678463, 5026678462, 5026678461, 5026678460, 5026678459, 5026678458, 5026678457, 5026678456, 5026678455, 5026678454, 5026678453, 5026678452, 5026678451, 5026678450, 5026678469], "tags": {"landuse": "residential", "name": "\u0534\u0561\u057d\u057f\u0561\u056f\u0565\u0580\u057f", "name:en": "Dastakert", "name:hy": "\u0534\u0561\u057d\u057f\u0561\u056f\u0565\u0580\u057f", "name:ru": "\u0414\u0430\u0441\u0442\u0430\u043a\u0435\u0440\u0442", "place": "village", "wikidata": "Q39621", "wikipedia": "en:Dastakert"}}, {"type": "way", "id": 514542455, "nodes": [5026678605, 5026678604, 5026678603, 5026678602, 5026678601, 5026678586, 5026678600, 5026678599, 5026678598, 5026678597, 5026678596, 5026678605], "tags": {"landuse": "residential", "name": "\u0546\u056a\u0564\u0565\u0570", "name:en": "Nzhdeh", "name:hy": "\u0546\u056a\u0564\u0565\u0570", "name:ru": "\u041d\u0436\u0434\u0435", "place": "village", "wikidata": "Q713180", "wikipedia": "en:Nzhdeh, Armenia"}}, {"type": "way", "id": 514542456, "nodes": [5026678618, 5026678617, 5026678616, 5026678615, 5026678614, 5026678613, 5026678612, 5026678611, 5026678610, 5026678609, 5026678608, 5026678607, 5026678606, 5026678618], "tags": {"landuse": "residential", "name": "\u0551\u0572\u0578\u0582\u0576\u056b", "name:en": "Tsghuni", "name:hy": "\u0551\u0572\u0578\u0582\u0576\u056b", "name:ru": "\u0426\u0445\u0443\u043d\u0438", "place": "village", "wikidata": "Q7849598", "wikipedia": "en:Tsghuni"}}, {"type": "way", "id": 514571266, "nodes": [5026897339, 5026897338, 5026897337, 5026897336, 5026897335, 5026897334, 5026897333, 5026897332, 5026897331, 5026897330, 5026897329, 5026897328, 5026897327, 5026897326, 5026897325, 5026897324, 5026897339], "tags": {"landuse": "residential", "name": "\u0544\u0578\u0582\u0581\u0584", "name:en": "Mutsk", "name:hy": "\u0544\u0578\u0582\u0581\u0584", "name:ru": "\u041c\u0443\u0446\u043a", "place": "village", "wikidata": "Q713178", "wikipedia": "en:Mutsk"}}, {"type": "way", "id": 552370383, "nodes": [5333109413, 5333109412, 5333109411, 5333109410, 5333109409, 5333109408, 5333109407, 5333109406, 5333109405, 5333109404, 5333109403, 5333109402, 5333109401, 5333109400, 5333109399, 5333109398, 5333109397, 5333109396, 5333109395, 5333109394, 5333109393, 5333109392, 5333109391, 5333109390, 5333109389, 5333109388, 5333109387, 5333109386, 5333109385, 5333109384, 5333109383, 5333109382, 5333109381, 5333109380, 5333109379, 5333109378, 5333109377, 5333109376, 5333109375, 5333109374, 5333109373, 5333109372, 5333109371, 5333109370, 5333109369, 5333109368, 5333109367, 5333109366, 5333109365, 5333109364, 5333109363, 5333109362, 5333109361, 5333109360, 5333109359, 5333109358, 5333109357, 5333109356, 5333109355, 5333109354, 5333109353, 5333109352, 5333109351, 5333109350, 5333109349, 6801504262, 5333109348, 6801504263, 5333109347, 6801504264, 6801504265, 6801504267, 6801504266, 5333109346, 5333109345, 5333109344, 5333109343, 5333109342, 5333109341, 5333109340, 5333109339, 5333109338, 5333109337, 5333109336, 5333109335, 5333109334, 5333109333, 5333109332, 5333109331, 5333109330, 5333109329, 5333109328, 5333109327, 5333109326, 5333109018, 5333109325, 5333109324, 5333109323, 5333109322, 5333109321, 5333109020, 5333109019, 5333109413], "tags": {"landuse": "residential", "name": "\u0531\u0580\u057f\u0561\u057e\u0561\u0576", "name:en": "Artavan", "name:hy": "\u0531\u0580\u057f\u0561\u057e\u0561\u0576", "name:ru": "\u0410\u0440\u0442\u0430\u0432\u0430\u043d", "place": "village", "wikidata": "Q554363", "wikipedia": "en:Artavan"}}, {"type": "way", "id": 552373821, "nodes": [5333135536, 5333135535, 5333135534, 5333135533, 5333135532, 5333135531, 5333135530, 5333135529, 5333135528, 5333135527, 5333135526, 5333135525, 5333135524, 5333135523, 5333135522, 5333135521, 5333135320, 5333135319, 5333135318, 5333135317, 5333135316, 5333135315, 5333135314, 5333135313, 5333135312, 5333135311, 6324629707, 5333135310, 5333135309, 5333135308, 5649288648, 5649288647, 5333135307, 5333135306, 5333135305, 5333135304, 5333135303, 5333135302, 5333135301, 5333135300, 5333135299, 5333135536], "tags": {"landuse": "residential", "name": "\u053f\u0561\u057a\u0578\u0582\u0575\u057f", "name:en": "Kapuyt", "name:hy": "\u053f\u0561\u057a\u0578\u0582\u0575\u057f", "name:ru": "\u041a\u0430\u043f\u0443\u0439\u0442", "place": "village", "wikidata": "Q6367406", "wikipedia": "en:Kapuyt"}}, {"type": "way", "id": 628629515, "nodes": [5934947568, 10687167943, 5934947567, 10687167942, 5934947566, 5934947565, 5934947564, 5934947568], "tags": {"name": "\u0531\u057b\u0561\u0562\u0561\u057b", "name:en": "Ajabaj", "name:hy": "\u0531\u057b\u0561\u0562\u0561\u057b", "name:ru": "\u0410\u0434\u0436\u0430\u0431\u0430\u0434\u0436", "place": "village", "wikidata": "Q4699491", "wikipedia": "en:Ajabaj"}}, {"type": "way", "id": 829627241, "nodes": [7743423182, 7743423183, 7743423184, 7743429485, 7743429486, 7743429487, 7743429488, 7743429489, 7743429490, 7743429491, 7743429492, 7743429493, 7743429494, 7743429495, 7743429496, 7743429497, 7743437243, 7743429498, 7743429499, 7743429500, 7743429501, 7743429502, 7743429503, 7743429504, 7743429505, 7743429506, 7743429507, 7743429508, 7743429509, 7743429510, 7743429511, 7743429512, 7743429513, 7743429514, 7743429515, 7743429516, 7743423182], "tags": {"landuse": "residential", "name": "\u015eahbuz", "name:fa": "\u0634\u0627\u0647\u0628\u0648\u0632", "name:ru": "\u0428\u0430\u0445\u0431\u0443\u0437", "place": "town", "population": "4600"}}, {"type": "way", "id": 829628211, "nodes": [7743437240, 7743437241, 7743437242, 7743437243, 7743437244, 7743437245, 7743437246, 7743437247, 9764662090, 7743437248, 7743437249, 7743437250, 7743437251, 7743437252, 7743437253, 7743437254, 7743437255, 7743437256, 7743437257, 7743437258, 7743437259, 7743437240], "tags": {"landuse": "residential", "name": "Qarababa", "name:ru": "\u041a\u0430\u0440\u0430\u0431\u0430\u0431\u0430", "place": "village"}}, {"type": "way", "id": 882465531, "nodes": [8206789271, 8206789272, 8206789273, 8206789274, 8206789278, 8206789282, 8206789284, 8206789285, 8206789286, 8206789287, 8206789288, 8206789289, 8990448751, 8206789290, 8990448752, 8206789291, 8206789292, 8206789293, 8206789294, 8206789295, 8206789298, 8206789299, 8206789300, 8206789301, 8206789302, 8206789303, 8206789304, 8206789305, 8206789306, 8206789307, 8206789308, 8206789309, 8206789310, 8206789311, 8206789312, 8206789313, 8206789314, 8206789315, 8206789316, 8206789317, 8206789318, 8206789319, 8206789320, 8206789321, 8206789322, 8206789323, 8206789324, 8206789325, 8206789326, 8206789327, 8206789328, 8206789329, 8206789330, 8206789331, 8206789332, 8206789333, 8206789334, 8206789335, 8206789336, 8206789337, 8206789338, 8206789339, 8206789340, 8206789341, 8206789342, 8206789343, 8206789344, 8990448760, 8990448761, 8990448764, 8990448765, 8990448767, 8990448768, 8990448766, 8990448762, 8990448763, 8990448759, 8990448758, 8206789345, 8206789346, 8206789347, 8206789357, 8206789358, 8206789359, 8206789360, 8206789361, 8206789362, 8206789363, 8206789364, 8206789365, 8206789367, 8206789368, 8206789369, 8206789370, 8206789371, 8206789372, 8206789373, 8990448749, 8206789374, 8990448750, 8206789375, 8206789376, 8206789377, 8206789378, 8889820036, 8206789379, 8206789380, 8206789381, 8206789382, 8206789271], "tags": {"landuse": "residential", "name": "\u054d\u056b\u057d\u056b\u0561\u0576", "name:az": "Qarakils\u0259 \u015f\u0259h\u0259ri", "name:en": "Sisian", "name:hy": "\u054d\u056b\u057d\u056b\u0561\u0576", "name:ru": "\u0421\u0438\u0441\u0438\u0430\u043d", "name:tr": "Garakilse \u015fehri", "place": "town"}}, {"type": "way", "id": 1148693452, "nodes": [10687232958, 10687232959, 10687232960, 10687232961, 10687232962, 10687232963, 10687232964, 10687232958], "tags": {"name": "\u053f\u056b\u0581\u0584", "name:en": "Kitsk", "name:hy": "\u053f\u056b\u0581\u0584", "name:ru": "\u041a\u0438\u0446\u043a", "place": "village", "wikidata": "Q10956397", "wikipedia": "en:Kitsk"}}, {"type": "way", "id": 1205118110, "nodes": [11168786382, 11168786383, 11168786384, 11168786385, 11168786386, 11168786387, 11168786388, 11168786389, 11168786390, 11168786391, 11168786392, 11168786393, 11168786394, 11168786395, 11168786396, 12716891313, 11168786397, 11168786398, 11168786399, 11168786400, 11168786401, 11168786402, 11168786403, 11168786404, 11168786405, 11168786406, 11168786407, 11168786408, 11168786409, 11168786410, 11168786411, 11168786412, 11168786413, 11168786414, 11168786415, 11168786416, 11168786417, 11168786418, 11168786419, 11168786420, 11168786382], "tags": {"name": "K\u00fck\u00fc", "name:ru": "\u041a\u044e\u043a\u044e", "place": "village", "residential": "yes"}}, {"type": "way", "id": 1205118141, "nodes": [11168786491, 11168786492, 11168786493, 11168786494, 11168786495, 11168786496, 11168786497, 11168786498, 11168786499, 11168786500, 11168786501, 11168786502, 11168786503, 11168786504, 11168786505, 11168786506, 11168786507, 11168786508, 11168786509, 11168786510, 11168786511, 11168786512, 11168786513, 11168786514, 11168786515, 11168786516, 11168786517, 11168786518, 11168786519, 11168786520, 11168786521, 11168786522, 11168786523, 11168786524, 11168786525, 11168786526, 11168786527, 11168786528, 11168786529, 11168786491], "tags": {"name": "Q\u0131z\u0131l Q\u0131\u015flaq", "name:ru": "\u041a\u044b\u0437\u044b\u043b-\u041a\u044b\u0448\u043b\u0430\u043a", "place": "village"}}, {"type": "relation", "id": 10266587, "members": [{"type": "node", "ref": 210222626, "role": "admin_centre"}], "tags": {"admin_level": "8", "boundary": "administrative", "name": "\u054d\u056b\u057d\u056b\u0561\u0576", "name:en": "Sisian", "name:hy": "\u054d\u056b\u057d\u056b\u0561\u0576", "name:pl": "Sisjan", "name:ru": "\u0421\u0438\u0441\u0438\u0430\u043d", "place": "town", "population": "16735", "type": "boundary", "wikipedia": "en:Sisian"}}]}