{"version": 0.6, "generator": "Overpass API 0.7.62.8 e802775f", "osm3s": {"timestamp_osm_base": "2025-12-01T14:33:01Z", "copyright": "The data included in this document is from www.openstreetmap.org. The data is made available under ODbL."}, "elements": [{"type": "node", "id": 130040361, "lat": 40.1777112, "lon": 44.5126233, "tags": {"ISO3166-1:alpha2": "AM", "admin_level": "2", "alt_name:vi": "Erevan", "capital": "yes", "capital_ISO3166-1": "yes", "int_name": "Yerevan", "is_in:country": "Armenia", "is_in:country_code": "AM", "name": "\u0535\u0580\u0587\u0561\u0576", "name:ab": "\u0415\u0440\u0435\u0432\u0430\u043d", "name:af": "Jerewan", "name:am": "\u12ec\u122c\u126b\u1295", "name:an": "Erevan", "name:ar": "\u064a\u0631\u064a\u0641\u0627\u0646", "name:av": "\u0415\u0440\u0435\u0432\u0430\u043d", "name:az": "\u0130r\u0259van", "name:ba": "\u0415\u0440\u0435\u0432\u0430\u043d", "name:be": "\u0415\u0440\u044d\u0432\u0430\u043d", "name:be-tarask": "\u0415\u0440\u044d\u0432\u0430\u043d", "name:bg": "\u0415\u0440\u0435\u0432\u0430\u043d", "name:bn": "\u0987\u09af\u09bc\u09c7\u09b0\u09c7\u09ad\u09be\u09a8", "name:bo": "\u0f61\u0f7a\u0f0b\u0f62\u0f7a\u0f0b\u0f5d\u0f53\u0f0d", "name:br": "Yerevan", "name:bs": "Erevan", "name:ca": "Erevan", "name:ce": "\u0415\u0440\u0435\u0432\u0430\u043d", "name:ckb": "\u06cc\u06d5\u0631\u06cc\u06a4\u0627\u0646", "name:cs": "Jerevan", "name:cv": "\u0415\u0440\u0435\u0432\u0430\u043d", "name:cy": "Yerevan", "name:da": "Jerevan", "name:de": "Eriwan", "name:diq": "Yer\u00eavan", "name:el": "\u0393\u03b9\u03b5\u03c1\u03b5\u03b2\u03ac\u03bd", "name:en": "Yerevan", "name:eo": "Erevano", "name:es": "Erev\u00e1n", "name:et": "Jerevan", "name:eu": "Erevan", "name:fa": "\u0627\u06cc\u0631\u0648\u0627\u0646", "name:ff": "Yerevan", "name:fi": "Jerevan", "name:fo": "Jerevan", "name:fr": "Erevan", "name:frp": "Y\u00e8r\u00e8van", "name:fy": "Jerevan", "name:ga": "Eireav\u00e1n", "name:gag": "Erivan", "name:gd": "Yerevan", "name:gl": "Ierev\u00e1n - \u0535\u0580\u0587\u0561\u0576", "name:gv": "Yerevan", "name:ha": "Yerevan", "name:he": "\u05d9\u05e8\u05d5\u05d5\u05d0\u05df", "name:hi": "\u092f\u0947\u0930\u0935\u093e\u0928", "name:hr": "Erevan", "name:hsb": "Jerjewan", "name:ht": "Erev\u00e0n", "name:hu": "Jerev\u00e1n", "name:hy": "\u0535\u0580\u0587\u0561\u0576", "name:ia": "Yerevan", "name:id": "Yerevan", "name:ie": "Jerevan", "name:ilo": "Yerevan", "name:io": "Yerevan", "name:is": "Jerevan", "name:it": "Yerevan", "name:ja": "\u30a8\u30ec\u30d0\u30f3", "name:jv": "Yerevan", "name:ka": "\u10d4\u10e0\u10d4\u10d5\u10d0\u10dc\u10d8", "name:kab": "Erevan", "name:kk": "\u0415\u0440\u0435\u0432\u0430\u043d", "name:km": "\u1799\u17c1\u179a\u17c1\u179c\u17c9\u17b6\u1793", "name:kn": "\u0caf\u0cc6\u0cb0\u0cc6\u0cb5\u0cbe\u0ca8\u0ccd", "name:ko": "\uc608\ub808\ubc18", "name:ku": "Y\u00ear\u00eavan", "name:kv": "\u0415\u0440\u0435\u0432\u0430\u043d", "name:ky": "\u0415\u0440\u0435\u0432\u0430\u043d", "name:la": "Erevanum", "name:lad": "Djerevan", "name:lb": "Eriwan", "name:lez": "\u0415\u0440\u0435\u0432\u0430\u043d", "name:li": "Jerevan", "name:lij": "Erevan", "name:lmo": "Erevan", "name:lt": "Jerevanas", "name:lv": "Erev\u0101na", "name:mdf": "\u0415\u0440\u0435\u0432\u0430\u043d", "name:mg": "Yerevan", "name:mhr": "\u0415\u0440\u0435\u0432\u0430\u043d", "name:mi": "Yerevan", "name:mk": "\u0415\u0440\u0435\u0432\u0430\u043d", "name:ml": "\u0d2f\u0d46\u0d31\u0d3f\u0d35\u0d3e\u0d7b", "name:mn": "\u0415\u0440\u0435\u0432\u0430\u043d", "name:mr": "\u092f\u0947\u0930\u0947\u0935\u094d\u0939\u093e\u0928", "name:ms": "Yerevan", "name:mt": "Yerevan", "name:myv": "\u0415\u0440\u0435\u0432\u0430\u043d", "name:mzn": "\u0627\u06cc\u0631\u0648\u0627\u0646", "name:nah": "Erevan", "name:nb": "Jerevan", "name:ne": "\u092f\u0947\u0930\u0935\u093e\u0928 \u092a\u094d\u0930\u093e\u0928\u094d\u0924", "name:nl": "Jerevan", "name:nn": "Jerevan", "name:no": "Jerevan", "name:nov": "Yerevan", "name:nv": "H\u00f3k\u02bc\u0105\u0301\u0105\u0301s\u02bc\u00e1n\u00ed", "name:ny": "Yerevan", "name:oc": "Erevan", "name:os": "\u0415\u0440\u0435\u0432\u0430\u043d", "name:pa": "\u0a2f\u0a47\u0a30\u0a35\u0a3e\u0a28", "name:pl": "Erywa\u0144", "name:pms": "Erevan", "name:pnb": "\u06cc\u0631\u06cc\u0648\u0627\u0646", "name:pt": "Erevan", "name:qu": "Yiriwan", "name:ro": "Erevan", "name:ru": "\u0415\u0440\u0435\u0432\u0430\u043d", "name:rw": "Yerevan", "name:sa": "\u092f\u0947\u0930\u0947\u0935\u093e\u0928", "name:sah": "\u0415\u0440\u0435\u0432\u0430\u043d", "name:sc": "Erevan", "name:scn": "Erevan", "name:sco": "Yerevan", "name:sd": "\u064a\u0631\u064a\u0648\u0627\u0646", "name:sh": "Erevan", "name:simple": "Yerevan", "name:sk": "Jerevan", "name:sl": "Erevan", "name:sn": "Yerevan", "name:sq": "Jerevani", "name:sr": "\u0408\u0435\u0440\u0435\u0432\u0430\u043d", "name:su": "Y\u00e9r\u00e9van", "name:sv": "Jerevan", "name:sw": "Yerevan", "name:ta": "\u0baf\u0bc6\u0bb0\u0bc6\u0bb5\u0bbe\u0ba9\u0bcd", "name:te": "\u0c2f\u0c46\u0c30\u0c46\u0c35\u0c3e\u0c28\u0c4d", "name:tg": "\u0415\u0440\u0435\u0432\u0430\u043d", "name:th": "\u0e40\u0e22\u0e40\u0e23\u0e27\u0e32\u0e19", "name:tk": "\u00dderewan", "name:tl": "Yerevan", "name:tr": "Erivan", "name:tt": "\u0415\u0440\u0435\u0432\u0430\u043d", "name:tw": "E\u03b5r\u03b5wan", "name:udm": "\u0415\u0440\u0435\u0432\u0430\u043d", "name:ug": "\u064a\u06d0\u0631\u06d0\u06cb\u0627\u0646", "name:uk": "\u0404\u0440\u0435\u0432\u0430\u043d", "name:ur": "\u06cc\u0631\u06cc\u0648\u0627\u0646", "name:uz": "Yerevan", "name:vec": "\u00c8revan", "name:vep": "Jerevan", "name:vi": "Yerevan", "name:vo": "Yerevan", "name:vro": "Jerevan", "name:war": "Yerevan", "name:xmf": "\u10d4\u10e0\u10d4\u10d5\u10d0\u10dc\u10d8", "name:yi": "\u05d9\u05e2\u05e8\u05e2\u05d5\u05d5\u05d0\u05df", "name:yo": "Yerevan", "name:zea": "Jerevan", "name:zh": "\u57c3\u91cc\u6eab", "place": "city", "population": "1129300", "website": "https://www.yerevan.am/hy/", "wikidata": "Q1953", "wikipedia": "en:Yerevan"}}, {"type": "node", "id": 130042088, "lat": 40.1627757, "lon": 44.2931665, "tags": {"ele": "853", "is_in:country": "Armenia", "is_in:country_code": "AM", "is_in:municipality": "\u054e\u0561\u0572\u0561\u0580\u0577\u0561\u057a\u0561\u057f\u056b \u0570\u0561\u0574\u0561\u0575\u0576\u0584", "is_in:region": "\u0531\u0580\u0574\u0561\u057e\u056b\u0580\u056b \u0574\u0561\u0580\u0566", "name": "\u054e\u0561\u0572\u0561\u0580\u0577\u0561\u057a\u0561\u057f", "name:ar": "\u0641\u0627\u063a\u0627\u0631\u0634\u0627\u0628\u0627\u062a", "name:az": "\u00dc\u00e7kils\u0259", "name:ba": "\u0412\u0430\u0493\u0430\u0440\u0448\u0430\u043f\u0430\u0442", "name:be": "\u0412\u0430\u0433\u0430\u0440\u0448\u0430\u043f\u0430\u0442", "name:bg": "\u0412\u0430\u0433\u0430\u0440\u0448\u0430\u043f\u0430\u0442", "name:ca": "Vagharxapat", "name:ce": "\u0412\u0430\u0433\u0430\u0440\u0448\u0430\u043f\u0430\u0442", "name:ckb": "\u06a4\u0627\u063a\u0627\u0631\u0634\u0627\u067e\u0627\u062a", "name:cs": "Vaghar\u0161apat", "name:da": "Vagharsjapat", "name:de": "Wagharschapat", "name:el": "\u0395\u03c4\u03c3\u03bc\u03b9\u03b1\u03c4\u03b6\u03af\u03bd", "name:en": "Vagharshapat", "name:eo": "E\u0109miadzin", "name:es": "Echmiadzin", "name:et": "Vaghar\u0161apat", "name:eu": "Ejmiatsin", "name:fa": "\u0648\u0627\u063a\u0627\u0631\u0634\u0627\u067e\u0627\u062a", "name:fi": "Vaghar\u0161apat", "name:fr": "Etchmiadzin", "name:fy": "Vagharsjapat", "name:gl": "Vagharshapat", "name:he": "\u05d5\u05d0\u05e8\u05d0\u05e9\u05d0\u05e4\u05d0\u05d8", "name:hi": "\u0935\u0918\u093e\u0930\u0936\u092a\u0924", "name:hr": "E\u010dmijadzin", "name:hu": "Vagarsapat", "name:hy": "\u054e\u0561\u0572\u0561\u0580\u0577\u0561\u057a\u0561\u057f", "name:id": "Vagharshapat", "name:it": "Echmiadzin", "name:ja": "\u30a8\u30c1\u30df\u30a2\u30b8\u30f3", "name:ka": "\u10d5\u10d0\u10e6\u10d0\u10e0\u10e8\u10d0\u10de\u10d0\u10e2\u10d8", "name:ko": "\uc5d0\uce58\ubbf8\uc544\uc9c4", "name:ku": "Vaxar\u015fapat", "name:lt": "Vahar\u0161apatas", "name:lv": "Vagar\u0161apata", "name:mk": "\u0412\u0430\u0433\u0430\u0440\u0448\u0430\u043f\u0430\u0442", "name:ml": "\u0d35\u0d3e\u0d18\u0d3e\u0d7c\u0d37\u0d2a\u0d4d\u0d2a\u0d3e\u0d24\u0d4d", "name:mn": "\u042d\u0447\u043c\u0438\u0430\u0446\u0438\u043d", "name:ms": "Echmiadzin", "name:nb": "Vagharsjapat", "name:nl": "Vagharsjapat", "name:os": "\u0412\u0430\u0433\u0430\u0440\u0448\u0430\u043f\u0430\u0442", "name:pl": "Wagharszapat", "name:pt": "Valarsapate", "name:ro": "Ecimiadzin", "name:ru": "\u0412\u0430\u0433\u0430\u0440\u0448\u0430\u043f\u0430\u0442", "name:sk": "Vagar\u0161apat", "name:sl": "Vagar\u0161apat", "name:sr": "\u0412\u0430\u0433\u0430\u0440\u0448\u0430\u043f\u0430\u0442", "name:sv": "Edzjmiatsin", "name:ta": "\u0bb5\u0bbe\u0b95\u0bb0\u0bcd\u0b9a\u0baa\u0bbe\u0ba4\u0bcd", "name:th": "\u0e27\u0e32\u0e01\u0e32\u0e23\u0e4c\u0e2a\u0e0a\u0e32\u0e1e\u0e31\u0e15", "name:tr": "E\u00e7miyazin", "name:uk": "\u0412\u0430\u0433\u0430\u0440\u0448\u0430\u043f\u0430\u0442", "name:ur": "\u0648\u0627\u063a\u0627\u0631\u0634\u0627\u067e\u0627\u062a", "name:uz": "Echmiadzin", "name:vi": "Echmiadzin", "name:zh": "\u74e6\u52a0\u5c14\u6c99\u5e15\u7279", "note": "Please do not change the town name. \u054e\u0561\u0572\u0561\u0580\u0577\u0561\u057a\u0561\u057f is official city name. The \u0537\u057b\u0574\u056b\u0561\u056e\u056b\u0576 is the old name(and now only the cathedral area officially called \u0537\u057b\u0574\u056b\u0561\u056e\u056b\u0576).", "old_name": "\u0537\u057b\u0574\u056b\u0561\u056e\u056b\u0576", "old_name:de": "Etschmiadsin", "old_name:fr": "Etchmiadzin", "old_name:hy": "\u0537\u057b\u0574\u056b\u0561\u056e\u056b\u0576", "old_name:ru": "\u042d\u0447\u043c\u0438\u0430\u0434\u0437\u0438\u043d", "place": "town", "population": "46356", "population:date": "2022-01-01", "source:population": "Armstat", "website": "https://ejmiatsin.am/", "wikidata": "Q183394", "wikipedia": "hy:\u054e\u0561\u0572\u0561\u0580\u0577\u0561\u057a\u0561\u057f"}}, {"type": "node", "id": 130042336, "lat": 40.1555485, "lon": 44.0387565, "tags": {"capital": "4", "is_in:country": "Armenia", "is_in:country_code": "AM", "is_in:municipality": "\u0531\u0580\u0574\u0561\u057e\u056b\u0580\u056b \u0570\u0561\u0574\u0561\u0575\u0576\u0584", "is_in:region": "\u0531\u0580\u0574\u0561\u057e\u056b\u0580\u056b \u0574\u0561\u0580\u0566", "name": "\u0531\u0580\u0574\u0561\u057e\u056b\u0580", "name:ar": "\u0623\u0631\u0645\u0627\u0641\u064a\u0631", "name:az": "S\u0259rdarabad", "name:be": "\u0410\u0440\u043c\u0430\u0432\u0456\u0440", "name:bg": "\u041e\u043a\u0442\u0435\u043c\u0431\u0435\u0440\u044f\u043d", "name:bn": "\u0986\u09b0\u09cd\u09ae\u09be\u09ad\u09bf\u09b0", "name:ca": "Armavir", "name:ce": "\u0410\u0440\u043c\u0430\u0432\u0438\u0440", "name:ckb": "\u0626\u0627\u0631\u0645\u0627\u06a4\u06cc\u0631", "name:cs": "Armavir", "name:de": "Armawir", "name:el": "\u0391\u03c1\u03bc\u03b1\u03b2\u03af\u03c1", "name:en": "Armavir", "name:eo": "Armaviro", "name:es": "Armavir", "name:et": "Armavir", "name:fa": "\u0622\u0631\u0645\u0627\u0648\u06cc\u0631", "name:fi": "Armavir", "name:fr": "Armavir", "name:hu": "Armavir", "name:hy": "\u0531\u0580\u0574\u0561\u057e\u056b\u0580", "name:id": "Armavir", "name:it": "Armavir", "name:ja": "\u30a2\u30eb\u30de\u30f4\u30a3\u30eb", "name:ka": "\u10d0\u10e0\u10db\u10d0\u10d5\u10d8\u10e0\u10d8", "name:kk": "\u0410\u0440\u043c\u0430\u0432\u0438\u0440", "name:ko": "\uc544\ub974\ub9c8\ube44\ub974", "name:ku": "Armav\u00eer", "name:la": "Armavirum", "name:lt": "Armaviras", "name:ml": "\u0d05\u0d7c\u0d2e\u0d3e\u0d35\u0d3f\u0d7c", "name:ms": "Armavir", "name:nb": "Armavir", "name:nl": "Armavir", "name:os": "\u0410\u0440\u043c\u0430\u0432\u0438\u0440", "name:pl": "Armawir", "name:pt": "Armavir", "name:ro": "Armavir", "name:ru": "\u0410\u0440\u043c\u0430\u0432\u0438\u0440", "name:sr": "\u0410\u0440\u043c\u0430\u0432\u0438\u0440", "name:sv": "Armavir", "name:sw": "Armavir", "name:tr": "Armavir", "name:uk": "\u0410\u0440\u043c\u0430\u0432\u0456\u0440", "name:ur": "\u0622\u0631\u0627\u0645\u0648\u06cc\u0631", "name:vi": "Armavir", "name:zh": "\u963f\u723e\u99ac\u7dad\u723e", "nat_name": "\u0531\u0580\u0574\u0561\u057e\u056b\u0580", "place": "town", "population": "33800", "population:census:1992": "27713", "population:date": "2022-01-01", "source:population": "Armstat", "wikidata": "Q15771", "wikipedia": "hy:\u0531\u0580\u0574\u0561\u057e\u056b\u0580"}}, {"type": "node", "id": 210085218, "lat": 40.3214049, "lon": 44.4813889, "tags": {"is_in:country": "Armenia", "is_in:country_code": "AM", "is_in:municipality": "\u0546\u0561\u056b\u0580\u056b\u056b \u0570\u0561\u0574\u0561\u0575\u0576\u0584", "is_in:region": "\u053f\u0578\u057f\u0561\u0575\u0584\u056b \u0574\u0561\u0580\u0566", "name": "\u0535\u0572\u057e\u0561\u0580\u0564", "name:ckb": "\u06cc\u06ce\u063a\u06a4\u0627\u0631\u062f", "name:el": "\u0393\u03b9\u03ad\u03b3\u03ba\u03b2\u03b1\u03c1\u03bd\u03c4", "name:en": "Yeghvard", "name:fa": "\u06cc\u063a\u0648\u0627\u0631\u062f", "name:hy": "\u0535\u0572\u057e\u0561\u0580\u0564", "name:ku": "Y\u00eaxvard", "name:ml": "\u0d2f\u0d46\u0d18\u0d4d\u0d35\u0d3e\u0d7c\u0d21\u0d4d", "name:ru": "\u0415\u0433\u0432\u0430\u0440\u0434", "place": "town", "population": "12106", "population:date": "2022-01-01", "source:population": "Armstat", "wikidata": "Q1649945", "wikipedia": "en:Yeghvard"}}, {"type": "node", "id": 289113365, "lat": 40.1453605, "lon": 44.4111651}, {"type": "node", "id": 289113366, "lat": 40.1456063, "lon": 44.4109742}, {"type": "node", "id": 289113372, "lat": 40.1474723, "lon": 44.3657385}, {"type": "node", "id": 289113373, "lat": 40.1484415, "lon": 44.3672869}, {"type": "node", "id": 592148761, "lat": 40.1309514, "lon": 44.4250644}, {"type": "node", "id": 592148764, "lat": 40.1591172, "lon": 44.4317855}, {"type": "node", "id": 592148766, "lat": 40.1454608, "lon": 44.3912691}, {"type": "node", "id": 592148782, "lat": 40.1852577, "lon": 44.4077768}, {"type": "node", "id": 592148784, "lat": 40.182651, "lon": 44.4076013}, {"type": "node", "id": 592148790, "lat": 40.1675188, "lon": 44.430276}, {"type": "node", "id": 592148794, "lat": 40.2288392, "lon": 44.4153213}, {"type": "node", "id": 592148807, "lat": 40.093105, "lon": 44.4905056}, {"type": "node", "id": 592148817, "lat": 40.1020647, "lon": 44.5755874}, {"type": "node", "id": 592148823, "lat": 40.1061228, "lon": 44.5865024}, {"type": "node", "id": 592148825, "lat": 40.108604, "lon": 44.594834}, {"type": "node", "id": 592148830, "lat": 40.2380348, "lon": 44.5648373}, {"type": "node", "id": 592148831, "lat": 40.2365039, "lon": 44.5621895}, {"type": "node", "id": 592148836, "lat": 40.227801, "lon": 44.479923}, {"type": "node", "id": 592148838, "lat": 40.2342092, "lon": 44.5304561}, {"type": "node", "id": 592148846, "lat": 40.2340315, "lon": 44.4395893}, {"type": "node", "id": 592148869, "lat": 40.240677, "lon": 44.5426427}, {"type": "node", "id": 592148871, "lat": 40.2414982, "lon": 44.5637873}, {"type": "node", "id": 1240285509, "lat": 40.1443582, "lon": 44.1192082, "tags": {"is_in:country": "Armenia", "is_in:country_code": "AM", "is_in:municipality": "\u0544\u0565\u056e\u0561\u0574\u0578\u0580\u056b \u0570\u0561\u0574\u0561\u0575\u0576\u0584", "is_in:region": "\u0531\u0580\u0574\u0561\u057e\u056b\u0580\u056b \u0574\u0561\u0580\u0566", "name": "\u0544\u0565\u056e\u0561\u0574\u0578\u0580", "name:ar": "\u0645\u062a\u0633\u0627\u0645\u0648\u0631", "name:az": "Metsamor", "name:be": "\u041c\u0435\u0446\u0430\u043c\u043e\u0440", "name:bg": "\u041c\u0435\u0446\u0430\u043c\u043e\u0440", "name:ca": "Metsamor", "name:ce": "\u041c\u0435\u0446\u0430\u043c\u043e\u0440", "name:ckb": "\u0645\u06ce\u062a\u0633\u0627\u0645\u06c6\u0631", "name:cs": "Mecamor", "name:de": "Mezamor", "name:el": "\u039c\u03b5\u03c4\u03c3\u03b1\u03bc\u03cc\u03c1", "name:en": "Metsamor", "name:eo": "Mecamoro", "name:es": "Metsamor", "name:et": "Metsamor", "name:fa": "\u0645\u062a\u0633\u0627\u0645\u0648\u0631", "name:fi": "Metsamor", "name:fr": "Metsamor", "name:hy": "\u0544\u0565\u056e\u0561\u0574\u0578\u0580", "name:id": "Metsamor", "name:it": "Metsamor", "name:ka": "\u10db\u10d4\u10ec\u10d0\u10db\u10dd\u10e0\u10d8", "name:ku": "M\u00eatsamor", "name:lt": "Mecamoras", "name:lv": "Mecamora", "name:ml": "\u0d2e\u0d46\u0d1f\u0d4d\u0d38\u0d2e\u0d4b\u0d7c", "name:ms": "Metsamor", "name:nb": "Metsamor", "name:nl": "Metsamor", "name:os": "\u041c\u0435\u0446\u0430\u043c\u043e\u0440", "name:pl": "Mecamor", "name:ro": "Me\u021bamor", "name:ru": "\u041c\u0435\u0446\u0430\u043c\u043e\u0440", "name:sr": "\u041c\u0435\u0446\u0430\u043c\u043e\u0440", "name:sv": "Metsamor", "name:sw": "Metsamor", "name:tr": "Metzamor", "name:uk": "\u041c\u0435\u0446\u0430\u043c\u043e\u0440", "name:vi": "Metsamor", "name:zh": "\u6885\u5bdf\u83ab\u5c14", "place": "town", "population": "8453", "population:date": "2022-01-01", "source:population": "Armstat", "wikidata": "Q1136307", "wikipedia": "en:Metsamor"}}, {"type": "node", "id": 1249313273, "lat": 40.0787369, "lon": 44.41034}, {"type": "node", "id": 1249313295, "lat": 40.077207, "lon": 44.4531253}, {"type": "node", "id": 1249313316, "lat": 40.055043, "lon": 44.4391317}, {"type": "node", "id": 1249313342, "lat": 40.0764216, "lon": 44.4318024}, {"type": "node", "id": 1249313345, "lat": 40.0605593, "lon": 44.4010111}, {"type": "node", "id": 1249313357, "lat": 40.0755087, "lon": 44.44783}, {"type": "node", "id": 1249313409, "lat": 40.0724516, "lon": 44.4246558}, {"type": "node", "id": 1249313411, "lat": 40.0591925, "lon": 44.4301927}, {"type": "node", "id": 1249313443, "lat": 40.0707482, "lon": 44.4033445}, {"type": "node", "id": 1249313455, "lat": 40.0760519, "lon": 44.4395768}, {"type": "node", "id": 1249313467, "lat": 40.0738164, "lon": 44.4489581}, {"type": "node", "id": 1249313586, "lat": 40.0603019, "lon": 44.3960506}, {"type": "node", "id": 1249313600, "lat": 40.0630751, "lon": 44.3957686}, {"type": "node", "id": 1249313614, "lat": 40.0737133, "lon": 44.4280516}, {"type": "node", "id": 1249313615, "lat": 40.0583067, "lon": 44.4267702}, {"type": "node", "id": 1249313619, "lat": 40.0766381, "lon": 44.440003}, {"type": "node", "id": 1249313627, "lat": 40.0556674, "lon": 44.4449792}, {"type": "node", "id": 1250040563, "lat": 40.0539773, "lon": 44.4412385}, {"type": "node", "id": 1360511789, "lat": 40.104513, "lon": 44.4917071}, {"type": "node", "id": 1360511805, "lat": 40.1034313, "lon": 44.4918704}, {"type": "node", "id": 1360511822, "lat": 40.1017545, "lon": 44.4909655}, {"type": "node", "id": 1360511830, "lat": 40.1014221, "lon": 44.4902749}, {"type": "node", "id": 1360511849, "lat": 40.1001231, "lon": 44.490696}, {"type": "node", "id": 1360511883, "lat": 40.1027196, "lon": 44.4908924}, {"type": "node", "id": 1360511918, "lat": 40.1005177, "lon": 44.4905841}, {"type": "node", "id": 1360511924, "lat": 40.1046577, "lon": 44.4916419}, {"type": "node", "id": 1360511945, "lat": 40.1037697, "lon": 44.4923459}, {"type": "node", "id": 1360511962, "lat": 40.1019974, "lon": 44.490929}, {"type": "node", "id": 1360511968, "lat": 40.1016478, "lon": 44.4908627}, {"type": "node", "id": 1360512015, "lat": 40.1030943, "lon": 44.4918698}, {"type": "node", "id": 1360512036, "lat": 40.1009573, "lon": 44.4901727}, {"type": "node", "id": 1360512059, "lat": 40.104241, "lon": 44.4923322}, {"type": "node", "id": 1360512078, "lat": 40.1023358, "lon": 44.4908459}, {"type": "node", "id": 1360529662, "lat": 40.0992436, "lon": 44.489574}, {"type": "node", "id": 1360529751, "lat": 40.0994455, "lon": 44.4898636}, {"type": "node", "id": 1360529844, "lat": 40.0998629, "lon": 44.4905272}, {"type": "node", "id": 1360529862, "lat": 40.0987428, "lon": 44.4893134}, {"type": "node", "id": 1381377065, "lat": 40.1935903, "lon": 44.4029328}, {"type": "node", "id": 1381377067, "lat": 40.175743, "lon": 44.4062644}, {"type": "node", "id": 1450662641, "lat": 40.229969, "lon": 44.4546477}, {"type": "node", "id": 1450662662, "lat": 40.2302278, "lon": 44.456404}, {"type": "node", "id": 1464069105, "lat": 40.1765208, "lon": 44.2758634}, {"type": "node", "id": 1464069111, "lat": 40.1734472, "lon": 44.2751229}, {"type": "node", "id": 1466987162, "lat": 40.1860606, "lon": 44.5946272}, {"type": "node", "id": 1535086679, "lat": 40.2233504, "lon": 44.4637139}, {"type": "node", "id": 1615944419, "lat": 40.1460909, "lon": 44.0265753}, {"type": "node", "id": 1615944425, "lat": 40.1463402, "lon": 44.0265204}, {"type": "node", "id": 1615944559, "lat": 40.1499717, "lon": 44.0193037}, {"type": "node", "id": 1615944577, "lat": 40.15091, "lon": 44.0188604}, {"type": "node", "id": 1616037410, "lat": 40.1410235, "lon": 44.0429237}, {"type": "node", "id": 1616037412, "lat": 40.1383488, "lon": 44.0544807}, {"type": "node", "id": 1616037414, "lat": 40.1439651, "lon": 44.035232}, {"type": "node", "id": 1616037418, "lat": 40.1406421, "lon": 44.0662825}, {"type": "node", "id": 1616037484, "lat": 40.1459959, "lon": 44.0796074}, {"type": "node", "id": 1616037626, "lat": 40.1496428, "lon": 44.0776931}, {"type": "node", "id": 1616037654, "lat": 40.1521999, "lon": 44.0180451}, {"type": "node", "id": 1616037726, "lat": 40.1521237, "lon": 44.0571605}, {"type": "node", "id": 1616037744, "lat": 40.1520064, "lon": 44.0653829}, {"type": "node", "id": 1616038415, "lat": 40.1607427, "lon": 44.0579649}, {"type": "node", "id": 1616038479, "lat": 40.1664912, "lon": 44.0126118}, {"type": "node", "id": 1616038519, "lat": 40.1647608, "lon": 44.0209443}, {"type": "node", "id": 1616038540, "lat": 40.1656274, "lon": 44.0592161}, {"type": "node", "id": 1616038548, "lat": 40.1683955, "lon": 44.0337325}, {"type": "node", "id": 1616038550, "lat": 40.1683691, "lon": 44.0245648}, {"type": "node", "id": 1616038552, "lat": 40.1701804, "lon": 44.0358786}, {"type": "node", "id": 1616038553, "lat": 40.170147, "lon": 44.0514529}, {"type": "node", "id": 1882445997, "lat": 40.1411796, "lon": 44.1235846}, {"type": "node", "id": 1882446000, "lat": 40.1427229, "lon": 44.1040815}, {"type": "node", "id": 1882446003, "lat": 40.1419858, "lon": 44.1066717}, {"type": "node", "id": 1882446007, "lat": 40.1392837, "lon": 44.1418072}, {"type": "node", "id": 1882446011, "lat": 40.1457939, "lon": 44.1038549}, {"type": "node", "id": 1882446014, "lat": 40.1502755, "lon": 44.1073099}, {"type": "node", "id": 1882446017, "lat": 40.1472019, "lon": 44.1223388}, {"type": "node", "id": 1882446020, "lat": 40.1523169, "lon": 44.1227142}, {"type": "node", "id": 1882446023, "lat": 40.1498548, "lon": 44.1151289}, {"type": "node", "id": 1882446027, "lat": 40.3065231, "lon": 44.4709142}, {"type": "node", "id": 1882446034, "lat": 40.3027928, "lon": 44.4776208}, {"type": "node", "id": 1882446037, "lat": 40.3105039, "lon": 44.4846443}, {"type": "node", "id": 1882446040, "lat": 40.3122627, "lon": 44.4699659}, {"type": "node", "id": 1882446044, "lat": 40.3139713, "lon": 44.4665983}, {"type": "node", "id": 1882446063, "lat": 40.3185511, "lon": 44.4947704}, {"type": "node", "id": 1882446067, "lat": 40.3190417, "lon": 44.4637791}, {"type": "node", "id": 1882446071, "lat": 40.3205398, "lon": 44.501726}, {"type": "node", "id": 1882446073, "lat": 40.3240389, "lon": 44.4663206}, {"type": "node", "id": 1882446076, "lat": 40.3281435, "lon": 44.5009316}, {"type": "node", "id": 1882446079, "lat": 40.3305143, "lon": 44.4809676}, {"type": "node", "id": 1882446082, "lat": 40.3309987, "lon": 44.470601}, {"type": "node", "id": 1882446085, "lat": 40.3329361, "lon": 44.4839438}, {"type": "node", "id": 1882446088, "lat": 40.3343636, "lon": 44.4987914}, {"type": "node", "id": 1882446091, "lat": 40.3387479, "lon": 44.4897959}, {"type": "node", "id": 1882446094, "lat": 40.3390283, "lon": 44.4941432}, {"type": "node", "id": 1883221514, "lat": 40.2702822, "lon": 44.33892}, {"type": "node", "id": 1883221515, "lat": 40.272741, "lon": 44.3557406}, {"type": "node", "id": 1883221516, "lat": 40.2723568, "lon": 44.3382606}, {"type": "node", "id": 1883221517, "lat": 40.2782276, "lon": 44.3588122}, {"type": "node", "id": 1883221519, "lat": 40.2853947, "lon": 44.3656344}, {"type": "node", "id": 1883221520, "lat": 40.2888838, "lon": 44.3377954}, {"type": "node", "id": 1883221521, "lat": 40.288782, "lon": 44.3731672}, {"type": "node", "id": 1883221522, "lat": 40.2905995, "lon": 44.3802473}, {"type": "node", "id": 1883221523, "lat": 40.291225, "lon": 44.3770304}, {"type": "node", "id": 1883221524, "lat": 40.2929326, "lon": 44.3395015}, {"type": "node", "id": 1883221526, "lat": 40.2987884, "lon": 44.3405442}, {"type": "node", "id": 1883221529, "lat": 40.3033425, "lon": 44.3468948}, {"type": "node", "id": 1883221534, "lat": 40.30611, "lon": 44.3475982}, {"type": "node", "id": 1883221536, "lat": 40.3090032, "lon": 44.3589552}, {"type": "node", "id": 1883221537, "lat": 40.3092412, "lon": 44.356519}, {"type": "node", "id": 1883221538, "lat": 40.3073273, "lon": 44.3505026}, {"type": "node", "id": 1883221539, "lat": 40.3090009, "lon": 44.3532927}, {"type": "node", "id": 1920837124, "lat": 40.0764751, "lon": 44.4539372}, {"type": "node", "id": 1982947314, "lat": 40.093989, "lon": 44.4925}, {"type": "node", "id": 1982947335, "lat": 40.0943406, "lon": 44.4925356}, {"type": "node", "id": 1982947935, "lat": 40.1051113, "lon": 44.4910662}, {"type": "node", "id": 1982947964, "lat": 40.1057477, "lon": 44.4813}, {"type": "node", "id": 1983420635, "lat": 40.1578807, "lon": 44.4364081}, {"type": "node", "id": 1988137572, "lat": 40.3361137, "lon": 44.4867859}, {"type": "node", "id": 2010489379, "lat": 40.308861, "lon": 44.3552003}, {"type": "node", "id": 2122692241, "lat": 40.147691, "lon": 44.4259275}, {"type": "node", "id": 2126233395, "lat": 40.1057466, "lon": 44.4811275}, {"type": "node", "id": 2127975154, "lat": 40.0783072, "lon": 44.4476078}, {"type": "node", "id": 2127975188, "lat": 40.0786322, "lon": 44.4454748}, {"type": "node", "id": 2127975214, "lat": 40.0784029, "lon": 44.4410677}, {"type": "node", "id": 2127975236, "lat": 40.0790269, "lon": 44.4441303}, {"type": "node", "id": 2154686801, "lat": 40.3370632, "lon": 44.4961014}, {"type": "node", "id": 2246946775, "lat": 40.0930561, "lon": 44.5652001}, {"type": "node", "id": 2247168773, "lat": 40.0725184, "lon": 44.4056826}, {"type": "node", "id": 2252713043, "lat": 40.1054206, "lon": 44.4858779}, {"type": "node", "id": 2266368536, "lat": 40.1963748, "lon": 44.4094606}, {"type": "node", "id": 2266368542, "lat": 40.1965721, "lon": 44.4089915}, {"type": "node", "id": 2266368544, "lat": 40.1973008, "lon": 44.4085171}, {"type": "node", "id": 2266368577, "lat": 40.1991325, "lon": 44.4074103}, {"type": "node", "id": 2286378829, "lat": 40.0579188, "lon": 44.4469908}, {"type": "node", "id": 2962211126, "lat": 40.1515744, "lon": 44.0185723}, {"type": "node", "id": 3514771568, "lat": 40.2756183, "lon": 44.33672}, {"type": "node", "id": 3822500362, "lat": 40.1839041, "lon": 44.5936783}, {"type": "node", "id": 4019886919, "lat": 40.2886849, "lon": 44.3613061, "tags": {"capital": "4", "is_in:country": "Armenia", "is_in:country_code": "AM", "is_in:municipality": "\u0531\u0577\u057f\u0561\u0580\u0561\u056f\u056b \u0570\u0561\u0574\u0561\u0575\u0576\u0584", "is_in:region": "\u0531\u0580\u0561\u0563\u0561\u056e\u0578\u057f\u0576\u056b \u0574\u0561\u0580\u0566", "name": "\u0531\u0577\u057f\u0561\u0580\u0561\u056f", "name:ar": "\u0622\u0634\u062a\u0627\u0631\u0627\u0643", "name:az": "\u018f\u015ft\u0259r\u0259k", "name:be": "\u0410\u0448\u0442\u0430\u0440\u0430\u043a", "name:bg": "\u0410\u0449\u0430\u0440\u0430\u043a", "name:ca": "Astarak", "name:ce": "\u0410\u0448\u0442\u0430\u0440\u0430\u043a", "name:ckb": "\u0626\u0627\u0634\u062a\u0627\u0631\u0627\u06a9", "name:cs": "A\u0161tarak", "name:de": "Aschtarak", "name:el": "\u0391\u03c3\u03c4\u03b1\u03c1\u03ac\u03ba", "name:en": "Ashtarak", "name:eo": "A\u015dtarako", "name:es": "Ashtarak", "name:et": "A\u0161tarak", "name:fa": "\u0622\u0634\u062a\u0627\u0631\u0627\u06a9", "name:fr": "Achtarak", "name:fy": "Asjtarak", "name:hu": "Astarak", "name:hy": "\u0531\u0577\u057f\u0561\u0580\u0561\u056f", "name:id": "Ashtarak", "name:it": "Ashtarak", "name:ja": "\u30a2\u30b7\u30e5\u30bf\u30e9\u30af", "name:ka": "\u10d0\u10e8\u10e2\u10d0\u10e0\u10d0\u10d9\u10d8", "name:ko": "\uc544\uc288\ud0c0\ub77c\ud06c", "name:ku": "A\u015ftarak", "name:lt": "A\u0161tarakas", "name:ml": "\u0d06\u0d37\u0d4d\u0d1f\u0d3e\u0d31\u0d3e\u0d15\u0d4d\u0d15\u0d4d", "name:ms": "Ashtarak", "name:nb": "Asjtarak", "name:nl": "Asjtarak", "name:os": "\u0410\u0448\u0442\u0430\u0440\u0430\u043a", "name:pa": "\u0a05\u0a38\u0a3c\u0a24\u0a3e\u0a30\u0a15", "name:pl": "Asztarak", "name:ps": "\u0627\u0634\u062a\u0627\u0631\u0627\u06a9", "name:ro": "A\u0219tarak", "name:ru": "\u0410\u0448\u0442\u0430\u0440\u0430\u043a", "name:sl": "A\u0161tarak", "name:sr": "\u0410\u0448\u0442\u0430\u0440\u0430\u043a", "name:sv": "Asjtarak", "name:sw": "Ashtarak", "name:tr": "A\u015ftarak", "name:uk": "\u0410\u0448\u0442\u0430\u0440\u0430\u043a", "name:ur": "\u0622\u0634\u062a\u0627\u0631\u0627\u06a9", "name:uz": "Ashtarak", "name:vi": "Ashtarak", "name:zh": "\u963f\u4ec0\u5854\u62c9\u514b", "place": "town", "population": "16630", "population:date": "2022-01-01", "source:population": "Armstat", "wikidata": "Q39510", "wikipedia": "en:Ashtarak"}}, {"type": "node", "id": 4077270022, "lat": 40.2739479, "lon": 44.3367603}, {"type": "node", "id": 4077270023, "lat": 40.2652106, "lon": 44.3411801}, {"type": "node", "id": 4077270024, "lat": 40.2663289, "lon": 44.3441303}, {"type": "node", "id": 4077270025, "lat": 40.2723056, "lon": 44.3545323}, {"type": "node", "id": 4117420542, "lat": 40.1517599, "lon": 44.0183382}, {"type": "node", "id": 4127553689, "lat": 40.1437983, "lon": 44.0279307}, {"type": "node", "id": 4132750276, "lat": 40.1448738, "lon": 44.0257187}, {"type": "node", "id": 4135392053, "lat": 40.1465508, "lon": 44.0257539}, {"type": "node", "id": 4135392065, "lat": 40.1470149, "lon": 44.0241084}, {"type": "node", "id": 4140058462, "lat": 40.1425683, "lon": 44.0396668}, {"type": "node", "id": 4140058463, "lat": 40.1432326, "lon": 44.0381862}, {"type": "node", "id": 4154858129, "lat": 40.1440882, "lon": 44.0307125}, {"type": "node", "id": 4253136729, "lat": 40.2254125, "lon": 44.4534254}, {"type": "node", "id": 4373206102, "lat": 40.2797683, "lon": 44.336451}, {"type": "node", "id": 4373206103, "lat": 40.2803555, "lon": 44.3365349}, {"type": "node", "id": 4373218889, "lat": 40.2766117, "lon": 44.3359926}, {"type": "node", "id": 4463141875, "lat": 40.1849601, "lon": 44.5780251}, {"type": "node", "id": 4463141876, "lat": 40.1836482, "lon": 44.5768772}, {"type": "node", "id": 4463141883, "lat": 40.1888646, "lon": 44.5875405}, {"type": "node", "id": 4548145051, "lat": 40.106824, "lon": 44.4692597}, {"type": "node", "id": 4607622587, "lat": 40.2223158, "lon": 44.4645423}, {"type": "node", "id": 4607622588, "lat": 40.2238161, "lon": 44.4581692}, {"type": "node", "id": 4607623089, "lat": 40.2244113, "lon": 44.4525041}, {"type": "node", "id": 4607796175, "lat": 40.2385148, "lon": 44.5354951}, {"type": "node", "id": 4607796176, "lat": 40.232719, "lon": 44.5266223}, {"type": "node", "id": 4607796178, "lat": 40.232055, "lon": 44.4840235}, {"type": "node", "id": 4607796179, "lat": 40.2279245, "lon": 44.4949553}, {"type": "node", "id": 4607796180, "lat": 40.2307954, "lon": 44.5001324}, {"type": "node", "id": 4607796181, "lat": 40.2271848, "lon": 44.5093567}, {"type": "node", "id": 4607796182, "lat": 40.2292288, "lon": 44.5132749}, {"type": "node", "id": 4607796183, "lat": 40.2297382, "lon": 44.5176195}, {"type": "node", "id": 4607812192, "lat": 40.2386832, "lon": 44.5612863}, {"type": "node", "id": 4607812194, "lat": 40.2204844, "lon": 44.5763292}, {"type": "node", "id": 4781263989, "lat": 40.2308138, "lon": 44.5619234}, {"type": "node", "id": 4781263990, "lat": 40.2301206, "lon": 44.5631678}, {"type": "node", "id": 4781263991, "lat": 40.2304045, "lon": 44.5643246}, {"type": "node", "id": 4781263992, "lat": 40.2271671, "lon": 44.5675805}, {"type": "node", "id": 4781263993, "lat": 40.2282102, "lon": 44.570212}, {"type": "node", "id": 4781263994, "lat": 40.2272299, "lon": 44.5732381}, {"type": "node", "id": 4781263995, "lat": 40.2266117, "lon": 44.5743342}, {"type": "node", "id": 4781263996, "lat": 40.2252953, "lon": 44.5751099}, {"type": "node", "id": 4795526398, "lat": 40.2213042, "lon": 44.5761351}, {"type": "node", "id": 5099920043, "lat": 40.162373, "lon": 44.430355}, {"type": "node", "id": 5163972834, "lat": 40.2246398, "lon": 44.5753081}, {"type": "node", "id": 5208641424, "lat": 40.2320732, "lon": 44.5611707}, {"type": "node", "id": 5208641425, "lat": 40.2371513, "lon": 44.5644396}, {"type": "node", "id": 5208641426, "lat": 40.2367131, "lon": 44.563002}, {"type": "node", "id": 5224779848, "lat": 40.1903503, "lon": 44.5887217}, {"type": "node", "id": 5246867042, "lat": 40.3160865, "lon": 44.3668163}, {"type": "node", "id": 5246867043, "lat": 40.3151211, "lon": 44.3666875}, {"type": "node", "id": 5246867044, "lat": 40.3145567, "lon": 44.3672025}, {"type": "node", "id": 5246867045, "lat": 40.3140904, "lon": 44.3684256}, {"type": "node", "id": 5246867046, "lat": 40.3134441, "lon": 44.3685436}, {"type": "node", "id": 5246867047, "lat": 40.3118079, "lon": 44.3672883}, {"type": "node", "id": 5246867048, "lat": 40.3102125, "lon": 44.366591}, {"type": "node", "id": 5246867050, "lat": 40.3089655, "lon": 44.3663792}, {"type": "node", "id": 5246867051, "lat": 40.3078092, "lon": 44.3683597}, {"type": "node", "id": 5246867052, "lat": 40.3073483, "lon": 44.369183}, {"type": "node", "id": 5246867053, "lat": 40.306796, "lon": 44.3699573}, {"type": "node", "id": 5246867054, "lat": 40.3063737, "lon": 44.3705846}, {"type": "node", "id": 5246867055, "lat": 40.3053281, "lon": 44.3715906}, {"type": "node", "id": 5246867056, "lat": 40.3045918, "lon": 44.3722665}, {"type": "node", "id": 5246867057, "lat": 40.3043054, "lon": 44.3728507}, {"type": "node", "id": 5246867058, "lat": 40.3043545, "lon": 44.3740153}, {"type": "node", "id": 5246867059, "lat": 40.3045427, "lon": 44.3744767}, {"type": "node", "id": 5246867060, "lat": 40.3051727, "lon": 44.375056}, {"type": "node", "id": 5251520601, "lat": 40.2207863, "lon": 44.5823574}, {"type": "node", "id": 5251664598, "lat": 40.2301884, "lon": 44.5649145}, {"type": "node", "id": 5257081248, "lat": 40.1650544, "lon": 44.274794}, {"type": "node", "id": 5257081249, "lat": 40.1671801, "lon": 44.2752277}, {"type": "node", "id": 5257081250, "lat": 40.1680143, "lon": 44.2753323}, {"type": "node", "id": 5257081251, "lat": 40.1696371, "lon": 44.2752426}, {"type": "node", "id": 5257081252, "lat": 40.170306, "lon": 44.2751821}, {"type": "node", "id": 5257081327, "lat": 40.1633781, "lon": 44.274292}, {"type": "node", "id": 5313133721, "lat": 40.2774203, "lon": 44.358102}, {"type": "node", "id": 5313133722, "lat": 40.2797233, "lon": 44.3589962}, {"type": "node", "id": 5466953739, "lat": 40.3130446, "lon": 44.4849408}, {"type": "node", "id": 5466953740, "lat": 40.3116027, "lon": 44.4859363}, {"type": "node", "id": 5466953741, "lat": 40.3084904, "lon": 44.4823981}, {"type": "node", "id": 5466953742, "lat": 40.3048337, "lon": 44.4781652}, {"type": "node", "id": 5466953743, "lat": 40.3009296, "lon": 44.4760235}, {"type": "node", "id": 5466953744, "lat": 40.3009497, "lon": 44.473143}, {"type": "node", "id": 5466953745, "lat": 40.30766, "lon": 44.4705732}, {"type": "node", "id": 5466953746, "lat": 40.3092195, "lon": 44.4698212}, {"type": "node", "id": 5581898145, "lat": 40.1516811, "lon": 44.1198653}, {"type": "node", "id": 5583760429, "lat": 40.139581, "lon": 44.1337108}, {"type": "node", "id": 5583760430, "lat": 40.1411558, "lon": 44.1285825}, {"type": "node", "id": 5583760431, "lat": 40.1459637, "lon": 44.1395506}, {"type": "node", "id": 5583760432, "lat": 40.1470008, "lon": 44.1247938}, {"type": "node", "id": 5657760338, "lat": 40.1429835, "lon": 44.4355498}, {"type": "node", "id": 5657760339, "lat": 40.1387684, "lon": 44.4333976}, {"type": "node", "id": 5668528808, "lat": 40.3011185, "lon": 44.3820207}, {"type": "node", "id": 5668528824, "lat": 40.3032641, "lon": 44.3763129}, {"type": "node", "id": 5668528825, "lat": 40.3022709, "lon": 44.3804885}, {"type": "node", "id": 5841544610, "lat": 40.1056227, "lon": 44.4562179}, {"type": "node", "id": 5841544611, "lat": 40.1046647, "lon": 44.4577573}, {"type": "node", "id": 5908007111, "lat": 40.1048937, "lon": 44.4918254}, {"type": "node", "id": 5908007112, "lat": 40.0951714, "lon": 44.4897812}, {"type": "node", "id": 5908007113, "lat": 40.0952864, "lon": 44.4904733}, {"type": "node", "id": 5908007114, "lat": 40.0959379, "lon": 44.4918961}, {"type": "node", "id": 5908007115, "lat": 40.0962379, "lon": 44.4925879}, {"type": "node", "id": 5908007116, "lat": 40.0964066, "lon": 44.4930295}, {"type": "node", "id": 5908007117, "lat": 40.0963199, "lon": 44.49323}, {"type": "node", "id": 5908007118, "lat": 40.0957287, "lon": 44.4927924}, {"type": "node", "id": 5908007119, "lat": 40.0950944, "lon": 44.4921935}, {"type": "node", "id": 5908007120, "lat": 40.0948525, "lon": 44.4921218}, {"type": "node", "id": 5908007121, "lat": 40.0905385, "lon": 44.4895054}, {"type": "node", "id": 5908007122, "lat": 40.0870544, "lon": 44.4911214}, {"type": "node", "id": 5908007124, "lat": 40.0884191, "lon": 44.5068763}, {"type": "node", "id": 5908007125, "lat": 40.0843706, "lon": 44.5076401}, {"type": "node", "id": 5908007126, "lat": 40.0803759, "lon": 44.5043992}, {"type": "node", "id": 5908007128, "lat": 40.0753369, "lon": 44.5054875}, {"type": "node", "id": 5908007130, "lat": 40.0717424, "lon": 44.5206055}, {"type": "node", "id": 5908007133, "lat": 40.0719668, "lon": 44.5395533}, {"type": "node", "id": 5942093425, "lat": 40.1517106, "lon": 44.0185972}, {"type": "node", "id": 6029481338, "lat": 40.1392652, "lon": 44.4334136}, {"type": "node", "id": 6240014903, "lat": 40.2292165, "lon": 44.4912829}, {"type": "node", "id": 6294221785, "lat": 40.23305, "lon": 44.5586701}, {"type": "node", "id": 6294221786, "lat": 40.2329183, "lon": 44.5593606}, {"type": "node", "id": 6443201121, "lat": 40.2293297, "lon": 44.491025}, {"type": "node", "id": 6452061556, "lat": 40.1999858, "lon": 44.4066498}, {"type": "node", "id": 6452061557, "lat": 40.200075, "lon": 44.4064693}, {"type": "node", "id": 6452062358, "lat": 40.200364, "lon": 44.4061388}, {"type": "node", "id": 6452062359, "lat": 40.2006316, "lon": 44.4060057}, {"type": "node", "id": 6452062365, "lat": 40.1998115, "lon": 44.4072013}, {"type": "node", "id": 6452062366, "lat": 40.1995984, "lon": 44.4070681}, {"type": "node", "id": 6452062367, "lat": 40.1995562, "lon": 44.4070652}, {"type": "node", "id": 6865948480, "lat": 40.2294619, "lon": 44.5061624}, {"type": "node", "id": 6956627443, "lat": 40.2291138, "lon": 44.5659247}, {"type": "node", "id": 7301965083, "lat": 40.1454579, "lon": 44.378922}, {"type": "node", "id": 7301965084, "lat": 40.145449, "lon": 44.3772762}, {"type": "node", "id": 7301965085, "lat": 40.1454791, "lon": 44.3779275}, {"type": "node", "id": 7301965086, "lat": 40.1455135, "lon": 44.3783953}, {"type": "node", "id": 7843059334, "lat": 40.1408629, "lon": 44.0676606}, {"type": "node", "id": 7843059335, "lat": 40.1409241, "lon": 44.06802}, {"type": "node", "id": 8261702383, "lat": 40.1207041, "lon": 44.4300081}, {"type": "node", "id": 8261702384, "lat": 40.1185335, "lon": 44.4354701}, {"type": "node", "id": 8302850916, "lat": 40.0789383, "lon": 44.5062651}, {"type": "node", "id": 8302855917, "lat": 40.0797851, "lon": 44.5058112}, {"type": "node", "id": 8302855918, "lat": 40.0783846, "lon": 44.5061278}, {"type": "node", "id": 8302855920, "lat": 40.0729534, "lon": 44.5031494}, {"type": "node", "id": 8302855921, "lat": 40.0704491, "lon": 44.5094777}, {"type": "node", "id": 8333825385, "lat": 40.0604729, "lon": 44.4536277}, {"type": "node", "id": 8349180046, "lat": 40.0868016, "lon": 44.5069125}, {"type": "node", "id": 8349180049, "lat": 40.0858966, "lon": 44.508342}, {"type": "node", "id": 8349180050, "lat": 40.0852823, "lon": 44.5075312}, {"type": "node", "id": 8349180051, "lat": 40.0855959, "lon": 44.5079798}, {"type": "node", "id": 8349180052, "lat": 40.0813373, "lon": 44.5053967}, {"type": "node", "id": 8384269664, "lat": 40.1597086, "lon": 44.0181703}, {"type": "node", "id": 8384269665, "lat": 40.1701747, "lon": 44.0385387}, {"type": "node", "id": 8461225901, "lat": 40.1436358, "lon": 44.6167129}, {"type": "node", "id": 8463676295, "lat": 40.3110427, "lon": 44.3666704}, {"type": "node", "id": 8485848432, "lat": 40.0598472, "lon": 44.4533237}, {"type": "node", "id": 8528351855, "lat": 40.2233327, "lon": 44.4113549}, {"type": "node", "id": 8528351858, "lat": 40.1966034, "lon": 44.4089722}, {"type": "node", "id": 8528838592, "lat": 40.2701413, "lon": 44.3507263}, {"type": "node", "id": 8528838593, "lat": 40.2700388, "lon": 44.3515154}, {"type": "node", "id": 8528838594, "lat": 40.2695714, "lon": 44.3391296}, {"type": "node", "id": 8528838600, "lat": 40.2960602, "lon": 44.38514}, {"type": "node", "id": 8528838601, "lat": 40.2922709, "lon": 44.3817621}, {"type": "node", "id": 8594775130, "lat": 40.2920372, "lon": 44.3819902}, {"type": "node", "id": 8594775131, "lat": 40.2917037, "lon": 44.3826059}, {"type": "node", "id": 8594775132, "lat": 40.2912179, "lon": 44.383609}, {"type": "node", "id": 8594775133, "lat": 40.2911438, "lon": 44.3842268}, {"type": "node", "id": 8594775134, "lat": 40.2911961, "lon": 44.3845777}, {"type": "node", "id": 8594775135, "lat": 40.2912478, "lon": 44.3849844}, {"type": "node", "id": 8594775136, "lat": 40.2913371, "lon": 44.385385}, {"type": "node", "id": 8594783547, "lat": 40.0752467, "lon": 44.407748}, {"type": "node", "id": 8594783548, "lat": 40.0715509, "lon": 44.4045233}, {"type": "node", "id": 8594783549, "lat": 40.0680921, "lon": 44.3972594}, {"type": "node", "id": 8638116276, "lat": 40.1386907, "lon": 44.0526876}, {"type": "node", "id": 8639638530, "lat": 40.1453064, "lon": 44.4357165}, {"type": "node", "id": 8639638531, "lat": 40.1450485, "lon": 44.435448}, {"type": "node", "id": 8639638532, "lat": 40.1448887, "lon": 44.4352606}, {"type": "node", "id": 8639638533, "lat": 40.1438962, "lon": 44.4354369}, {"type": "node", "id": 8639638534, "lat": 40.1447275, "lon": 44.4351615}, {"type": "node", "id": 8639638535, "lat": 40.14186, "lon": 44.4348994}, {"type": "node", "id": 8736227779, "lat": 40.2900415, "lon": 44.3821767}, {"type": "node", "id": 8736227780, "lat": 40.2895003, "lon": 44.3832278}, {"type": "node", "id": 8736227781, "lat": 40.2909979, "lon": 44.3851696}, {"type": "node", "id": 8736227782, "lat": 40.291167, "lon": 44.385527}, {"type": "node", "id": 8736227783, "lat": 40.2892226, "lon": 44.3837578}, {"type": "node", "id": 8736227784, "lat": 40.2889025, "lon": 44.384364}, {"type": "node", "id": 8736227785, "lat": 40.2887782, "lon": 44.3845734}, {"type": "node", "id": 8736227786, "lat": 40.2889273, "lon": 44.3849187}, {"type": "node", "id": 8736227787, "lat": 40.2893078, "lon": 44.3843888}, {"type": "node", "id": 8736227788, "lat": 40.2895474, "lon": 44.3841559}, {"type": "node", "id": 8736227789, "lat": 40.2899208, "lon": 44.3839842}, {"type": "node", "id": 8736227790, "lat": 40.2902793, "lon": 44.3839948}, {"type": "node", "id": 8736227791, "lat": 40.2905977, "lon": 44.384263}, {"type": "node", "id": 8736227792, "lat": 40.309379, "lon": 44.3589892}, {"type": "node", "id": 8736227793, "lat": 40.30951, "lon": 44.3603698}, {"type": "node", "id": 8736227794, "lat": 40.3098461, "lon": 44.361359}, {"type": "node", "id": 8736227795, "lat": 40.310292, "lon": 44.3617789}, {"type": "node", "id": 8736227796, "lat": 40.310928, "lon": 44.3620916}, {"type": "node", "id": 8736227797, "lat": 40.3116733, "lon": 44.36236}, {"type": "node", "id": 8736227798, "lat": 40.3136127, "lon": 44.3606043}, {"type": "node", "id": 8736227799, "lat": 40.3149599, "lon": 44.3612116}, {"type": "node", "id": 8736227800, "lat": 40.316558, "lon": 44.3617367}, {"type": "node", "id": 8736227801, "lat": 40.3168248, "lon": 44.3624562}, {"type": "node", "id": 8736227802, "lat": 40.3172976, "lon": 44.3640204}, {"type": "node", "id": 8736227803, "lat": 40.317167, "lon": 44.3652626}, {"type": "node", "id": 8736227825, "lat": 40.3161059, "lon": 44.3612666}, {"type": "node", "id": 8930959889, "lat": 40.1481506, "lon": 44.0212974}, {"type": "node", "id": 8930959892, "lat": 40.1431475, "lon": 44.0293042}, {"type": "node", "id": 8930959893, "lat": 40.1430751, "lon": 44.0296044}, {"type": "node", "id": 8930959894, "lat": 40.1441032, "lon": 44.0362317}, {"type": "node", "id": 8930959895, "lat": 40.1436185, "lon": 44.0373184}, {"type": "node", "id": 8930959896, "lat": 40.1429391, "lon": 44.0388416}, {"type": "node", "id": 8932146810, "lat": 40.0948775, "lon": 44.5706195}, {"type": "node", "id": 8932146811, "lat": 40.0997788, "lon": 44.5740166}, {"type": "node", "id": 8932146812, "lat": 40.0983372, "lon": 44.5726093}, {"type": "node", "id": 8932177018, "lat": 40.1023866, "lon": 44.580276}, {"type": "node", "id": 8932177020, "lat": 40.0907387, "lon": 44.5629887}, {"type": "node", "id": 8935040624, "lat": 40.1093975, "lon": 44.4447476}, {"type": "node", "id": 8935040625, "lat": 40.1092369, "lon": 44.4490571}, {"type": "node", "id": 8935040626, "lat": 40.1091239, "lon": 44.4508891}, {"type": "node", "id": 8935040627, "lat": 40.1092761, "lon": 44.4526613}, {"type": "node", "id": 8935040628, "lat": 40.1092378, "lon": 44.4537962}, {"type": "node", "id": 8935040631, "lat": 40.1085938, "lon": 44.4591386}, {"type": "node", "id": 8935040632, "lat": 40.1090196, "lon": 44.4569035}, {"type": "node", "id": 8935040633, "lat": 40.1091328, "lon": 44.4550789}, {"type": "node", "id": 8935040634, "lat": 40.1045711, "lon": 44.4500088}, {"type": "node", "id": 8935040635, "lat": 40.104157, "lon": 44.4508606}, {"type": "node", "id": 9028673336, "lat": 40.1539711, "lon": 44.0180442}, {"type": "node", "id": 9045569732, "lat": 40.1458495, "lon": 44.4362539}, {"type": "node", "id": 9045569733, "lat": 40.1462646, "lon": 44.4369916}, {"type": "node", "id": 9045569762, "lat": 40.159107, "lon": 44.4384019}, {"type": "node", "id": 9045569764, "lat": 40.1586881, "lon": 44.4373}, {"type": "node", "id": 9083928029, "lat": 40.0749258, "lon": 44.4198159}, {"type": "node", "id": 9141009872, "lat": 40.1681492, "lon": 44.4218967}, {"type": "node", "id": 9141047406, "lat": 40.1687007, "lon": 44.4278424}, {"type": "node", "id": 9141047407, "lat": 40.1693869, "lon": 44.4271463}, {"type": "node", "id": 9141047408, "lat": 40.1675769, "lon": 44.4205025}, {"type": "node", "id": 9141047409, "lat": 40.1712031, "lon": 44.4100305}, {"type": "node", "id": 9141047410, "lat": 40.1956455, "lon": 44.4093337}, {"type": "node", "id": 9141238021, "lat": 40.0844647, "lon": 44.5577666}, {"type": "node", "id": 9141238022, "lat": 40.0820477, "lon": 44.554157}, {"type": "node", "id": 9141238023, "lat": 40.075455, "lon": 44.5447286}, {"type": "node", "id": 9141238024, "lat": 40.0674771, "lon": 44.5289145}, {"type": "node", "id": 9141238025, "lat": 40.0699077, "lon": 44.5269466}, {"type": "node", "id": 9141576725, "lat": 40.1650081, "lon": 44.5689808}, {"type": "node", "id": 9141576729, "lat": 40.1764856, "lon": 44.5867416}, {"type": "node", "id": 9141576730, "lat": 40.1848681, "lon": 44.5797244}, {"type": "node", "id": 9141576731, "lat": 40.1881667, "lon": 44.5860824}, {"type": "node", "id": 9141576732, "lat": 40.1894503, "lon": 44.590269}, {"type": "node", "id": 9150999733, "lat": 40.1634706, "lon": 44.4296905}, {"type": "node", "id": 9152244026, "lat": 40.0692937, "lon": 44.5155021}, {"type": "node", "id": 9165104367, "lat": 40.2266773, "lon": 44.4533203}, {"type": "node", "id": 9165104368, "lat": 40.2290686, "lon": 44.4591668}, {"type": "node", "id": 9165104369, "lat": 40.2239735, "lon": 44.4621599}, {"type": "node", "id": 9165104371, "lat": 40.2229762, "lon": 44.4681541}, {"type": "node", "id": 9165104372, "lat": 40.2223836, "lon": 44.4702998}, {"type": "node", "id": 9165104373, "lat": 40.2214031, "lon": 44.4698437}, {"type": "node", "id": 9165104374, "lat": 40.220378, "lon": 44.4749078}, {"type": "node", "id": 9165104375, "lat": 40.220819, "lon": 44.4749656}, {"type": "node", "id": 9165104376, "lat": 40.2222259, "lon": 44.4754249}, {"type": "node", "id": 9165104378, "lat": 40.2232045, "lon": 44.4749549}, {"type": "node", "id": 9165104379, "lat": 40.2250606, "lon": 44.4783582}, {"type": "node", "id": 9165104380, "lat": 40.2256834, "lon": 44.4795409}, {"type": "node", "id": 9165104381, "lat": 40.2259886, "lon": 44.4798891}, {"type": "node", "id": 9165104382, "lat": 40.2265379, "lon": 44.4796266}, {"type": "node", "id": 9165104383, "lat": 40.2270805, "lon": 44.4790826}, {"type": "node", "id": 9165104384, "lat": 40.2275085, "lon": 44.478886}, {"type": "node", "id": 9165104385, "lat": 40.2277276, "lon": 44.479082}, {"type": "node", "id": 9165104386, "lat": 40.2280478, "lon": 44.4819533}, {"type": "node", "id": 9165104387, "lat": 40.2290602, "lon": 44.4832426}, {"type": "node", "id": 9165104388, "lat": 40.2292944, "lon": 44.4836849}, {"type": "node", "id": 9165104389, "lat": 40.2322729, "lon": 44.4845622}, {"type": "node", "id": 9165104390, "lat": 40.2322927, "lon": 44.4853986}, {"type": "node", "id": 9165104391, "lat": 40.2324167, "lon": 44.4860768}, {"type": "node", "id": 9165104392, "lat": 40.2329646, "lon": 44.4864649}, {"type": "node", "id": 9165104393, "lat": 40.2332478, "lon": 44.4870658}, {"type": "node", "id": 9165104394, "lat": 40.2333675, "lon": 44.4877577}, {"type": "node", "id": 9165104395, "lat": 40.2334066, "lon": 44.4883924}, {"type": "node", "id": 9165104396, "lat": 40.2332818, "lon": 44.4889264}, {"type": "node", "id": 9165104397, "lat": 40.2330081, "lon": 44.4894081}, {"type": "node", "id": 9165104398, "lat": 40.232741, "lon": 44.4900148}, {"type": "node", "id": 9165104399, "lat": 40.2324185, "lon": 44.490299}, {"type": "node", "id": 9165104400, "lat": 40.2320882, "lon": 44.490481}, {"type": "node", "id": 9165104401, "lat": 40.2316589, "lon": 44.4904607}, {"type": "node", "id": 9165104402, "lat": 40.2309283, "lon": 44.4903562}, {"type": "node", "id": 9165104403, "lat": 40.2296052, "lon": 44.4907095}, {"type": "node", "id": 9165104404, "lat": 40.2290841, "lon": 44.492288}, {"type": "node", "id": 9165104405, "lat": 40.2272038, "lon": 44.498721}, {"type": "node", "id": 9165104406, "lat": 40.2257372, "lon": 44.5015616}, {"type": "node", "id": 9165104407, "lat": 40.2269663, "lon": 44.5024532}, {"type": "node", "id": 9165104408, "lat": 40.228166, "lon": 44.4986319}, {"type": "node", "id": 9165104409, "lat": 40.2292556, "lon": 44.4990132}, {"type": "node", "id": 9165104410, "lat": 40.2283892, "lon": 44.5096654}, {"type": "node", "id": 9165104411, "lat": 40.2269029, "lon": 44.5125196}, {"type": "node", "id": 9165104412, "lat": 40.2283918, "lon": 44.5129258}, {"type": "node", "id": 9182050490, "lat": 40.1896509, "lon": 44.5891743}, {"type": "node", "id": 9182050494, "lat": 40.187649, "lon": 44.5990487}, {"type": "node", "id": 9182050497, "lat": 40.1880235, "lon": 44.5974235}, {"type": "node", "id": 9182050500, "lat": 40.1844187, "lon": 44.5951703}, {"type": "node", "id": 9182050507, "lat": 40.1888718, "lon": 44.5898532}, {"type": "node", "id": 9182423759, "lat": 40.2287548, "lon": 44.4541599}, {"type": "node", "id": 9182423809, "lat": 40.2284997, "lon": 44.5093046}, {"type": "node", "id": 9182687258, "lat": 40.0685969, "lon": 44.5367315}, {"type": "node", "id": 9182687259, "lat": 40.0658518, "lon": 44.5302956}, {"type": "node", "id": 9182844595, "lat": 40.238118, "lon": 44.5642151}, {"type": "node", "id": 9182872953, "lat": 40.1455845, "lon": 44.401511}, {"type": "node", "id": 9182872954, "lat": 40.1456741, "lon": 44.4234895}, {"type": "node", "id": 9182872955, "lat": 40.1459625, "lon": 44.4238587}, {"type": "node", "id": 9182872956, "lat": 40.1462992, "lon": 44.4238631}, {"type": "node", "id": 9182872957, "lat": 40.1468258, "lon": 44.4251864}, {"type": "node", "id": 9182872958, "lat": 40.1470988, "lon": 44.4258639}, {"type": "node", "id": 9182872959, "lat": 40.1482877, "lon": 44.4253364}, {"type": "node", "id": 9182872960, "lat": 40.1486375, "lon": 44.4219517}, {"type": "node", "id": 9182972623, "lat": 40.1543797, "lon": 44.3987488}, {"type": "node", "id": 9182972624, "lat": 40.1544699, "lon": 44.3985271}, {"type": "node", "id": 9182972625, "lat": 40.1545414, "lon": 44.3981208}, {"type": "node", "id": 9182972626, "lat": 40.1545681, "lon": 44.3978449}, {"type": "node", "id": 9182972627, "lat": 40.1545269, "lon": 44.3971628}, {"type": "node", "id": 9182972628, "lat": 40.1545636, "lon": 44.3974956}, {"type": "node", "id": 9182972629, "lat": 40.1544414, "lon": 44.3967415}, {"type": "node", "id": 9182972630, "lat": 40.154258, "lon": 44.3961847}, {"type": "node", "id": 9182972631, "lat": 40.1540151, "lon": 44.3957546}, {"type": "node", "id": 9182972632, "lat": 40.1536855, "lon": 44.3953477}, {"type": "node", "id": 9182972633, "lat": 40.1531986, "lon": 44.3949403}, {"type": "node", "id": 9182972634, "lat": 40.1524292, "lon": 44.3946502}, {"type": "node", "id": 9182972635, "lat": 40.1520872, "lon": 44.3946254}, {"type": "node", "id": 9182972637, "lat": 40.152089, "lon": 44.3941031}, {"type": "node", "id": 9182972638, "lat": 40.1509292, "lon": 44.3936374}, {"type": "node", "id": 9182972639, "lat": 40.1503171, "lon": 44.3927479}, {"type": "node", "id": 9182972640, "lat": 40.1502679, "lon": 44.3831954}, {"type": "node", "id": 9182972641, "lat": 40.1486199, "lon": 44.3807065}, {"type": "node", "id": 9182972646, "lat": 40.1467424, "lon": 44.3666532}, {"type": "node", "id": 9182972647, "lat": 40.1454449, "lon": 44.367161}, {"type": "node", "id": 9182972648, "lat": 40.1455024, "lon": 44.3781182}, {"type": "node", "id": 9182972649, "lat": 40.1454782, "lon": 44.3788302}, {"type": "node", "id": 9182972650, "lat": 40.145355, "lon": 44.3793883}, {"type": "node", "id": 9186308366, "lat": 40.2295787, "lon": 44.5137935}, {"type": "node", "id": 9186308367, "lat": 40.2297603, "lon": 44.5148369}, {"type": "node", "id": 9186308368, "lat": 40.2297775, "lon": 44.5156814}, {"type": "node", "id": 9186308369, "lat": 40.2301407, "lon": 44.5165448}, {"type": "node", "id": 9186308370, "lat": 40.2301108, "lon": 44.5170111}, {"type": "node", "id": 9186308371, "lat": 40.2299307, "lon": 44.5174615}, {"type": "node", "id": 9186308372, "lat": 40.2294838, "lon": 44.5182351}, {"type": "node", "id": 9186308373, "lat": 40.2290378, "lon": 44.5198265}, {"type": "node", "id": 9186308374, "lat": 40.2288193, "lon": 44.5205782}, {"type": "node", "id": 9186308375, "lat": 40.2285032, "lon": 44.520992}, {"type": "node", "id": 9186308376, "lat": 40.2283712, "lon": 44.5213434}, {"type": "node", "id": 9186308377, "lat": 40.2283885, "lon": 44.5211586}, {"type": "node", "id": 9186308378, "lat": 40.2284578, "lon": 44.5216591}, {"type": "node", "id": 9186308379, "lat": 40.2287411, "lon": 44.5220008}, {"type": "node", "id": 9186308380, "lat": 40.2294179, "lon": 44.5225592}, {"type": "node", "id": 9186308381, "lat": 40.2300911, "lon": 44.5235888}, {"type": "node", "id": 9186308382, "lat": 40.2303618, "lon": 44.5241731}, {"type": "node", "id": 9186308383, "lat": 40.2297823, "lon": 44.5230467}, {"type": "node", "id": 9186308384, "lat": 40.230753, "lon": 44.5244976}, {"type": "node", "id": 9186308385, "lat": 40.2309532, "lon": 44.5246261}, {"type": "node", "id": 9186308386, "lat": 40.2315024, "lon": 44.5248086}, {"type": "node", "id": 9186308387, "lat": 40.2319151, "lon": 44.5251662}, {"type": "node", "id": 9186308388, "lat": 40.2323954, "lon": 44.5253463}, {"type": "node", "id": 9186308389, "lat": 40.2327778, "lon": 44.5256323}, {"type": "node", "id": 9186308390, "lat": 40.2329149, "lon": 44.5261315}, {"type": "node", "id": 9186308391, "lat": 40.232903, "lon": 44.5263188}, {"type": "node", "id": 9186308392, "lat": 40.2324676, "lon": 44.527017}, {"type": "node", "id": 9186308393, "lat": 40.2322834, "lon": 44.5273571}, {"type": "node", "id": 9186308394, "lat": 40.2322217, "lon": 44.5277831}, {"type": "node", "id": 9186308395, "lat": 40.2326654, "lon": 44.5284311}, {"type": "node", "id": 9186308396, "lat": 40.2336827, "lon": 44.5293748}, {"type": "node", "id": 9186308397, "lat": 40.2331741, "lon": 44.528903}, {"type": "node", "id": 9186308398, "lat": 40.2344606, "lon": 44.5310783}, {"type": "node", "id": 9186308399, "lat": 40.2353341, "lon": 44.5321714}, {"type": "node", "id": 9186308400, "lat": 40.2347906, "lon": 44.5315562}, {"type": "node", "id": 9186308401, "lat": 40.2355006, "lon": 44.5324171}, {"type": "node", "id": 9186308402, "lat": 40.2358554, "lon": 44.5331764}, {"type": "node", "id": 9186308403, "lat": 40.2361322, "lon": 44.5336444}, {"type": "node", "id": 9186308404, "lat": 40.236511, "lon": 44.53371}, {"type": "node", "id": 9186308405, "lat": 40.2367713, "lon": 44.5338115}, {"type": "node", "id": 9186308406, "lat": 40.2373287, "lon": 44.5343523}, {"type": "node", "id": 9186308407, "lat": 40.2376352, "lon": 44.5348377}, {"type": "node", "id": 9186308408, "lat": 40.2376938, "lon": 44.5353358}, {"type": "node", "id": 9186308409, "lat": 40.2378445, "lon": 44.5355505}, {"type": "node", "id": 9186308410, "lat": 40.2387295, "lon": 44.5357601}, {"type": "node", "id": 9186308411, "lat": 40.2387165, "lon": 44.5373673}, {"type": "node", "id": 9186308412, "lat": 40.2390125, "lon": 44.5380257}, {"type": "node", "id": 9186308413, "lat": 40.2397528, "lon": 44.5388855}, {"type": "node", "id": 9186308414, "lat": 40.2397419, "lon": 44.5393472}, {"type": "node", "id": 9186308415, "lat": 40.2398103, "lon": 44.5398518}, {"type": "node", "id": 9186308416, "lat": 40.2399688, "lon": 44.5400762}, {"type": "node", "id": 9186315817, "lat": 40.2401042, "lon": 44.5400759}, {"type": "node", "id": 9186315818, "lat": 40.2404843, "lon": 44.5404638}, {"type": "node", "id": 9186315819, "lat": 40.2404322, "lon": 44.5413406}, {"type": "node", "id": 9186315820, "lat": 40.2404952, "lon": 44.5419982}, {"type": "node", "id": 9186315821, "lat": 40.2404973, "lon": 44.5442354}, {"type": "node", "id": 9186315822, "lat": 40.239279, "lon": 44.5449354}, {"type": "node", "id": 9186315823, "lat": 40.2361178, "lon": 44.5466347}, {"type": "node", "id": 9186315824, "lat": 40.2367932, "lon": 44.5491338}, {"type": "node", "id": 9186315825, "lat": 40.2364553, "lon": 44.5480815}, {"type": "node", "id": 9186315826, "lat": 40.2373437, "lon": 44.5498752}, {"type": "node", "id": 9186315827, "lat": 40.2371396, "lon": 44.5512924}, {"type": "node", "id": 9186315828, "lat": 40.2374786, "lon": 44.5535292}, {"type": "node", "id": 9186315829, "lat": 40.238094, "lon": 44.5548435}, {"type": "node", "id": 9186315830, "lat": 40.238046, "lon": 44.55615}, {"type": "node", "id": 9186315831, "lat": 40.2381741, "lon": 44.5571549}, {"type": "node", "id": 9186315832, "lat": 40.2381693, "lon": 44.5578951}, {"type": "node", "id": 9186315833, "lat": 40.2384152, "lon": 44.5585472}, {"type": "node", "id": 9186315834, "lat": 40.2388486, "lon": 44.5592052}, {"type": "node", "id": 9186315835, "lat": 40.239753, "lon": 44.5602466}, {"type": "node", "id": 9186315836, "lat": 40.2393008, "lon": 44.5597259}, {"type": "node", "id": 9186315837, "lat": 40.2400215, "lon": 44.5609207}, {"type": "node", "id": 9186315838, "lat": 40.240925, "lon": 44.5618912}, {"type": "node", "id": 9186315839, "lat": 40.2414801, "lon": 44.5625874}, {"type": "node", "id": 9186315840, "lat": 40.2417737, "lon": 44.5632322}, {"type": "node", "id": 9186315841, "lat": 40.2402242, "lon": 44.5625173}, {"type": "node", "id": 9186315842, "lat": 40.2373712, "lon": 44.5649156}, {"type": "node", "id": 9186315843, "lat": 40.2376272, "lon": 44.5650624}, {"type": "node", "id": 9186315844, "lat": 40.2378468, "lon": 44.5650534}, {"type": "node", "id": 9186315845, "lat": 40.2379302, "lon": 44.5649937}, {"type": "node", "id": 9186315846, "lat": 40.2380691, "lon": 44.5646323}, {"type": "node", "id": 9186387483, "lat": 40.2206033, "lon": 44.5831332}, {"type": "node", "id": 9186387488, "lat": 40.2210917, "lon": 44.5845665}, {"type": "node", "id": 9186387490, "lat": 40.2192259, "lon": 44.5872308}, {"type": "node", "id": 9186387495, "lat": 40.2176036, "lon": 44.5877747}, {"type": "node", "id": 9186387497, "lat": 40.2182205, "lon": 44.5875497}, {"type": "node", "id": 9186387500, "lat": 40.2175341, "lon": 44.5878414}, {"type": "node", "id": 9186387501, "lat": 40.2171089, "lon": 44.5880709}, {"type": "node", "id": 9186387502, "lat": 40.2173377, "lon": 44.5879621}, {"type": "node", "id": 9186387503, "lat": 40.2169466, "lon": 44.5879692}, {"type": "node", "id": 9186387504, "lat": 40.2163969, "lon": 44.5872295}, {"type": "node", "id": 9186387505, "lat": 40.2166661, "lon": 44.5876728}, {"type": "node", "id": 9186387506, "lat": 40.2161794, "lon": 44.5869073}, {"type": "node", "id": 9186387507, "lat": 40.2159597, "lon": 44.5866546}, {"type": "node", "id": 9186387508, "lat": 40.2155243, "lon": 44.5863244}, {"type": "node", "id": 9186387509, "lat": 40.2151886, "lon": 44.5861059}, {"type": "node", "id": 9186387510, "lat": 40.2143152, "lon": 44.5855791}, {"type": "node", "id": 9186387511, "lat": 40.2138981, "lon": 44.585176}, {"type": "node", "id": 9186387512, "lat": 40.213503, "lon": 44.5846662}, {"type": "node", "id": 9186387513, "lat": 40.2127887, "lon": 44.5837979}, {"type": "node", "id": 9186387514, "lat": 40.2126314, "lon": 44.5836524}, {"type": "node", "id": 9186387516, "lat": 40.2089093, "lon": 44.5873971}, {"type": "node", "id": 9186387706, "lat": 40.1750505, "lon": 44.5840028}, {"type": "node", "id": 9186387707, "lat": 40.1729421, "lon": 44.5825675}, {"type": "node", "id": 9186387708, "lat": 40.1685435, "lon": 44.5774841}, {"type": "node", "id": 9186387709, "lat": 40.1666975, "lon": 44.5734214}, {"type": "node", "id": 9186387710, "lat": 40.1647807, "lon": 44.5748226}, {"type": "node", "id": 9186387711, "lat": 40.1646675, "lon": 44.5688024}, {"type": "node", "id": 9186387712, "lat": 40.1592617, "lon": 44.5679293}, {"type": "node", "id": 9186387713, "lat": 40.152425, "lon": 44.5645765}, {"type": "node", "id": 9186387714, "lat": 40.1525703, "lon": 44.5645296}, {"type": "node", "id": 9186387715, "lat": 40.1569511, "lon": 44.5681181}, {"type": "node", "id": 9186387716, "lat": 40.1548171, "lon": 44.5671655}, {"type": "node", "id": 9186389017, "lat": 40.2081169, "lon": 44.5851338}, {"type": "node", "id": 9186389027, "lat": 40.1935578, "lon": 44.5873264}, {"type": "node", "id": 9186389029, "lat": 40.1945415, "lon": 44.5960383}, {"type": "node", "id": 9186389030, "lat": 40.1947711, "lon": 44.5980326}, {"type": "node", "id": 9186389031, "lat": 40.1947551, "lon": 44.6006494}, {"type": "node", "id": 9186389032, "lat": 40.1953062, "lon": 44.6041057}, {"type": "node", "id": 9186389033, "lat": 40.1943896, "lon": 44.6044439}, {"type": "node", "id": 9186389034, "lat": 40.1891853, "lon": 44.5996049}, {"type": "node", "id": 9186389035, "lat": 40.1856091, "lon": 44.5975357}, {"type": "node", "id": 9186389036, "lat": 40.1847192, "lon": 44.5968973}, {"type": "node", "id": 9186389038, "lat": 40.1810309, "lon": 44.5817252}, {"type": "node", "id": 9186389040, "lat": 40.1884674, "lon": 44.5900611}, {"type": "node", "id": 9186389041, "lat": 40.1866181, "lon": 44.5914356}, {"type": "node", "id": 9186389042, "lat": 40.186723, "lon": 44.5907992}, {"type": "node", "id": 9186389043, "lat": 40.1851213, "lon": 44.5942176}, {"type": "node", "id": 9186389044, "lat": 40.1851033, "lon": 44.5937488}, {"type": "node", "id": 9186389045, "lat": 40.1887899, "lon": 44.599462}, {"type": "node", "id": 9186461318, "lat": 40.1557031, "lon": 44.5814698}, {"type": "node", "id": 9186461319, "lat": 40.1528741, "lon": 44.5674574}, {"type": "node", "id": 9186461323, "lat": 40.1453192, "lon": 44.6115845}, {"type": "node", "id": 9186461326, "lat": 40.1374414, "lon": 44.6152543}, {"type": "node", "id": 9186461327, "lat": 40.1364496, "lon": 44.6152165}, {"type": "node", "id": 9187014674, "lat": 40.1928967, "lon": 44.4037223}, {"type": "node", "id": 9187014675, "lat": 40.1941483, "lon": 44.4038779}, {"type": "node", "id": 9187014676, "lat": 40.1956369, "lon": 44.4044224}, {"type": "node", "id": 9187014677, "lat": 40.1956829, "lon": 44.4058355}, {"type": "node", "id": 9187014678, "lat": 40.1960697, "lon": 44.4102702}, {"type": "node", "id": 9187014684, "lat": 40.1923049, "lon": 44.4043854}, {"type": "node", "id": 9187014685, "lat": 40.1924923, "lon": 44.4046935}, {"type": "node", "id": 9187014689, "lat": 40.1922022, "lon": 44.4050167}, {"type": "node", "id": 9187014690, "lat": 40.1919654, "lon": 44.4046275}, {"type": "node", "id": 9187014691, "lat": 40.1913292, "lon": 44.4052778}, {"type": "node", "id": 9187014692, "lat": 40.1912225, "lon": 44.4066789}, {"type": "node", "id": 9187014693, "lat": 40.1899681, "lon": 44.4042378}, {"type": "node", "id": 9187014694, "lat": 40.1908942, "lon": 44.4062224}, {"type": "node", "id": 9187014699, "lat": 40.1821385, "lon": 44.4073183}, {"type": "node", "id": 9187094707, "lat": 40.2021034, "lon": 44.4052339}, {"type": "node", "id": 9187094708, "lat": 40.205914, "lon": 44.4040498}, {"type": "node", "id": 9187094709, "lat": 40.2071768, "lon": 44.4033529}, {"type": "node", "id": 9187094710, "lat": 40.2086123, "lon": 44.4031872}, {"type": "node", "id": 9187094711, "lat": 40.2125402, "lon": 44.403275}, {"type": "node", "id": 9187094712, "lat": 40.213201, "lon": 44.4028385}, {"type": "node", "id": 9187094713, "lat": 40.2147408, "lon": 44.4011342}, {"type": "node", "id": 9187094714, "lat": 40.2169293, "lon": 44.3957164}, {"type": "node", "id": 9187094715, "lat": 40.2173076, "lon": 44.3948323}, {"type": "node", "id": 9187108817, "lat": 40.2244851, "lon": 44.3975514}, {"type": "node", "id": 9187108818, "lat": 40.2248021, "lon": 44.3972552}, {"type": "node", "id": 9187108819, "lat": 40.2252007, "lon": 44.3975934}, {"type": "node", "id": 9187108820, "lat": 40.2257352, "lon": 44.4035749}, {"type": "node", "id": 9187108821, "lat": 40.2251721, "lon": 44.4046293}, {"type": "node", "id": 9187108822, "lat": 40.2249528, "lon": 44.4059592}, {"type": "node", "id": 9187108823, "lat": 40.2248156, "lon": 44.4074247}, {"type": "node", "id": 9187108824, "lat": 40.2247551, "lon": 44.408775}, {"type": "node", "id": 9187108825, "lat": 40.224441, "lon": 44.4097864}, {"type": "node", "id": 9187108826, "lat": 40.2239444, "lon": 44.4106899}, {"type": "node", "id": 9187108828, "lat": 40.2266886, "lon": 44.4128255}, {"type": "node", "id": 9187108829, "lat": 40.2261672, "lon": 44.4134203}, {"type": "node", "id": 9187108830, "lat": 40.2255481, "lon": 44.4130183}, {"type": "node", "id": 9187108831, "lat": 40.225194, "lon": 44.4138006}, {"type": "node", "id": 9187108832, "lat": 40.2244956, "lon": 44.4131987}, {"type": "node", "id": 9187108836, "lat": 40.2281482, "lon": 44.4180014}, {"type": "node", "id": 9187108837, "lat": 40.2276451, "lon": 44.4186215}, {"type": "node", "id": 9187108838, "lat": 40.2271589, "lon": 44.4205813}, {"type": "node", "id": 9187108839, "lat": 40.2291924, "lon": 44.4308748}, {"type": "node", "id": 9187108840, "lat": 40.2289194, "lon": 44.4320295}, {"type": "node", "id": 9187108841, "lat": 40.2286848, "lon": 44.4326742}, {"type": "node", "id": 9187108842, "lat": 40.2295242, "lon": 44.4328355}, {"type": "node", "id": 9187108843, "lat": 40.2296676, "lon": 44.4355366}, {"type": "node", "id": 9187108844, "lat": 40.2294171, "lon": 44.4365819}, {"type": "node", "id": 9187108845, "lat": 40.2315852, "lon": 44.4377172}, {"type": "node", "id": 9187108846, "lat": 40.2310762, "lon": 44.4372623}, {"type": "node", "id": 9187108847, "lat": 40.2306421, "lon": 44.4376408}, {"type": "node", "id": 9187108848, "lat": 40.2302777, "lon": 44.4376766}, {"type": "node", "id": 9187108849, "lat": 40.2300476, "lon": 44.4376187}, {"type": "node", "id": 9187125767, "lat": 40.1231302, "lon": 44.4304071}, {"type": "node", "id": 9187125768, "lat": 40.1236111, "lon": 44.4308493}, {"type": "node", "id": 9187125769, "lat": 40.1248102, "lon": 44.4334938}, {"type": "node", "id": 9187125770, "lat": 40.128198, "lon": 44.4353876}, {"type": "node", "id": 9187125771, "lat": 40.1270386, "lon": 44.4337925}, {"type": "node", "id": 9187125772, "lat": 40.1263751, "lon": 44.433894}, {"type": "node", "id": 9187125773, "lat": 40.1261619, "lon": 44.4336527}, {"type": "node", "id": 9187125774, "lat": 40.1261148, "lon": 44.4333774}, {"type": "node", "id": 9187125775, "lat": 40.1253939, "lon": 44.4331428}, {"type": "node", "id": 9187125776, "lat": 40.1248716, "lon": 44.4334569}, {"type": "node", "id": 9187125777, "lat": 40.1245024, "lon": 44.432807}, {"type": "node", "id": 9187125778, "lat": 40.1248093, "lon": 44.4323734}, {"type": "node", "id": 9187125779, "lat": 40.1248406, "lon": 44.431857}, {"type": "node", "id": 9187125780, "lat": 40.1244438, "lon": 44.431501}, {"type": "node", "id": 9187125781, "lat": 40.1236307, "lon": 44.4316784}, {"type": "node", "id": 9187125785, "lat": 40.1226275, "lon": 44.4309939}, {"type": "node", "id": 9187155573, "lat": 40.2217854, "lon": 44.3965286}, {"type": "node", "id": 9187274089, "lat": 40.1852371, "lon": 44.5808081}, {"type": "node", "id": 9187274090, "lat": 40.1878437, "lon": 44.5853338}, {"type": "node", "id": 9187274091, "lat": 40.1874589, "lon": 44.5848894}, {"type": "node", "id": 9187274095, "lat": 40.1893717, "lon": 44.5890124}, {"type": "node", "id": 9187274097, "lat": 40.1896242, "lon": 44.5894517}, {"type": "node", "id": 9191041287, "lat": 40.2946494, "lon": 44.3818741}, {"type": "node", "id": 9191135226, "lat": 40.1481332, "lon": 44.6026988}, {"type": "node", "id": 9191135230, "lat": 40.137868, "lon": 44.6176244}, {"type": "node", "id": 9191135232, "lat": 40.1379467, "lon": 44.6161479}, {"type": "node", "id": 9192389332, "lat": 40.1648122, "lon": 44.5747995}, {"type": "node", "id": 9192409159, "lat": 40.2211176, "lon": 44.5848536}, {"type": "node", "id": 9192409160, "lat": 40.221306, "lon": 44.5872991}, {"type": "node", "id": 9192539296, "lat": 40.2326712, "lon": 44.5601234}, {"type": "node", "id": 9192539297, "lat": 40.2302516, "lon": 44.5647423}, {"type": "node", "id": 9192915179, "lat": 40.188432, "lon": 44.5866991}, {"type": "node", "id": 9192915195, "lat": 40.1852736, "lon": 44.5942818}, {"type": "node", "id": 9192915196, "lat": 40.1844244, "lon": 44.5933397}, {"type": "node", "id": 9192915200, "lat": 40.186762, "lon": 44.597541}, {"type": "node", "id": 9193028980, "lat": 40.1946636, "lon": 44.6001191}, {"type": "node", "id": 9193028982, "lat": 40.1947219, "lon": 44.5989989}, {"type": "node", "id": 9193028995, "lat": 40.1942585, "lon": 44.5953461}, {"type": "node", "id": 9193028999, "lat": 40.1901579, "lon": 44.5892193}, {"type": "node", "id": 9193029000, "lat": 40.190219, "lon": 44.58877}, {"type": "node", "id": 9193029006, "lat": 40.1908513, "lon": 44.5887091}, {"type": "node", "id": 9193198612, "lat": 40.1866896, "lon": 44.5909657}, {"type": "node", "id": 9193198613, "lat": 40.1876708, "lon": 44.5904727}, {"type": "node", "id": 9193207819, "lat": 40.1861462, "lon": 44.5940953}, {"type": "node", "id": 9193207820, "lat": 40.1861401, "lon": 44.5938435}, {"type": "node", "id": 9193207821, "lat": 40.1862889, "lon": 44.59326}, {"type": "node", "id": 9193207828, "lat": 40.1840943, "lon": 44.594234}, {"type": "node", "id": 9193207830, "lat": 40.1842636, "lon": 44.5946719}, {"type": "node", "id": 9193207831, "lat": 40.1843358, "lon": 44.5949038}, {"type": "node", "id": 9193207832, "lat": 40.1844902, "lon": 44.5958238}, {"type": "node", "id": 9193207833, "lat": 40.1844848, "lon": 44.5957747}, {"type": "node", "id": 9193207834, "lat": 40.1845543, "lon": 44.5962655}, {"type": "node", "id": 9193207836, "lat": 40.184798, "lon": 44.5970265}, {"type": "node", "id": 9193207837, "lat": 40.1851264, "lon": 44.5972377}, {"type": "node", "id": 9193228957, "lat": 40.1844733, "lon": 44.5773412}, {"type": "node", "id": 9193228958, "lat": 40.1838684, "lon": 44.576988}, {"type": "node", "id": 9193228959, "lat": 40.1834895, "lon": 44.5768708}, {"type": "node", "id": 9193228960, "lat": 40.1834068, "lon": 44.5769099}, {"type": "node", "id": 9193228961, "lat": 40.1833046, "lon": 44.5781287}, {"type": "node", "id": 9193228962, "lat": 40.1833417, "lon": 44.5771379}, {"type": "node", "id": 9193228963, "lat": 40.1834021, "lon": 44.578614}, {"type": "node", "id": 9193228964, "lat": 40.1830384, "lon": 44.5788641}, {"type": "node", "id": 9193228965, "lat": 40.1829622, "lon": 44.5790108}, {"type": "node", "id": 9193228966, "lat": 40.1829997, "lon": 44.5792083}, {"type": "node", "id": 9193228967, "lat": 40.1832186, "lon": 44.5795536}, {"type": "node", "id": 9193228968, "lat": 40.1832769, "lon": 44.5795949}, {"type": "node", "id": 9193228969, "lat": 40.1834003, "lon": 44.5798929}, {"type": "node", "id": 9193228970, "lat": 40.1834198, "lon": 44.5801208}, {"type": "node", "id": 9193228971, "lat": 40.1831694, "lon": 44.5818768}, {"type": "node", "id": 9193228972, "lat": 40.1828754, "lon": 44.5815835}, {"type": "node", "id": 9193228973, "lat": 40.1825726, "lon": 44.5824642}, {"type": "node", "id": 9193228974, "lat": 40.1817634, "lon": 44.5821449}, {"type": "node", "id": 9193228975, "lat": 40.1822687, "lon": 44.5823769}, {"type": "node", "id": 9193228976, "lat": 40.1814518, "lon": 44.5822074}, {"type": "node", "id": 9193228977, "lat": 40.1812588, "lon": 44.5823346}, {"type": "node", "id": 9193228978, "lat": 40.1811865, "lon": 44.5821291}, {"type": "node", "id": 9193228979, "lat": 40.1807659, "lon": 44.5818789}, {"type": "node", "id": 9193228980, "lat": 40.1807774, "lon": 44.5819668}, {"type": "node", "id": 9193228981, "lat": 40.1803014, "lon": 44.5821566}, {"type": "node", "id": 9193228982, "lat": 40.1757919, "lon": 44.585325}, {"type": "node", "id": 9193228983, "lat": 40.1756743, "lon": 44.5849214}, {"type": "node", "id": 9193228984, "lat": 40.1754389, "lon": 44.5845477}, {"type": "node", "id": 9193228985, "lat": 40.1746391, "lon": 44.5835868}, {"type": "node", "id": 9193228986, "lat": 40.1740231, "lon": 44.5832705}, {"type": "node", "id": 9193228987, "lat": 40.1718494, "lon": 44.5810953}, {"type": "node", "id": 9193228988, "lat": 40.1699686, "lon": 44.578736}, {"type": "node", "id": 9193228989, "lat": 40.1689147, "lon": 44.5778444}, {"type": "node", "id": 9193228990, "lat": 40.1681408, "lon": 44.5761118}, {"type": "node", "id": 9193228991, "lat": 40.16834, "lon": 44.5768763}, {"type": "node", "id": 9193228992, "lat": 40.1684306, "lon": 44.5772475}, {"type": "node", "id": 9193229000, "lat": 40.1532268, "lon": 44.5826414}, {"type": "node", "id": 9193229002, "lat": 40.1532271, "lon": 44.5836482}, {"type": "node", "id": 9193229004, "lat": 40.1568617, "lon": 44.592893}, {"type": "node", "id": 9193229005, "lat": 40.1478838, "lon": 44.6030403}, {"type": "node", "id": 9196855035, "lat": 40.2321017, "lon": 44.4381608}, {"type": "node", "id": 9197008803, "lat": 40.2217791, "lon": 44.4672226}, {"type": "node", "id": 9197028726, "lat": 40.2269341, "lon": 44.5024299}, {"type": "node", "id": 9197546713, "lat": 40.0869628, "lon": 44.5002142}, {"type": "node", "id": 9198893590, "lat": 40.2362799, "lon": 44.5619593}, {"type": "node", "id": 9198944653, "lat": 40.2263756, "lon": 44.5744957}, {"type": "node", "id": 9198944654, "lat": 40.2237277, "lon": 44.5755229}, {"type": "node", "id": 9198944664, "lat": 40.2176667, "lon": 44.5877271}, {"type": "node", "id": 9201927996, "lat": 40.1914483, "lon": 44.5884562}, {"type": "node", "id": 9201927997, "lat": 40.1921243, "lon": 44.5881274}, {"type": "node", "id": 9201927998, "lat": 40.1909877, "lon": 44.5887077}, {"type": "node", "id": 9202566638, "lat": 40.1844321, "lon": 44.5933347}, {"type": "node", "id": 9202566639, "lat": 40.1847291, "lon": 44.5969544}, {"type": "node", "id": 9213513346, "lat": 40.1833196, "lon": 44.5808296}, {"type": "node", "id": 9213971183, "lat": 40.1869483, "lon": 44.5975719}, {"type": "node", "id": 9227012884, "lat": 40.0862637, "lon": 44.5081734}, {"type": "node", "id": 9227012885, "lat": 40.086169, "lon": 44.5075734}, {"type": "node", "id": 9227012886, "lat": 40.0862351, "lon": 44.5077021}, {"type": "node", "id": 9227012887, "lat": 40.0860976, "lon": 44.5067594}, {"type": "node", "id": 9227012888, "lat": 40.086111, "lon": 44.5072125}, {"type": "node", "id": 9232988081, "lat": 40.2347879, "lon": 44.5603684}, {"type": "node", "id": 9232988082, "lat": 40.2357188, "lon": 44.5614467}, {"type": "node", "id": 9235164635, "lat": 40.1847707, "lon": 44.5785121}, {"type": "node", "id": 9235164636, "lat": 40.1849496, "lon": 44.5803235}, {"type": "node", "id": 9235164637, "lat": 40.1861121, "lon": 44.5833267}, {"type": "node", "id": 9240227510, "lat": 40.1494831, "lon": 44.4408975}, {"type": "node", "id": 9240227511, "lat": 40.1516829, "lon": 44.442216}, {"type": "node", "id": 9240227513, "lat": 40.1549671, "lon": 44.4448191}, {"type": "node", "id": 9249704091, "lat": 40.2331209, "lon": 44.5587439}, {"type": "node", "id": 9249704175, "lat": 40.2177309, "lon": 44.5876787}, {"type": "node", "id": 9249704176, "lat": 40.2201306, "lon": 44.5872871}, {"type": "node", "id": 9249704178, "lat": 40.2211278, "lon": 44.5867514}, {"type": "node", "id": 9249704179, "lat": 40.2206526, "lon": 44.5873018}, {"type": "node", "id": 9249704180, "lat": 40.2179474, "lon": 44.5876475}, {"type": "node", "id": 9249704181, "lat": 40.2212095, "lon": 44.5858605}, {"type": "node", "id": 9249704182, "lat": 40.220676, "lon": 44.5836929}, {"type": "node", "id": 9249704183, "lat": 40.2204895, "lon": 44.5832717}, {"type": "node", "id": 9249704184, "lat": 40.2207361, "lon": 44.5843633}, {"type": "node", "id": 9249704188, "lat": 40.206437, "lon": 44.5802875}, {"type": "node", "id": 9249704210, "lat": 40.2062756, "lon": 44.5800236}, {"type": "node", "id": 9249704211, "lat": 40.206351, "lon": 44.5801293}, {"type": "node", "id": 9249704212, "lat": 40.209546, "lon": 44.5865945}, {"type": "node", "id": 9249704213, "lat": 40.2102094, "lon": 44.5858196}, {"type": "node", "id": 9249797552, "lat": 40.1626757, "lon": 44.5702374}, {"type": "node", "id": 9249797553, "lat": 40.1637059, "lon": 44.5693113}, {"type": "node", "id": 9249797554, "lat": 40.1639196, "lon": 44.569655}, {"type": "node", "id": 9249797555, "lat": 40.1642588, "lon": 44.5694375}, {"type": "node", "id": 9249797556, "lat": 40.1647716, "lon": 44.5694304}, {"type": "node", "id": 9249797557, "lat": 40.1640712, "lon": 44.5689287}, {"type": "node", "id": 9249797558, "lat": 40.163358, "lon": 44.5688852}, {"type": "node", "id": 9249797559, "lat": 40.1627853, "lon": 44.5687057}, {"type": "node", "id": 9249797560, "lat": 40.162484, "lon": 44.5686187}, {"type": "node", "id": 9249797561, "lat": 40.1620078, "lon": 44.5687216}, {"type": "node", "id": 9249797562, "lat": 40.1616889, "lon": 44.5687103}, {"type": "node", "id": 9249797563, "lat": 40.1596831, "lon": 44.5680667}, {"type": "node", "id": 9249797564, "lat": 40.1610174, "lon": 44.5686055}, {"type": "node", "id": 9249797565, "lat": 40.1616387, "lon": 44.5687025}, {"type": "node", "id": 9249797566, "lat": 40.1619525, "lon": 44.5687197}, {"type": "node", "id": 9249797567, "lat": 40.1588332, "lon": 44.5680944}, {"type": "node", "id": 9249797568, "lat": 40.1584585, "lon": 44.5680138}, {"type": "node", "id": 9249797569, "lat": 40.1582375, "lon": 44.5680438}, {"type": "node", "id": 9249797570, "lat": 40.1578593, "lon": 44.5680906}, {"type": "node", "id": 9249797571, "lat": 40.1575992, "lon": 44.5682894}, {"type": "node", "id": 9249797572, "lat": 40.1573563, "lon": 44.5682316}, {"type": "node", "id": 9249797573, "lat": 40.1572032, "lon": 44.5682173}, {"type": "node", "id": 9249797574, "lat": 40.1562605, "lon": 44.5679467}, {"type": "node", "id": 9249797575, "lat": 40.1556944, "lon": 44.5677077}, {"type": "node", "id": 9249797576, "lat": 40.1749842, "lon": 44.5839357}, {"type": "node", "id": 9249801967, "lat": 40.1529938, "lon": 44.5701302}, {"type": "node", "id": 9249801968, "lat": 40.153117, "lon": 44.5720112}, {"type": "node", "id": 9249801969, "lat": 40.1540737, "lon": 44.5756443}, {"type": "node", "id": 9249801970, "lat": 40.1544969, "lon": 44.577472}, {"type": "node", "id": 9249801971, "lat": 40.153107, "lon": 44.5839636}, {"type": "node", "id": 9249801972, "lat": 40.1533291, "lon": 44.5856471}, {"type": "node", "id": 9249801973, "lat": 40.1531407, "lon": 44.586031}, {"type": "node", "id": 9249801974, "lat": 40.1531431, "lon": 44.5867207}, {"type": "node", "id": 9249801975, "lat": 40.1535546, "lon": 44.5876314}, {"type": "node", "id": 9249801976, "lat": 40.1541197, "lon": 44.5885635}, {"type": "node", "id": 9249801977, "lat": 40.1547575, "lon": 44.5902701}, {"type": "node", "id": 9249801978, "lat": 40.1553001, "lon": 44.5906037}, {"type": "node", "id": 9249801979, "lat": 40.1562935, "lon": 44.5921803}, {"type": "node", "id": 9249801980, "lat": 40.1567074, "lon": 44.5939886}, {"type": "node", "id": 9249801981, "lat": 40.1568013, "lon": 44.5953065}, {"type": "node", "id": 9249801982, "lat": 40.156907, "lon": 44.5957296}, {"type": "node", "id": 9249801983, "lat": 40.1567051, "lon": 44.5947119}, {"type": "node", "id": 9249801984, "lat": 40.157077, "lon": 44.5966361}, {"type": "node", "id": 9249801985, "lat": 40.1573634, "lon": 44.5972265}, {"type": "node", "id": 9249801986, "lat": 40.1578937, "lon": 44.5977991}, {"type": "node", "id": 9249801987, "lat": 40.1577871, "lon": 44.5983822}, {"type": "node", "id": 9249801988, "lat": 40.1572947, "lon": 44.5993792}, {"type": "node", "id": 9249801989, "lat": 40.1476104, "lon": 44.6037105}, {"type": "node", "id": 9249801990, "lat": 40.1473149, "lon": 44.6041503}, {"type": "node", "id": 9249801991, "lat": 40.1471234, "lon": 44.6048563}, {"type": "node", "id": 9249801992, "lat": 40.1463578, "lon": 44.606822}, {"type": "node", "id": 9249801993, "lat": 40.1463492, "lon": 44.608562}, {"type": "node", "id": 9249801994, "lat": 40.146206, "lon": 44.6075581}, {"type": "node", "id": 9249801996, "lat": 40.1447737, "lon": 44.6123832}, {"type": "node", "id": 9249801997, "lat": 40.143793, "lon": 44.6187049}, {"type": "node", "id": 9249801998, "lat": 40.1433047, "lon": 44.6203524}, {"type": "node", "id": 9249801999, "lat": 40.1433453, "lon": 44.6208241}, {"type": "node", "id": 9249802000, "lat": 40.1431229, "lon": 44.6217689}, {"type": "node", "id": 9249933654, "lat": 40.144746, "lon": 44.4125098}, {"type": "node", "id": 9249933655, "lat": 40.1455492, "lon": 44.4140041}, {"type": "node", "id": 9250084194, "lat": 40.2298182, "lon": 44.4558247}, {"type": "node", "id": 9250084195, "lat": 40.2297824, "lon": 44.455711}, {"type": "node", "id": 9250084196, "lat": 40.2297494, "lon": 44.4554401}, {"type": "node", "id": 9250084197, "lat": 40.2302788, "lon": 44.4566166}, {"type": "node", "id": 9250084198, "lat": 40.2300423, "lon": 44.4577892}, {"type": "node", "id": 9250084206, "lat": 40.228376, "lon": 44.4596541}, {"type": "node", "id": 9250084207, "lat": 40.2274941, "lon": 44.4607031}, {"type": "node", "id": 9250084208, "lat": 40.2265341, "lon": 44.4600219}, {"type": "node", "id": 9250084209, "lat": 40.2265414, "lon": 44.4597548}, {"type": "node", "id": 9250084210, "lat": 40.2255103, "lon": 44.458623}, {"type": "node", "id": 9250084211, "lat": 40.2260811, "lon": 44.4593182}, {"type": "node", "id": 9250084212, "lat": 40.2247686, "lon": 44.4586172}, {"type": "node", "id": 9250088520, "lat": 40.2236608, "lon": 44.4583623}, {"type": "node", "id": 9250088524, "lat": 40.2238427, "lon": 44.4607389}, {"type": "node", "id": 9250088526, "lat": 40.2238904, "lon": 44.4620852}, {"type": "node", "id": 9250088527, "lat": 40.223835, "lon": 44.4615028}, {"type": "node", "id": 9250088528, "lat": 40.2238807, "lon": 44.46149}, {"type": "node", "id": 9260680760, "lat": 40.1367933, "lon": 44.4325816}, {"type": "node", "id": 9260680762, "lat": 40.1367438, "lon": 44.4337418}, {"type": "node", "id": 9260680763, "lat": 40.1368249, "lon": 44.4320624}, {"type": "node", "id": 9260680766, "lat": 40.1369294, "lon": 44.4320676}, {"type": "node", "id": 9260680767, "lat": 40.1369973, "lon": 44.4308243}, {"type": "node", "id": 9260680768, "lat": 40.1280778, "lon": 44.4268434}, {"type": "node", "id": 9260680769, "lat": 40.1347782, "lon": 44.4297267}, {"type": "node", "id": 9260680770, "lat": 40.1334343, "lon": 44.4284051}, {"type": "node", "id": 9260680771, "lat": 40.1319355, "lon": 44.4283669}, {"type": "node", "id": 9260680772, "lat": 40.130877, "lon": 44.4283373}, {"type": "node", "id": 9260680773, "lat": 40.1301234, "lon": 44.4257483}, {"type": "node", "id": 9272287121, "lat": 40.1641426, "lon": 44.4301348}, {"type": "node", "id": 9272287122, "lat": 40.1626931, "lon": 44.4299346}, {"type": "node", "id": 9272287128, "lat": 40.1594823, "lon": 44.4315342}, {"type": "node", "id": 9272287129, "lat": 40.1594718, "lon": 44.430153}, {"type": "node", "id": 9272287130, "lat": 40.1599247, "lon": 44.4290135}, {"type": "node", "id": 9272287131, "lat": 40.1609038, "lon": 44.4290635}, {"type": "node", "id": 9272287133, "lat": 40.1613898, "lon": 44.4292133}, {"type": "node", "id": 9272287134, "lat": 40.1617868, "lon": 44.429676}, {"type": "node", "id": 9272287135, "lat": 40.1619418, "lon": 44.4302751}, {"type": "node", "id": 9276823869, "lat": 40.2071341, "lon": 44.5821888}, {"type": "node", "id": 9276823871, "lat": 40.205763, "lon": 44.5789158}, {"type": "node", "id": 9296495441, "lat": 40.1059361, "lon": 44.4598763}, {"type": "node", "id": 9296495442, "lat": 40.1044021, "lon": 44.4625969}, {"type": "node", "id": 9296495443, "lat": 40.1044087, "lon": 44.4630768}, {"type": "node", "id": 9296495444, "lat": 40.1047585, "lon": 44.4634377}, {"type": "node", "id": 9296495445, "lat": 40.1051283, "lon": 44.4635081}, {"type": "node", "id": 9296495446, "lat": 40.105515, "lon": 44.4635192}, {"type": "node", "id": 9296495447, "lat": 40.1056648, "lon": 44.4635315}, {"type": "node", "id": 9296495448, "lat": 40.1057377, "lon": 44.4636299}, {"type": "node", "id": 9296495449, "lat": 40.1057322, "lon": 44.4639132}, {"type": "node", "id": 9296495450, "lat": 40.1057598, "lon": 44.4637756}, {"type": "node", "id": 9296495451, "lat": 40.1055329, "lon": 44.4642354}, {"type": "node", "id": 9296495452, "lat": 40.1054789, "lon": 44.4644522}, {"type": "node", "id": 9296495455, "lat": 40.1055617, "lon": 44.4646337}, {"type": "node", "id": 9320844677, "lat": 40.10674, "lon": 44.4708291}, {"type": "node", "id": 9355893289, "lat": 40.1056558, "lon": 44.4802607}, {"type": "node", "id": 9355893290, "lat": 40.1057114, "lon": 44.4810565}, {"type": "node", "id": 9355893291, "lat": 40.1056459, "lon": 44.4788692}, {"type": "node", "id": 9399727831, "lat": 40.1431259, "lon": 44.4361852}, {"type": "node", "id": 9399727832, "lat": 40.1436717, "lon": 44.4355826}, {"type": "node", "id": 9428661112, "lat": 40.0771258, "lon": 44.4533558}, {"type": "node", "id": 9428661113, "lat": 40.07685, "lon": 44.4469864}, {"type": "node", "id": 9519323527, "lat": 40.1075871, "lon": 44.3130717}, {"type": "node", "id": 9519323528, "lat": 40.1123411, "lon": 44.3176007}, {"type": "node", "id": 9519323530, "lat": 40.1210033, "lon": 44.3123102}, {"type": "node", "id": 9519323550, "lat": 40.1031814, "lon": 44.3122115}, {"type": "node", "id": 9527078301, "lat": 40.1537123, "lon": 44.4436784}, {"type": "node", "id": 9551800187, "lat": 40.1474732, "lon": 44.3653536}, {"type": "node", "id": 9558692934, "lat": 40.1214511, "lon": 44.4330492}, {"type": "node", "id": 9562359800, "lat": 40.0643678, "lon": 44.3952905}, {"type": "node", "id": 9562359801, "lat": 40.0637621, "lon": 44.3957118}, {"type": "node", "id": 9593661337, "lat": 40.1548513, "lon": 44.4076311}, {"type": "node", "id": 9593661338, "lat": 40.154602, "lon": 44.401474}, {"type": "node", "id": 9593661339, "lat": 40.156675, "lon": 44.4014598}, {"type": "node", "id": 9593858065, "lat": 40.1478394, "lon": 44.4257923}, {"type": "node", "id": 9593903047, "lat": 40.1455724, "lon": 44.3944367}, {"type": "node", "id": 9605006231, "lat": 40.1566649, "lon": 44.4011516}, {"type": "node", "id": 9656011317, "lat": 40.337051, "lon": 44.4873112}, {"type": "node", "id": 9656011333, "lat": 40.3388826, "lon": 44.4963597}, {"type": "node", "id": 9658816255, "lat": 40.1609797, "lon": 44.3504494}, {"type": "node", "id": 9658816256, "lat": 40.1667475, "lon": 44.3504261}, {"type": "node", "id": 9658816260, "lat": 40.1628891, "lon": 44.3501708}, {"type": "node", "id": 9658816261, "lat": 40.1666113, "lon": 44.34944}, {"type": "node", "id": 9658816262, "lat": 40.1674191, "lon": 44.3491879}, {"type": "node", "id": 9658816263, "lat": 40.1672108, "lon": 44.3475745}, {"type": "node", "id": 9658816264, "lat": 40.1675213, "lon": 44.3471919}, {"type": "node", "id": 9658816265, "lat": 40.1663357, "lon": 44.3450206}, {"type": "node", "id": 9658816266, "lat": 40.1669931, "lon": 44.3442926}, {"type": "node", "id": 9658816267, "lat": 40.1681673, "lon": 44.3425874}, {"type": "node", "id": 9658816268, "lat": 40.1696196, "lon": 44.340275}, {"type": "node", "id": 9658816280, "lat": 40.1647007, "lon": 44.3497117}, {"type": "node", "id": 9695373929, "lat": 40.0762173, "lon": 44.4084718}, {"type": "node", "id": 9697913418, "lat": 40.0578385, "lon": 44.4288399}, {"type": "node", "id": 9697913419, "lat": 40.0590424, "lon": 44.4263204}, {"type": "node", "id": 9697913420, "lat": 40.0589412, "lon": 44.4232201}, {"type": "node", "id": 9697913421, "lat": 40.0595282, "lon": 44.4256763}, {"type": "node", "id": 9697913422, "lat": 40.0581, "lon": 44.4234982}, {"type": "node", "id": 9697913423, "lat": 40.0577871, "lon": 44.4224485}, {"type": "node", "id": 9697913424, "lat": 40.0588468, "lon": 44.4218995}, {"type": "node", "id": 9697913425, "lat": 40.0582839, "lon": 44.4194628}, {"type": "node", "id": 9697913426, "lat": 40.0594066, "lon": 44.4187104}, {"type": "node", "id": 9697913427, "lat": 40.0594618, "lon": 44.4178697}, {"type": "node", "id": 9697913428, "lat": 40.0593166, "lon": 44.4164043}, {"type": "node", "id": 9697913429, "lat": 40.0583019, "lon": 44.4118032}, {"type": "node", "id": 9697913430, "lat": 40.0585805, "lon": 44.4093905}, {"type": "node", "id": 9697913431, "lat": 40.0590083, "lon": 44.4073873}, {"type": "node", "id": 9697913432, "lat": 40.060605, "lon": 44.3981813}, {"type": "node", "id": 9697913433, "lat": 40.0611476, "lon": 44.3954889}, {"type": "node", "id": 9697913435, "lat": 40.0620651, "lon": 44.3955925}, {"type": "node", "id": 9698102025, "lat": 40.0712411, "lon": 44.403959}, {"type": "node", "id": 9842040924, "lat": 40.1584439, "lon": 44.4374573}, {"type": "node", "id": 9842040925, "lat": 40.1578024, "lon": 44.4373017}, {"type": "node", "id": 9850465476, "lat": 40.1455788, "lon": 44.3990644}, {"type": "node", "id": 9850465477, "lat": 40.145588, "lon": 44.406801}, {"type": "node", "id": 9850483623, "lat": 40.114009, "lon": 44.3200248}, {"type": "node", "id": 9850483627, "lat": 40.1108711, "lon": 44.3150909}, {"type": "node", "id": 9850483628, "lat": 40.1096449, "lon": 44.3161524}, {"type": "node", "id": 9850580944, "lat": 40.0796584, "lon": 44.5053371}, {"type": "node", "id": 9850580945, "lat": 40.0823129, "lon": 44.506166}, {"type": "node", "id": 9850580946, "lat": 40.0799583, "lon": 44.5039223}, {"type": "node", "id": 9850580947, "lat": 40.0794882, "lon": 44.5047835}, {"type": "node", "id": 9850580948, "lat": 40.0797342, "lon": 44.5036752}, {"type": "node", "id": 9850580949, "lat": 40.0792322, "lon": 44.5039379}, {"type": "node", "id": 9850580950, "lat": 40.0795201, "lon": 44.5036706}, {"type": "node", "id": 9850580951, "lat": 40.079316, "lon": 44.503806}, {"type": "node", "id": 9850580952, "lat": 40.0794604, "lon": 44.5063069}, {"type": "node", "id": 9850580953, "lat": 40.0797589, "lon": 44.5059563}, {"type": "node", "id": 9850580962, "lat": 40.0778322, "lon": 44.5054871}, {"type": "node", "id": 9850580963, "lat": 40.0782447, "lon": 44.5060328}, {"type": "node", "id": 9850580964, "lat": 40.0772483, "lon": 44.5048659}, {"type": "node", "id": 9850580965, "lat": 40.0767847, "lon": 44.5044043}, {"type": "node", "id": 9850580966, "lat": 40.0759996, "lon": 44.505378}, {"type": "node", "id": 9850580967, "lat": 40.0764481, "lon": 44.5040594}, {"type": "node", "id": 9850580972, "lat": 40.0760735, "lon": 44.503556}, {"type": "node", "id": 9850580973, "lat": 40.0757908, "lon": 44.5050782}, {"type": "node", "id": 9850580974, "lat": 40.0757528, "lon": 44.5031157}, {"type": "node", "id": 9850580975, "lat": 40.0753793, "lon": 44.5040176}, {"type": "node", "id": 9850580976, "lat": 40.0754312, "lon": 44.5032618}, {"type": "node", "id": 9850580977, "lat": 40.0757653, "lon": 44.5056062}, {"type": "node", "id": 9850580978, "lat": 40.0749627, "lon": 44.505021}, {"type": "node", "id": 9850580979, "lat": 40.0744708, "lon": 44.5041099}, {"type": "node", "id": 9850580980, "lat": 40.0741706, "lon": 44.5036721}, {"type": "node", "id": 9850580981, "lat": 40.0717383, "lon": 44.5028527}, {"type": "node", "id": 9850580982, "lat": 40.0718475, "lon": 44.5043805}, {"type": "node", "id": 9850580983, "lat": 40.0716539, "lon": 44.5034635}, {"type": "node", "id": 9850580984, "lat": 40.0739322, "lon": 44.5034783}, {"type": "node", "id": 9850580985, "lat": 40.072116, "lon": 44.5027758}, {"type": "node", "id": 9850580986, "lat": 40.0718952, "lon": 44.5027525}, {"type": "node", "id": 9850580987, "lat": 40.0720684, "lon": 44.5054732}, {"type": "node", "id": 9850580988, "lat": 40.0722522, "lon": 44.5061664}, {"type": "node", "id": 9850580989, "lat": 40.0728459, "lon": 44.5077276}, {"type": "node", "id": 9850580990, "lat": 40.0728363, "lon": 44.5073341}, {"type": "node", "id": 9850580991, "lat": 40.072715, "lon": 44.5077674}, {"type": "node", "id": 9850580992, "lat": 40.0722665, "lon": 44.5073786}, {"type": "node", "id": 9850580993, "lat": 40.0715291, "lon": 44.5071324}, {"type": "node", "id": 9850580994, "lat": 40.071385, "lon": 44.5077001}, {"type": "node", "id": 9850580995, "lat": 40.0713919, "lon": 44.5073462}, {"type": "node", "id": 9850580996, "lat": 40.0719055, "lon": 44.5071971}, {"type": "node", "id": 9850580997, "lat": 40.0716943, "lon": 44.5071114}, {"type": "node", "id": 9850580998, "lat": 40.0715247, "lon": 44.509345}, {"type": "node", "id": 9850580999, "lat": 40.0715129, "lon": 44.5084922}, {"type": "node", "id": 9850581000, "lat": 40.0709559, "lon": 44.5093254}, {"type": "node", "id": 9850581001, "lat": 40.0713487, "lon": 44.5094136}, {"type": "node", "id": 9850581002, "lat": 40.0706967, "lon": 44.509313}, {"type": "node", "id": 9850581003, "lat": 40.0700862, "lon": 44.5121182}, {"type": "node", "id": 9850581004, "lat": 40.06984, "lon": 44.5098951}, {"type": "node", "id": 9850581005, "lat": 40.0697483, "lon": 44.5102708}, {"type": "node", "id": 9850581006, "lat": 40.0701861, "lon": 44.514634}, {"type": "node", "id": 9850581009, "lat": 40.0696637, "lon": 44.5153167}, {"type": "node", "id": 9850581010, "lat": 40.0694673, "lon": 44.5154514}, {"type": "node", "id": 9850581011, "lat": 40.0699083, "lon": 44.5150404}, {"type": "node", "id": 9850581012, "lat": 40.0704649, "lon": 44.5141973}, {"type": "node", "id": 9850581013, "lat": 40.0701936, "lon": 44.5132079}, {"type": "node", "id": 9850581014, "lat": 40.0700932, "lon": 44.5126657}, {"type": "node", "id": 9850581015, "lat": 40.0703728, "lon": 44.513727}, {"type": "node", "id": 9850581093, "lat": 40.0876001, "lon": 44.506441}, {"type": "node", "id": 9850581094, "lat": 40.0877788, "lon": 44.506634}, {"type": "node", "id": 9850581095, "lat": 40.0883329, "lon": 44.5070666}, {"type": "node", "id": 9850581096, "lat": 40.0880354, "lon": 44.505798}, {"type": "node", "id": 9850581097, "lat": 40.0876268, "lon": 44.5055371}, {"type": "node", "id": 9850581098, "lat": 40.0870945, "lon": 44.5064279}, {"type": "node", "id": 9850581099, "lat": 40.0866492, "lon": 44.5068056}, {"type": "node", "id": 9850581100, "lat": 40.086374, "lon": 44.5065484}, {"type": "node", "id": 9850581101, "lat": 40.0831673, "lon": 44.5067233}, {"type": "node", "id": 9850581102, "lat": 40.0840455, "lon": 44.5070061}, {"type": "node", "id": 9850581103, "lat": 40.0842772, "lon": 44.5075234}, {"type": "node", "id": 9850581104, "lat": 40.0850842, "lon": 44.5074481}, {"type": "node", "id": 9850581105, "lat": 40.086141, "lon": 44.5082559}, {"type": "node", "id": 9850581106, "lat": 40.0862079, "lon": 44.506548}, {"type": "node", "id": 9850581107, "lat": 40.0861618, "lon": 44.5065909}, {"type": "node", "id": 9850581108, "lat": 40.087463, "lon": 44.5050817}, {"type": "node", "id": 9850581109, "lat": 40.0872089, "lon": 44.5044267}, {"type": "node", "id": 9850581110, "lat": 40.0873691, "lon": 44.5020908}, {"type": "node", "id": 9850581143, "lat": 40.1118702, "lon": 44.4422585}, {"type": "node", "id": 9855346306, "lat": 40.195751, "lon": 44.4102514}, {"type": "node", "id": 9855346307, "lat": 40.1955485, "lon": 44.4098296}, {"type": "node", "id": 9855346308, "lat": 40.1963604, "lon": 44.4102421}, {"type": "node", "id": 9855346309, "lat": 40.1956212, "lon": 44.4100405}, {"type": "node", "id": 9855346310, "lat": 40.2037547, "lon": 44.4047091}, {"type": "node", "id": 9855346311, "lat": 40.2078513, "lon": 44.4031922}, {"type": "node", "id": 9855346312, "lat": 40.2120844, "lon": 44.4033267}, {"type": "node", "id": 9855346313, "lat": 40.212876, "lon": 44.4030957}, {"type": "node", "id": 9855346314, "lat": 40.2140208, "lon": 44.4021078}, {"type": "node", "id": 9855346315, "lat": 40.2158079, "lon": 44.398584}, {"type": "node", "id": 9855346922, "lat": 40.1960723, "lon": 44.4066746}, {"type": "node", "id": 9855346925, "lat": 40.1961153, "lon": 44.4069192}, {"type": "node", "id": 9855346926, "lat": 40.1961007, "lon": 44.4067948}, {"type": "node", "id": 9855346929, "lat": 40.1961125, "lon": 44.4071617}, {"type": "node", "id": 9855346943, "lat": 40.1954237, "lon": 44.404227}, {"type": "node", "id": 9855346944, "lat": 40.195557, "lon": 44.4042967}, {"type": "node", "id": 9855346948, "lat": 40.1941104, "lon": 44.4038337}, {"type": "node", "id": 9855346949, "lat": 40.1941299, "lon": 44.4038604}, {"type": "node", "id": 9859286519, "lat": 40.154605, "lon": 44.4019113}, {"type": "node", "id": 9859286520, "lat": 40.1543196, "lon": 44.402029}, {"type": "node", "id": 9859286521, "lat": 40.1538258, "lon": 44.4030816}, {"type": "node", "id": 9859286522, "lat": 40.1540474, "lon": 44.4047324}, {"type": "node", "id": 9859286523, "lat": 40.1544826, "lon": 44.4048976}, {"type": "node", "id": 9859286524, "lat": 40.1552603, "lon": 44.4072511}, {"type": "node", "id": 9859286525, "lat": 40.1549186, "lon": 44.4049824}, {"type": "node", "id": 9859286526, "lat": 40.1550201, "lon": 44.4051373}, {"type": "node", "id": 9859286527, "lat": 40.1552234, "lon": 44.4062413}, {"type": "node", "id": 9859286528, "lat": 40.1551623, "lon": 44.4096287}, {"type": "node", "id": 9859286529, "lat": 40.1568025, "lon": 44.4097696}, {"type": "node", "id": 9859286530, "lat": 40.1569818, "lon": 44.4112284}, {"type": "node", "id": 9859286531, "lat": 40.1568082, "lon": 44.4119029}, {"type": "node", "id": 9859286532, "lat": 40.1568978, "lon": 44.4137942}, {"type": "node", "id": 9859286533, "lat": 40.1574793, "lon": 44.4155004}, {"type": "node", "id": 9859286534, "lat": 40.1578761, "lon": 44.418618}, {"type": "node", "id": 9859286535, "lat": 40.1565053, "lon": 44.4189091}, {"type": "node", "id": 9859286536, "lat": 40.1559733, "lon": 44.4194601}, {"type": "node", "id": 9859286537, "lat": 40.1554071, "lon": 44.4205654}, {"type": "node", "id": 9859286538, "lat": 40.1553789, "lon": 44.4208984}, {"type": "node", "id": 9859286539, "lat": 40.1551126, "lon": 44.4209048}, {"type": "node", "id": 9859286540, "lat": 40.1549843, "lon": 44.4208796}, {"type": "node", "id": 9859286541, "lat": 40.1549587, "lon": 44.4191425}, {"type": "node", "id": 9859286542, "lat": 40.1515637, "lon": 44.4189624}, {"type": "node", "id": 9859286543, "lat": 40.1503405, "lon": 44.4190082}, {"type": "node", "id": 9859286544, "lat": 40.1502699, "lon": 44.4218363}, {"type": "node", "id": 9859286545, "lat": 40.1486022, "lon": 44.4217775}, {"type": "node", "id": 9859286546, "lat": 40.1591158, "lon": 44.4339485}, {"type": "node", "id": 9859286547, "lat": 40.1595312, "lon": 44.4356043}, {"type": "node", "id": 9859921425, "lat": 40.2801182, "lon": 44.361841}, {"type": "node", "id": 9859921426, "lat": 40.2811365, "lon": 44.3645234}, {"type": "node", "id": 9859921427, "lat": 40.2821208, "lon": 44.3660911}, {"type": "node", "id": 9860372275, "lat": 40.1227918, "lon": 44.3145601}, {"type": "node", "id": 9869219924, "lat": 40.1168785, "lon": 44.433405}, {"type": "node", "id": 9873776838, "lat": 40.0708874, "lon": 44.4554745}, {"type": "node", "id": 9873776839, "lat": 40.0677687, "lon": 44.4563483}, {"type": "node", "id": 9873776840, "lat": 40.0646551, "lon": 44.4572122}, {"type": "node", "id": 9873776841, "lat": 40.0642405, "lon": 44.4572809}, {"type": "node", "id": 9875386683, "lat": 40.1464204, "lon": 44.4245541}, {"type": "node", "id": 9875386684, "lat": 40.1467108, "lon": 44.4249027}, {"type": "node", "id": 9877672598, "lat": 40.1473543, "lon": 44.4259037}, {"type": "node", "id": 9897231567, "lat": 40.1473906, "lon": 44.4386284}, {"type": "node", "id": 9897231568, "lat": 40.1482918, "lon": 44.439505}, {"type": "node", "id": 9897231569, "lat": 40.1484641, "lon": 44.4399686}, {"type": "node", "id": 9897231570, "lat": 40.1502544, "lon": 44.4417009}, {"type": "node", "id": 9897231571, "lat": 40.151245, "lon": 44.4421456}, {"type": "node", "id": 9897231572, "lat": 40.1542845, "lon": 44.4441929}, {"type": "node", "id": 9897231574, "lat": 40.1484124, "lon": 44.4245725}, {"type": "node", "id": 9897298408, "lat": 40.144252, "lon": 44.4352336}, {"type": "node", "id": 9897316290, "lat": 40.1355657, "lon": 44.4302017}, {"type": "node", "id": 9897316291, "lat": 40.1350566, "lon": 44.4299689}, {"type": "node", "id": 9897316292, "lat": 40.1340986, "lon": 44.4290711}, {"type": "node", "id": 9897316293, "lat": 40.1345638, "lon": 44.4295189}, {"type": "node", "id": 9897316302, "lat": 40.1361011, "lon": 44.4304813}, {"type": "node", "id": 9897316303, "lat": 40.1369367, "lon": 44.4307745}, {"type": "node", "id": 9897316351, "lat": 40.1331963, "lon": 44.4282396}, {"type": "node", "id": 9897316368, "lat": 40.1328405, "lon": 44.4283564}, {"type": "node", "id": 9897316410, "lat": 40.123466, "lon": 44.4306181}, {"type": "node", "id": 9897316411, "lat": 40.1228653, "lon": 44.4305766}, {"type": "node", "id": 9897316412, "lat": 40.1236552, "lon": 44.4312259}, {"type": "node", "id": 9897316449, "lat": 40.1225112, "lon": 44.4317408}, {"type": "node", "id": 9897316450, "lat": 40.1224017, "lon": 44.4322359}, {"type": "node", "id": 9897316451, "lat": 40.121903, "lon": 44.4324433}, {"type": "node", "id": 9897316452, "lat": 40.1205705, "lon": 44.4315036}, {"type": "node", "id": 9897316453, "lat": 40.1204145, "lon": 44.4305679}, {"type": "node", "id": 9897316456, "lat": 40.1173603, "lon": 44.4287366}, {"type": "node", "id": 9897316457, "lat": 40.1190996, "lon": 44.4293613}, {"type": "node", "id": 9897316458, "lat": 40.1200837, "lon": 44.4296407}, {"type": "node", "id": 9897316505, "lat": 40.1159914, "lon": 44.4322872}, {"type": "node", "id": 9897419810, "lat": 40.1176321, "lon": 44.4363831}, {"type": "node", "id": 9897419811, "lat": 40.1160528, "lon": 44.4380014}, {"type": "node", "id": 9897419812, "lat": 40.1149451, "lon": 44.4391381}, {"type": "node", "id": 9897419813, "lat": 40.1142278, "lon": 44.4398607}, {"type": "node", "id": 9897419814, "lat": 40.1100835, "lon": 44.4440611}, {"type": "node", "id": 9897419815, "lat": 40.1089544, "lon": 44.4581241}, {"type": "node", "id": 9897419816, "lat": 40.1052389, "lon": 44.4567603}, {"type": "node", "id": 9897431817, "lat": 40.1052681, "lon": 44.4590487}, {"type": "node", "id": 9897431818, "lat": 40.1048842, "lon": 44.4582894}, {"type": "node", "id": 9897431827, "lat": 40.1051333, "lon": 44.4613238}, {"type": "node", "id": 9897431865, "lat": 40.1043585, "lon": 44.4628177}, {"type": "node", "id": 9897431866, "lat": 40.1045983, "lon": 44.4633339}, {"type": "node", "id": 9897431876, "lat": 40.106731, "lon": 44.4656365}, {"type": "node", "id": 9897431932, "lat": 40.1053399, "lon": 44.4868557}, {"type": "node", "id": 9897431944, "lat": 40.1052588, "lon": 44.4878657}, {"type": "node", "id": 9897431945, "lat": 40.1052727, "lon": 44.4872954}, {"type": "node", "id": 9897431946, "lat": 40.1052834, "lon": 44.4871826}, {"type": "node", "id": 9897431963, "lat": 40.1028604, "lon": 44.4912003}, {"type": "node", "id": 9897431964, "lat": 40.1025713, "lon": 44.4908175}, {"type": "node", "id": 9897432013, "lat": 40.0912965, "lon": 44.4900042}, {"type": "node", "id": 9897432014, "lat": 40.0910355, "lon": 44.4896334}, {"type": "node", "id": 9897432015, "lat": 40.0908634, "lon": 44.4894998}, {"type": "node", "id": 9897432019, "lat": 40.0923726, "lon": 44.490062}, {"type": "node", "id": 9897432020, "lat": 40.09176, "lon": 44.4898409}, {"type": "node", "id": 9897432021, "lat": 40.0915824, "lon": 44.4898467}, {"type": "node", "id": 9897432022, "lat": 40.0898873, "lon": 44.4900338}, {"type": "node", "id": 9897432023, "lat": 40.0900953, "lon": 44.489949}, {"type": "node", "id": 9897432024, "lat": 40.090419, "lon": 44.4895452}, {"type": "node", "id": 9897432028, "lat": 40.0884833, "lon": 44.4904675}, {"type": "node", "id": 9897432029, "lat": 40.0891489, "lon": 44.4901086}, {"type": "node", "id": 9897432032, "lat": 40.0882225, "lon": 44.4914881}, {"type": "node", "id": 9897432033, "lat": 40.0884077, "lon": 44.4906556}, {"type": "node", "id": 9897432034, "lat": 40.0878766, "lon": 44.4915096}, {"type": "node", "id": 9897432036, "lat": 40.0876215, "lon": 44.4912432}, {"type": "node", "id": 9897432040, "lat": 40.0864682, "lon": 44.4913841}, {"type": "node", "id": 9897432041, "lat": 40.0868759, "lon": 44.4911964}, {"type": "node", "id": 9897432065, "lat": 40.0852925, "lon": 44.4925519}, {"type": "node", "id": 9897432066, "lat": 40.0858972, "lon": 44.4917633}, {"type": "node", "id": 9897432067, "lat": 40.0855325, "lon": 44.4923073}, {"type": "node", "id": 9897432068, "lat": 40.084479, "lon": 44.4931622}, {"type": "node", "id": 9897432070, "lat": 40.0843049, "lon": 44.4933645}, {"type": "node", "id": 9897432071, "lat": 40.0846001, "lon": 44.494436}, {"type": "node", "id": 9897432072, "lat": 40.0842911, "lon": 44.4936731}, {"type": "node", "id": 9897432099, "lat": 40.0871281, "lon": 44.500952}, {"type": "node", "id": 9897432100, "lat": 40.0871989, "lon": 44.5005316}, {"type": "node", "id": 9897432101, "lat": 40.0871234, "lon": 44.5003458}, {"type": "node", "id": 9897432102, "lat": 40.0873144, "lon": 44.5018412}, {"type": "node", "id": 9897432104, "lat": 40.0873808, "lon": 44.5030675}, {"type": "node", "id": 9897432105, "lat": 40.0876207, "lon": 44.5027939}, {"type": "node", "id": 9897432106, "lat": 40.0875122, "lon": 44.5029558}, {"type": "node", "id": 9897432107, "lat": 40.0872555, "lon": 44.5034164}, {"type": "node", "id": 9897432108, "lat": 40.0872995, "lon": 44.5031728}, {"type": "node", "id": 9897432122, "lat": 40.0872676, "lon": 44.5036772}, {"type": "node", "id": 9897432123, "lat": 40.0872332, "lon": 44.5042149}, {"type": "node", "id": 9897432124, "lat": 40.0874483, "lon": 44.5040506}, {"type": "node", "id": 9897432125, "lat": 40.0874598, "lon": 44.5039123}, {"type": "node", "id": 9897432140, "lat": 40.0877046, "lon": 44.5065163}, {"type": "node", "id": 9897432141, "lat": 40.0880162, "lon": 44.5069464}, {"type": "node", "id": 9897432142, "lat": 40.0884341, "lon": 44.5069728}, {"type": "node", "id": 9897432157, "lat": 40.075635, "lon": 44.5030864}, {"type": "node", "id": 9897432158, "lat": 40.0754813, "lon": 44.5031517}, {"type": "node", "id": 9897432159, "lat": 40.0753788, "lon": 44.5037061}, {"type": "node", "id": 9897432160, "lat": 40.0756835, "lon": 44.5048847}, {"type": "node", "id": 9897432161, "lat": 40.0761863, "lon": 44.5055843}, {"type": "node", "id": 9897432162, "lat": 40.0762433, "lon": 44.5057795}, {"type": "node", "id": 9897432163, "lat": 40.0761857, "lon": 44.5058799}, {"type": "node", "id": 9897432164, "lat": 40.0759859, "lon": 44.5057593}, {"type": "node", "id": 9897432165, "lat": 40.0756014, "lon": 44.5055577}, {"type": "node", "id": 9897432166, "lat": 40.0746856, "lon": 44.5046278}, {"type": "node", "id": 9897432241, "lat": 40.0700977, "lon": 44.517007}, {"type": "node", "id": 9897432242, "lat": 40.0708748, "lon": 44.5188218}, {"type": "node", "id": 9897432243, "lat": 40.0693445, "lon": 44.5156623}, {"type": "node", "id": 9897432244, "lat": 40.073797, "lon": 44.5241649}, {"type": "node", "id": 9897432245, "lat": 40.0713953, "lon": 44.526668}, {"type": "node", "id": 9919282435, "lat": 40.0615448, "lon": 44.3954618}, {"type": "node", "id": 9920633603, "lat": 40.0758038, "lon": 44.4332789}, {"type": "node", "id": 9920633604, "lat": 40.0780985, "lon": 44.4348833}, {"type": "node", "id": 9920781418, "lat": 40.1455928, "lon": 44.4078989}, {"type": "node", "id": 9920865944, "lat": 40.1069955, "lon": 44.3129638}, {"type": "node", "id": 9920865945, "lat": 40.1072592, "lon": 44.3133667}, {"type": "node", "id": 9924621980, "lat": 40.164211, "lon": 44.0184238}, {"type": "node", "id": 9924621981, "lat": 40.163564, "lon": 44.0197917}, {"type": "node", "id": 9924639153, "lat": 40.1609663, "lon": 44.0135342}, {"type": "node", "id": 9924639154, "lat": 40.1710705, "lon": 44.0133978}, {"type": "node", "id": 9924639155, "lat": 40.1721561, "lon": 44.0148332}, {"type": "node", "id": 9924639156, "lat": 40.1730634, "lon": 44.0181366}, {"type": "node", "id": 9924639157, "lat": 40.1737129, "lon": 44.0209108}, {"type": "node", "id": 9924639158, "lat": 40.1691607, "lon": 44.0196485}, {"type": "node", "id": 9924639159, "lat": 40.1697955, "lon": 44.0225869}, {"type": "node", "id": 9926583680, "lat": 40.1145757, "lon": 44.430444}, {"type": "node", "id": 9942376771, "lat": 40.0755204, "lon": 44.4510832}, {"type": "node", "id": 9942376772, "lat": 40.0771923, "lon": 44.4532152}, {"type": "node", "id": 9942432617, "lat": 40.1056473, "lon": 44.476833}, {"type": "node", "id": 9942432618, "lat": 40.1056412, "lon": 44.4778639}, {"type": "node", "id": 9942432620, "lat": 40.1056673, "lon": 44.4754715}, {"type": "node", "id": 9942432621, "lat": 40.1056779, "lon": 44.4746824}, {"type": "node", "id": 9942432622, "lat": 40.1057126, "lon": 44.4739727}, {"type": "node", "id": 9942432623, "lat": 40.1061283, "lon": 44.4728158}, {"type": "node", "id": 9942432624, "lat": 40.1064296, "lon": 44.4719819}, {"type": "node", "id": 9942432625, "lat": 40.1066624, "lon": 44.4711943}, {"type": "node", "id": 9942432633, "lat": 40.1041736, "lon": 44.4923814}, {"type": "node", "id": 9942432634, "lat": 40.1038343, "lon": 44.4923593}, {"type": "node", "id": 9942576983, "lat": 40.0746384, "lon": 44.429053}, {"type": "node", "id": 9942576984, "lat": 40.0739472, "lon": 44.4300364}, {"type": "node", "id": 9942576996, "lat": 40.074249, "lon": 44.4293224}, {"type": "node", "id": 9942622339, "lat": 40.0731455, "lon": 44.4233031}, {"type": "node", "id": 9942622340, "lat": 40.0742199, "lon": 44.4211946}, {"type": "node", "id": 9942622341, "lat": 40.0719443, "lon": 44.4257437}, {"type": "node", "id": 9942799155, "lat": 40.058449, "lon": 44.450902}, {"type": "node", "id": 9942799156, "lat": 40.0588186, "lon": 44.4510952}, {"type": "node", "id": 9942799157, "lat": 40.0597352, "lon": 44.4526349}, {"type": "node", "id": 9942799158, "lat": 40.062288, "lon": 44.4552508}, {"type": "node", "id": 9942799159, "lat": 40.0633804, "lon": 44.4561445}, {"type": "node", "id": 9946131585, "lat": 40.0769989, "lon": 44.4146765}, {"type": "node", "id": 9946131586, "lat": 40.0779787, "lon": 44.4122616}, {"type": "node", "id": 9947466982, "lat": 40.1187795, "lon": 44.3147879}, {"type": "node", "id": 9947466984, "lat": 40.1163252, "lon": 44.3176322}, {"type": "node", "id": 9996087475, "lat": 40.1069339, "lon": 44.4682773}, {"type": "node", "id": 9996087476, "lat": 40.107101, "lon": 44.4659709}, {"type": "node", "id": 9996087477, "lat": 40.1070438, "lon": 44.4667752}, {"type": "node", "id": 9996087478, "lat": 40.1070535, "lon": 44.4664193}, {"type": "node", "id": 9999046838, "lat": 40.1484904, "lon": 44.3673884}, {"type": "node", "id": 9999046842, "lat": 40.1474348, "lon": 44.3621901}, {"type": "node", "id": 9999046844, "lat": 40.1473777, "lon": 44.362119}, {"type": "node", "id": 9999046846, "lat": 40.1470954, "lon": 44.3621076}, {"type": "node", "id": 9999046847, "lat": 40.1467039, "lon": 44.362107}, {"type": "node", "id": 9999046857, "lat": 40.1455503, "lon": 44.3913658}, {"type": "node", "id": 9999046858, "lat": 40.1456586, "lon": 44.4209623}, {"type": "node", "id": 9999046869, "lat": 40.159277, "lon": 44.4388062}, {"type": "node", "id": 9999046871, "lat": 40.1595769, "lon": 44.439556}, {"type": "node", "id": 9999046873, "lat": 40.1597794, "lon": 44.4402339}, {"type": "node", "id": 9999046875, "lat": 40.1598431, "lon": 44.4406928}, {"type": "node", "id": 9999046876, "lat": 40.159831, "lon": 44.4411779}, {"type": "node", "id": 9999046879, "lat": 40.1597742, "lon": 44.4422057}, {"type": "node", "id": 9999046881, "lat": 40.1597189, "lon": 44.4424706}, {"type": "node", "id": 9999153111, "lat": 40.1595698, "lon": 44.4426241}, {"type": "node", "id": 9999153112, "lat": 40.1591551, "lon": 44.4430083}, {"type": "node", "id": 9999153113, "lat": 40.1587586, "lon": 44.4433996}, {"type": "node", "id": 9999153114, "lat": 40.1585938, "lon": 44.4435407}, {"type": "node", "id": 9999153115, "lat": 40.1584711, "lon": 44.4435758}, {"type": "node", "id": 9999153116, "lat": 40.1582993, "lon": 44.4435461}, {"type": "node", "id": 9999274917, "lat": 40.1581043, "lon": 44.4431904}, {"type": "node", "id": 9999274918, "lat": 40.1579318, "lon": 44.4430279}, {"type": "node", "id": 9999274919, "lat": 40.1574854, "lon": 44.442976}, {"type": "node", "id": 9999274920, "lat": 40.1573663, "lon": 44.4430534}, {"type": "node", "id": 9999274921, "lat": 40.1569944, "lon": 44.443263}, {"type": "node", "id": 9999274922, "lat": 40.1559123, "lon": 44.4437738}, {"type": "node", "id": 9999274925, "lat": 40.1551645, "lon": 44.4448755}, {"type": "node", "id": 10014307090, "lat": 40.0863432, "lon": 44.5080816}, {"type": "node", "id": 10014307091, "lat": 40.0863651, "lon": 44.5079876}, {"type": "node", "id": 10014307092, "lat": 40.0863015, "lon": 44.5078408}, {"type": "node", "id": 10014307093, "lat": 40.0861243, "lon": 44.507411}, {"type": "node", "id": 10014307094, "lat": 40.0860987, "lon": 44.5069069}, {"type": "node", "id": 10014307095, "lat": 40.0861188, "lon": 44.5066575}, {"type": "node", "id": 10014307096, "lat": 40.0862948, "lon": 44.5065245}, {"type": "node", "id": 10014307097, "lat": 40.0864668, "lon": 44.5066245}, {"type": "node", "id": 10014307098, "lat": 40.0868867, "lon": 44.5069422}, {"type": "node", "id": 10014307100, "lat": 40.0869437, "lon": 44.5068905}, {"type": "node", "id": 10014307102, "lat": 40.0869828, "lon": 44.5065283}, {"type": "node", "id": 10014307103, "lat": 40.0870242, "lon": 44.506461}, {"type": "node", "id": 10014307104, "lat": 40.0873181, "lon": 44.506405}, {"type": "node", "id": 10014307105, "lat": 40.0874835, "lon": 44.5064202}, {"type": "node", "id": 10014307106, "lat": 40.0878738, "lon": 44.5067953}, {"type": "node", "id": 10014307107, "lat": 40.0881586, "lon": 44.5070375}, {"type": "node", "id": 10014307108, "lat": 40.0882569, "lon": 44.5070615}, {"type": "node", "id": 10014413529, "lat": 40.0951921, "lon": 44.4895599}, {"type": "node", "id": 10014413530, "lat": 40.0952532, "lon": 44.4893948}, {"type": "node", "id": 10014413531, "lat": 40.0955459, "lon": 44.4891113}, {"type": "node", "id": 10014413532, "lat": 40.0957352, "lon": 44.4890813}, {"type": "node", "id": 10014413533, "lat": 40.0966486, "lon": 44.4890598}, {"type": "node", "id": 10014413536, "lat": 40.0953433, "lon": 44.4892737}, {"type": "node", "id": 10014413537, "lat": 40.0954381, "lon": 44.4891637}, {"type": "node", "id": 10014413539, "lat": 40.0962788, "lon": 44.4890449}, {"type": "node", "id": 10014413544, "lat": 40.0990638, "lon": 44.4894694}, {"type": "node", "id": 10014413546, "lat": 40.0995749, "lon": 44.4900576}, {"type": "node", "id": 10014413548, "lat": 40.1000239, "lon": 44.4906466}, {"type": "node", "id": 10014413555, "lat": 40.1008274, "lon": 44.4902461}, {"type": "node", "id": 10014413561, "lat": 40.1018625, "lon": 44.4909951}, {"type": "node", "id": 10016894613, "lat": 40.1435694, "lon": 44.4357855}, {"type": "node", "id": 10016991817, "lat": 40.1446889, "lon": 44.4351574}, {"type": "node", "id": 10016991818, "lat": 40.1448098, "lon": 44.4351927}, {"type": "node", "id": 10039670563, "lat": 40.1618536, "lon": 44.3503548}, {"type": "node", "id": 10042570766, "lat": 40.1720889, "lon": 44.274445}, {"type": "node", "id": 10042570769, "lat": 40.1751823, "lon": 44.2756674}, {"type": "node", "id": 10042570770, "lat": 40.1757014, "lon": 44.2758134}, {"type": "node", "id": 10042570771, "lat": 40.1742818, "lon": 44.2755677}, {"type": "node", "id": 10089551125, "lat": 40.1467227, "lon": 44.3642438}, {"type": "node", "id": 10089551127, "lat": 40.14605, "lon": 44.3669306}, {"type": "node", "id": 10089551128, "lat": 40.1454469, "lon": 44.3677803}, {"type": "node", "id": 10089551129, "lat": 40.1454686, "lon": 44.3698198}, {"type": "node", "id": 10089551130, "lat": 40.145482, "lon": 44.3722428}, {"type": "node", "id": 10089551131, "lat": 40.1454853, "lon": 44.3746347}, {"type": "node", "id": 10089551132, "lat": 40.1455178, "lon": 44.3767376}, {"type": "node", "id": 10094955116, "lat": 40.2892645, "lon": 44.3742116}, {"type": "node", "id": 10094967517, "lat": 40.2915399, "lon": 44.3775017}, {"type": "node", "id": 10098162197, "lat": 40.1209542, "lon": 44.3123737}, {"type": "node", "id": 10098162198, "lat": 40.1172407, "lon": 44.3165583}, {"type": "node", "id": 10098162203, "lat": 40.1157539, "lon": 44.3182646}, {"type": "node", "id": 10099453919, "lat": 40.1591749, "lon": 44.4350961}, {"type": "node", "id": 10099453920, "lat": 40.1590104, "lon": 44.4344228}, {"type": "node", "id": 10099453921, "lat": 40.1590422, "lon": 44.4348524}, {"type": "node", "id": 10099453922, "lat": 40.1589869, "lon": 44.4345766}, {"type": "node", "id": 10099453923, "lat": 40.1589945, "lon": 44.4347102}, {"type": "node", "id": 10099453924, "lat": 40.1591157, "lon": 44.4331382}, {"type": "node", "id": 10099453925, "lat": 40.1590252, "lon": 44.4335913}, {"type": "node", "id": 10099453926, "lat": 40.1591116, "lon": 44.4338411}, {"type": "node", "id": 10099453927, "lat": 40.1591539, "lon": 44.4329228}, {"type": "node", "id": 10122733770, "lat": 40.1482421, "lon": 44.3351646}, {"type": "node", "id": 10122733771, "lat": 40.1483269, "lon": 44.3346285}, {"type": "node", "id": 10122733772, "lat": 40.1486456, "lon": 44.3336775}, {"type": "node", "id": 10122733773, "lat": 40.14871, "lon": 44.333318}, {"type": "node", "id": 10122733774, "lat": 40.14852, "lon": 44.3329709}, {"type": "node", "id": 10122733775, "lat": 40.1484745, "lon": 44.3325704}, {"type": "node", "id": 10122733776, "lat": 40.1485231, "lon": 44.3322089}, {"type": "node", "id": 10122733777, "lat": 40.148633, "lon": 44.331987}, {"type": "node", "id": 10122733778, "lat": 40.1485796, "lon": 44.3308902}, {"type": "node", "id": 10122733779, "lat": 40.1485463, "lon": 44.3300461}, {"type": "node", "id": 10122733780, "lat": 40.1484738, "lon": 44.329651}, {"type": "node", "id": 10122733781, "lat": 40.1485856, "lon": 44.3293948}, {"type": "node", "id": 10122733782, "lat": 40.1497499, "lon": 44.3290211}, {"type": "node", "id": 10122733783, "lat": 40.1510258, "lon": 44.3277058}, {"type": "node", "id": 10122733784, "lat": 40.1519181, "lon": 44.3269337}, {"type": "node", "id": 10122733785, "lat": 40.15228, "lon": 44.3263305}, {"type": "node", "id": 10122733786, "lat": 40.152594, "lon": 44.3259649}, {"type": "node", "id": 10122733787, "lat": 40.1531293, "lon": 44.3260121}, {"type": "node", "id": 10122733788, "lat": 40.1539786, "lon": 44.3254226}, {"type": "node", "id": 10122733789, "lat": 40.1542675, "lon": 44.3250324}, {"type": "node", "id": 10122733790, "lat": 40.1546145, "lon": 44.3247243}, {"type": "node", "id": 10122733791, "lat": 40.1549206, "lon": 44.3247633}, {"type": "node", "id": 10122733792, "lat": 40.1552424, "lon": 44.3250015}, {"type": "node", "id": 10122733793, "lat": 40.1554669, "lon": 44.3244429}, {"type": "node", "id": 10122733794, "lat": 40.1555219, "lon": 44.3232967}, {"type": "node", "id": 10122733795, "lat": 40.155266, "lon": 44.3221834}, {"type": "node", "id": 10122733796, "lat": 40.15539, "lon": 44.3214727}, {"type": "node", "id": 10122733797, "lat": 40.1552126, "lon": 44.3208278}, {"type": "node", "id": 10122733798, "lat": 40.1553633, "lon": 44.3203574}, {"type": "node", "id": 10122733799, "lat": 40.1555925, "lon": 44.3199034}, {"type": "node", "id": 10122733800, "lat": 40.1549865, "lon": 44.3179049}, {"type": "node", "id": 10122733801, "lat": 40.1543743, "lon": 44.3170011}, {"type": "node", "id": 10122733802, "lat": 40.1523006, "lon": 44.3164792}, {"type": "node", "id": 10122733803, "lat": 40.1512532, "lon": 44.3162414}, {"type": "node", "id": 10122733804, "lat": 40.1531624, "lon": 44.3166909}, {"type": "node", "id": 10122733810, "lat": 40.1512084, "lon": 44.3162391}, {"type": "node", "id": 10122733811, "lat": 40.1510711, "lon": 44.3160755}, {"type": "node", "id": 10122733812, "lat": 40.1504423, "lon": 44.3149373}, {"type": "node", "id": 10122733813, "lat": 40.1496236, "lon": 44.3132922}, {"type": "node", "id": 10122733814, "lat": 40.1483529, "lon": 44.3108216}, {"type": "node", "id": 10122733815, "lat": 40.1480277, "lon": 44.3101942}, {"type": "node", "id": 10122733816, "lat": 40.1476285, "lon": 44.3100691}, {"type": "node", "id": 10122738117, "lat": 40.1470253, "lon": 44.3082556}, {"type": "node", "id": 10122738118, "lat": 40.1463481, "lon": 44.3062585}, {"type": "node", "id": 10122738119, "lat": 40.1449555, "lon": 44.3059382}, {"type": "node", "id": 10122738120, "lat": 40.1434033, "lon": 44.3055962}, {"type": "node", "id": 10122738121, "lat": 40.1435768, "lon": 44.3033021}, {"type": "node", "id": 10122738122, "lat": 40.1421675, "lon": 44.3030535}, {"type": "node", "id": 10122738123, "lat": 40.1401026, "lon": 44.3027148}, {"type": "node", "id": 10122738124, "lat": 40.1373004, "lon": 44.3022694}, {"type": "node", "id": 10122738125, "lat": 40.1371421, "lon": 44.3055042}, {"type": "node", "id": 10122738126, "lat": 40.1312275, "lon": 44.3078963}, {"type": "node", "id": 10122738127, "lat": 40.1301549, "lon": 44.3083025}, {"type": "node", "id": 10122738128, "lat": 40.1281474, "lon": 44.3094294}, {"type": "node", "id": 10122738129, "lat": 40.1253866, "lon": 44.3112846}, {"type": "node", "id": 10122738130, "lat": 40.124437, "lon": 44.3120512}, {"type": "node", "id": 10122738131, "lat": 40.1243403, "lon": 44.3125418}, {"type": "node", "id": 10122738132, "lat": 40.1237663, "lon": 44.3132332}, {"type": "node", "id": 10122738133, "lat": 40.1229154, "lon": 44.3139656}, {"type": "node", "id": 10230976291, "lat": 40.2837736, "lon": 44.3364537}, {"type": "node", "id": 10230976292, "lat": 40.2842319, "lon": 44.3366951}, {"type": "node", "id": 10230976293, "lat": 40.2853736, "lon": 44.3386477}, {"type": "node", "id": 10230976294, "lat": 40.2822903, "lon": 44.3364491}, {"type": "node", "id": 10242806379, "lat": 40.0676173, "lon": 44.5345325}, {"type": "node", "id": 10242806401, "lat": 40.0761973, "lon": 44.5458595}, {"type": "node", "id": 10242806402, "lat": 40.0752373, "lon": 44.5477858}, {"type": "node", "id": 10242806403, "lat": 40.0724499, "lon": 44.5490858}, {"type": "node", "id": 10242806404, "lat": 40.0755949, "lon": 44.5533813}, {"type": "node", "id": 10242806405, "lat": 40.0795616, "lon": 44.5546358}, {"type": "node", "id": 10563777400, "lat": 40.1046446, "lon": 44.3089108}, {"type": "node", "id": 10563777401, "lat": 40.1073499, "lon": 44.3061255}, {"type": "node", "id": 10563777402, "lat": 40.1076264, "lon": 44.3052218}, {"type": "node", "id": 10563777403, "lat": 40.1068095, "lon": 44.3002181}, {"type": "node", "id": 10563777404, "lat": 40.107174, "lon": 44.2964593}, {"type": "node", "id": 10563777405, "lat": 40.1069917, "lon": 44.2957486}, {"type": "node", "id": 10563807387, "lat": 40.1072494, "lon": 44.2955102}, {"type": "node", "id": 10563807388, "lat": 40.1087411, "lon": 44.291968}, {"type": "node", "id": 10563807389, "lat": 40.1098146, "lon": 44.2892723}, {"type": "node", "id": 10563807390, "lat": 40.1101256, "lon": 44.2868191}, {"type": "node", "id": 10563807393, "lat": 40.1081341, "lon": 44.2864443}, {"type": "node", "id": 10563807394, "lat": 40.1060439, "lon": 44.2860943}, {"type": "node", "id": 10563807395, "lat": 40.1051533, "lon": 44.2856864}, {"type": "node", "id": 10566564731, "lat": 40.103625, "lon": 44.2846614}, {"type": "node", "id": 10566564732, "lat": 40.1047746, "lon": 44.2817894}, {"type": "node", "id": 10566564733, "lat": 40.1056906, "lon": 44.2793238}, {"type": "node", "id": 10566564734, "lat": 40.1061687, "lon": 44.2780295}, {"type": "node", "id": 10566564735, "lat": 40.107387, "lon": 44.2772944}, {"type": "node", "id": 10566564736, "lat": 40.1082401, "lon": 44.277086}, {"type": "node", "id": 10566564737, "lat": 40.1100393, "lon": 44.2774564}, {"type": "node", "id": 10566564738, "lat": 40.111596, "lon": 44.2774765}, {"type": "node", "id": 10566564739, "lat": 40.1136324, "lon": 44.2777}, {"type": "node", "id": 10566564740, "lat": 40.1165788, "lon": 44.2780877}, {"type": "node", "id": 10566564741, "lat": 40.1187409, "lon": 44.278912}, {"type": "node", "id": 10566564742, "lat": 40.1236578, "lon": 44.2778199}, {"type": "node", "id": 10566564743, "lat": 40.1257856, "lon": 44.277314}, {"type": "node", "id": 10566564744, "lat": 40.1296893, "lon": 44.2749375}, {"type": "node", "id": 10566564804, "lat": 40.1301385, "lon": 44.2754945}, {"type": "node", "id": 10566564805, "lat": 40.1349705, "lon": 44.2748479}, {"type": "node", "id": 10566564806, "lat": 40.1354513, "lon": 44.274275}, {"type": "node", "id": 10566564807, "lat": 40.1364034, "lon": 44.2740446}, {"type": "node", "id": 10566564808, "lat": 40.1380219, "lon": 44.2737956}, {"type": "node", "id": 10566599509, "lat": 40.1399212, "lon": 44.2729799}, {"type": "node", "id": 10566599510, "lat": 40.1412112, "lon": 44.2728802}, {"type": "node", "id": 10566599511, "lat": 40.1481036, "lon": 44.2713623}, {"type": "node", "id": 10566599512, "lat": 40.1553596, "lon": 44.2721867}, {"type": "node", "id": 10566599513, "lat": 40.1556108, "lon": 44.271767}, {"type": "node", "id": 10566599514, "lat": 40.1598273, "lon": 44.2731107}, {"type": "node", "id": 10566599545, "lat": 40.1519349, "lon": 44.2714231}, {"type": "node", "id": 10571945461, "lat": 40.1717135, "lon": 44.409302}, {"type": "node", "id": 10571945462, "lat": 40.1735883, "lon": 44.4072673}, {"type": "node", "id": 10571945463, "lat": 40.1747537, "lon": 44.4062786}, {"type": "node", "id": 10571945464, "lat": 40.1702925, "lon": 44.4109863}, {"type": "node", "id": 10581511461, "lat": 40.1949635, "lon": 44.3281548}, {"type": "node", "id": 10581511462, "lat": 40.1954194, "lon": 44.331245}, {"type": "node", "id": 10581511463, "lat": 40.1945154, "lon": 44.3339104}, {"type": "node", "id": 10581511464, "lat": 40.1938277, "lon": 44.3351748}, {"type": "node", "id": 10581511465, "lat": 40.1923056, "lon": 44.3341734}, {"type": "node", "id": 10581511466, "lat": 40.1905979, "lon": 44.3338649}, {"type": "node", "id": 10581511467, "lat": 40.1901613, "lon": 44.334315}, {"type": "node", "id": 10581511468, "lat": 40.1884613, "lon": 44.3342948}, {"type": "node", "id": 10581511469, "lat": 40.1861238, "lon": 44.3339205}, {"type": "node", "id": 10581511470, "lat": 40.1854592, "lon": 44.3352304}, {"type": "node", "id": 10581511471, "lat": 40.1811741, "lon": 44.3358373}, {"type": "node", "id": 10581511472, "lat": 40.18112, "lon": 44.3349775}, {"type": "node", "id": 10581511473, "lat": 40.1792923, "lon": 44.3355592}, {"type": "node", "id": 10581511474, "lat": 40.177051, "lon": 44.3365555}, {"type": "node", "id": 10581511475, "lat": 40.1741643, "lon": 44.3384471}, {"type": "node", "id": 10581511476, "lat": 40.1715906, "lon": 44.3414614}, {"type": "node", "id": 10581511477, "lat": 40.1708138, "lon": 44.3422049}, {"type": "node", "id": 10581511478, "lat": 40.1706244, "lon": 44.3418913}, {"type": "node", "id": 10581511479, "lat": 40.1650889, "lon": 44.3501459}, {"type": "node", "id": 10581511601, "lat": 40.1514911, "lon": 44.3535174}, {"type": "node", "id": 10581511602, "lat": 40.154753, "lon": 44.3523853}, {"type": "node", "id": 10581511603, "lat": 40.1579879, "lon": 44.3512794}, {"type": "node", "id": 10581511630, "lat": 40.1502861, "lon": 44.3867371}, {"type": "node", "id": 10582696558, "lat": 40.193744, "lon": 44.3264264}, {"type": "node", "id": 10582696559, "lat": 40.1935205, "lon": 44.3230889}, {"type": "node", "id": 10582696560, "lat": 40.1928593, "lon": 44.3222545}, {"type": "node", "id": 10582696561, "lat": 40.1929212, "lon": 44.3217128}, {"type": "node", "id": 10582696562, "lat": 40.192807, "lon": 44.3211151}, {"type": "node", "id": 10582696563, "lat": 40.1930829, "lon": 44.3206045}, {"type": "node", "id": 10582696564, "lat": 40.1946049, "lon": 44.3195646}, {"type": "node", "id": 10582696565, "lat": 40.1948855, "lon": 44.3189544}, {"type": "node", "id": 10582696566, "lat": 40.1952565, "lon": 44.3172794}, {"type": "node", "id": 10582696567, "lat": 40.1962173, "lon": 44.316526}, {"type": "node", "id": 10582696568, "lat": 40.1979485, "lon": 44.3164388}, {"type": "node", "id": 10582696569, "lat": 40.198738, "lon": 44.315866}, {"type": "node", "id": 10582696570, "lat": 40.1996321, "lon": 44.3164077}, {"type": "node", "id": 10582696571, "lat": 40.2011683, "lon": 44.3160466}, {"type": "node", "id": 10582696572, "lat": 40.2019577, "lon": 44.3164264}, {"type": "node", "id": 10582696573, "lat": 40.2020733, "lon": 44.3160808}, {"type": "node", "id": 10582696574, "lat": 40.2010052, "lon": 44.3139573}, {"type": "node", "id": 10582696575, "lat": 40.1973576, "lon": 44.3065486}, {"type": "node", "id": 10582696576, "lat": 40.1977613, "lon": 44.3034152}, {"type": "node", "id": 10582696577, "lat": 40.198857, "lon": 44.3028867}, {"type": "node", "id": 10582696578, "lat": 40.1998951, "lon": 44.300867}, {"type": "node", "id": 10582696579, "lat": 40.2023748, "lon": 44.3013294}, {"type": "node", "id": 10582696580, "lat": 40.2036627, "lon": 44.2994617}, {"type": "node", "id": 10582696581, "lat": 40.2040423, "lon": 44.2980239}, {"type": "node", "id": 10582696582, "lat": 40.2026241, "lon": 44.2964735}, {"type": "node", "id": 10582696583, "lat": 40.2015477, "lon": 44.2930639}, {"type": "node", "id": 10582696584, "lat": 40.2019348, "lon": 44.2931127}, {"type": "node", "id": 10582696585, "lat": 40.2018292, "lon": 44.2927143}, {"type": "node", "id": 10582696586, "lat": 40.2014483, "lon": 44.292343}, {"type": "node", "id": 10582696587, "lat": 40.1976625, "lon": 44.2905674}, {"type": "node", "id": 10582696588, "lat": 40.1928991, "lon": 44.2878716}, {"type": "node", "id": 10582696589, "lat": 40.1923273, "lon": 44.2874519}, {"type": "node", "id": 10582696590, "lat": 40.1908592, "lon": 44.2843768}, {"type": "node", "id": 10582696591, "lat": 40.1897117, "lon": 44.2812512}, {"type": "node", "id": 10582711011, "lat": 40.1902108, "lon": 44.280442}, {"type": "node", "id": 10582711012, "lat": 40.1917121, "lon": 44.2779294}, {"type": "node", "id": 10582711013, "lat": 40.1920639, "lon": 44.2776691}, {"type": "node", "id": 10582711014, "lat": 40.1920346, "lon": 44.2764484}, {"type": "node", "id": 10582711015, "lat": 40.1881932, "lon": 44.2748119}, {"type": "node", "id": 10582711016, "lat": 40.1876603, "lon": 44.2751813}, {"type": "node", "id": 10582711017, "lat": 40.1858672, "lon": 44.2754306}, {"type": "node", "id": 10582711018, "lat": 40.1823932, "lon": 44.277219}, {"type": "node", "id": 10582711019, "lat": 40.182026, "lon": 44.2771985}, {"type": "node", "id": 10582711020, "lat": 40.1795905, "lon": 44.2760359}, {"type": "node", "id": 10582711022, "lat": 40.1625564, "lon": 44.2737934}, {"type": "node", "id": 10582711023, "lat": 40.1492625, "lon": 44.3362093}, {"type": "node", "id": 10582711024, "lat": 40.149814, "lon": 44.3426513}, {"type": "node", "id": 10582711025, "lat": 40.1490601, "lon": 44.344209}, {"type": "node", "id": 10582711026, "lat": 40.1501, "lon": 44.3459691}, {"type": "node", "id": 10582711027, "lat": 40.1499261, "lon": 44.3491048}, {"type": "node", "id": 10582711028, "lat": 40.1496245, "lon": 44.3514717}, {"type": "node", "id": 10582711029, "lat": 40.1498604, "lon": 44.3520837}, {"type": "node", "id": 10582711030, "lat": 40.1510549, "lon": 44.3521495}, {"type": "node", "id": 10582715469, "lat": 40.1704229, "lon": 44.4132643}, {"type": "node", "id": 10582715470, "lat": 40.1699981, "lon": 44.4111046}, {"type": "node", "id": 10582715471, "lat": 40.169986, "lon": 44.4150348}, {"type": "node", "id": 10582715472, "lat": 40.1687311, "lon": 44.4172719}, {"type": "node", "id": 10582715473, "lat": 40.1697401, "lon": 44.4154833}, {"type": "node", "id": 10582715474, "lat": 40.1691742, "lon": 44.4158055}, {"type": "node", "id": 10582715475, "lat": 40.1686102, "lon": 44.4165869}, {"type": "node", "id": 10582715476, "lat": 40.1688277, "lon": 44.4161083}, {"type": "node", "id": 10582715477, "lat": 40.1687444, "lon": 44.4171362}, {"type": "node", "id": 10582715478, "lat": 40.1685505, "lon": 44.4178278}, {"type": "node", "id": 10582715479, "lat": 40.1678252, "lon": 44.418277}, {"type": "node", "id": 10582715480, "lat": 40.1674731, "lon": 44.4185796}, {"type": "node", "id": 10582715481, "lat": 40.1670747, "lon": 44.4195876}, {"type": "node", "id": 10582715482, "lat": 40.1671743, "lon": 44.4202792}, {"type": "node", "id": 10582715483, "lat": 40.1679084, "lon": 44.420804}, {"type": "node", "id": 10582715484, "lat": 40.1680907, "lon": 44.4212901}, {"type": "node", "id": 10582715485, "lat": 40.1684174, "lon": 44.4237917}, {"type": "node", "id": 10582715486, "lat": 40.169194, "lon": 44.4249618}, {"type": "node", "id": 10582715487, "lat": 40.1689993, "lon": 44.4259035}, {"type": "node", "id": 10582715488, "lat": 40.1686463, "lon": 44.4283434}, {"type": "node", "id": 10582715489, "lat": 40.1656461, "lon": 44.4301504}, {"type": "node", "id": 10768675900, "lat": 40.1577713, "lon": 44.4429315}, {"type": "node", "id": 10867106937, "lat": 40.2344959, "lon": 44.5600407}, {"type": "node", "id": 10895099158, "lat": 40.2328536, "lon": 44.4387427}, {"type": "node", "id": 10895099183, "lat": 40.2289307, "lon": 44.4464399}, {"type": "node", "id": 10895099185, "lat": 40.2278671, "lon": 44.4477961}, {"type": "node", "id": 10913680827, "lat": 40.1859432, "lon": 44.5825031}, {"type": "node", "id": 10927599834, "lat": 40.1050226, "lon": 44.491494}, {"type": "node", "id": 10960611949, "lat": 40.1559835, "lon": 44.4014578}, {"type": "node", "id": 10960611952, "lat": 40.1551874, "lon": 44.4014623}, {"type": "node", "id": 11015807644, "lat": 40.2087539, "lon": 44.5867642}, {"type": "node", "id": 11015807650, "lat": 40.1916829, "lon": 44.5883432}, {"type": "node", "id": 11015807665, "lat": 40.1951567, "lon": 44.586394}, {"type": "node", "id": 11015807668, "lat": 40.1954639, "lon": 44.5862217}, {"type": "node", "id": 11015807672, "lat": 40.1963806, "lon": 44.585672}, {"type": "node", "id": 11015807674, "lat": 40.1970587, "lon": 44.5852911}, {"type": "node", "id": 11015807678, "lat": 40.197625, "lon": 44.584948}, {"type": "node", "id": 11015807680, "lat": 40.1985079, "lon": 44.5844406}, {"type": "node", "id": 11015807683, "lat": 40.1990516, "lon": 44.5840788}, {"type": "node", "id": 11015807686, "lat": 40.1999982, "lon": 44.5834188}, {"type": "node", "id": 11015807689, "lat": 40.202204, "lon": 44.5819644}, {"type": "node", "id": 11015807694, "lat": 40.2029592, "lon": 44.5814542}, {"type": "node", "id": 11015807697, "lat": 40.204028, "lon": 44.5805952}, {"type": "node", "id": 11015807700, "lat": 40.2048003, "lon": 44.5799231}, {"type": "node", "id": 11015807702, "lat": 40.2054458, "lon": 44.579261}, {"type": "node", "id": 11016153921, "lat": 40.2129317, "lon": 44.5839486}, {"type": "node", "id": 11016801880, "lat": 40.1849379, "lon": 44.5781317}, {"type": "node", "id": 11016801881, "lat": 40.1848052, "lon": 44.5782817}, {"type": "node", "id": 11016801882, "lat": 40.1846272, "lon": 44.577564}, {"type": "node", "id": 11016801883, "lat": 40.184063, "lon": 44.5770889}, {"type": "node", "id": 11016801884, "lat": 40.1832978, "lon": 44.5776609}, {"type": "node", "id": 11016801885, "lat": 40.1833698, "lon": 44.5769952}, {"type": "node", "id": 11016801887, "lat": 40.1870151, "lon": 44.5907477}, {"type": "node", "id": 11016801893, "lat": 40.1873066, "lon": 44.5906438}, {"type": "node", "id": 11016801895, "lat": 40.1882573, "lon": 44.590178}, {"type": "node", "id": 11043071975, "lat": 40.1357534, "lon": 44.4302902}, {"type": "node", "id": 11045460048, "lat": 40.2269553, "lon": 44.5739673}, {"type": "node", "id": 11045460049, "lat": 40.2267915, "lon": 44.5742164}, {"type": "node", "id": 11045460053, "lat": 40.2241286, "lon": 44.5754291}, {"type": "node", "id": 11045460054, "lat": 40.2238669, "lon": 44.5754435}, {"type": "node", "id": 11073166580, "lat": 40.1895157, "lon": 44.5998114}, {"type": "node", "id": 11073166584, "lat": 40.1949456, "lon": 44.5865171}, {"type": "node", "id": 11073279327, "lat": 40.230035, "lon": 44.5039492}, {"type": "node", "id": 11073279328, "lat": 40.2301617, "lon": 44.5029044}, {"type": "node", "id": 11099251510, "lat": 40.2715151, "lon": 44.338793}, {"type": "node", "id": 11099251515, "lat": 40.272925, "lon": 44.3377012}, {"type": "node", "id": 11099251516, "lat": 40.274674, "lon": 44.3368474}, {"type": "node", "id": 11101273707, "lat": 40.2301858, "lon": 44.4447446}, {"type": "node", "id": 11101694603, "lat": 40.2375422, "lon": 44.5650136}, {"type": "node", "id": 11143575045, "lat": 40.1513858, "lon": 44.1122831}, {"type": "node", "id": 11143575046, "lat": 40.1503078, "lon": 44.1172636}, {"type": "node", "id": 11143575055, "lat": 40.1412037, "lon": 44.141259}, {"type": "node", "id": 11143575056, "lat": 40.1430707, "lon": 44.1402816}, {"type": "node", "id": 11143575057, "lat": 40.1465058, "lon": 44.1329219}, {"type": "node", "id": 11143575058, "lat": 40.1467612, "lon": 44.1284162}, {"type": "node", "id": 11165928678, "lat": 40.0760068, "lon": 44.4171364}, {"type": "node", "id": 11198442823, "lat": 40.218462, "lon": 44.5872784}, {"type": "node", "id": 11220605489, "lat": 40.1326568, "lon": 44.4283585}, {"type": "node", "id": 11220606435, "lat": 40.1579115, "lon": 44.4367367}, {"type": "node", "id": 11220606436, "lat": 40.1579177, "lon": 44.436961}, {"type": "node", "id": 11220640237, "lat": 40.1578602, "lon": 44.4371038}, {"type": "node", "id": 11224548264, "lat": 40.1431544, "lon": 44.0332548}, {"type": "node", "id": 11224548267, "lat": 40.1431795, "lon": 44.0335337}, {"type": "node", "id": 11224548269, "lat": 40.1430201, "lon": 44.0339863}, {"type": "node", "id": 11224548271, "lat": 40.1434973, "lon": 44.0343887}, {"type": "node", "id": 11226626741, "lat": 40.1631751, "lon": 44.0646977}, {"type": "node", "id": 11226626742, "lat": 40.1618783, "lon": 44.0581208}, {"type": "node", "id": 11226626743, "lat": 40.1610205, "lon": 44.063849}, {"type": "node", "id": 11258679044, "lat": 40.1429178, "lon": 44.435929}, {"type": "node", "id": 11258679046, "lat": 40.1430808, "lon": 44.4361591}, {"type": "node", "id": 11258679047, "lat": 40.1922335, "lon": 44.600829}, {"type": "node", "id": 11258679049, "lat": 40.1908181, "lon": 44.6003072}, {"type": "node", "id": 11258679050, "lat": 40.1905123, "lon": 44.6002007}, {"type": "node", "id": 11258679056, "lat": 40.1938572, "lon": 44.601404}, {"type": "node", "id": 11258679105, "lat": 40.1056721, "lon": 44.4809244}, {"type": "node", "id": 11263520941, "lat": 40.1536237, "lon": 44.4187428}, {"type": "node", "id": 11265572988, "lat": 40.2328125, "lon": 44.5597472}, {"type": "node", "id": 11277048244, "lat": 40.0651726, "lon": 44.3952022}, {"type": "node", "id": 11277048245, "lat": 40.0660221, "lon": 44.3952753}, {"type": "node", "id": 11277048246, "lat": 40.0670186, "lon": 44.3960215}, {"type": "node", "id": 11280511722, "lat": 40.0790457, "lon": 44.4434124}, {"type": "node", "id": 11282281081, "lat": 40.2212105, "lon": 44.4703886}, {"type": "node", "id": 11282281082, "lat": 40.2202023, "lon": 44.4729909}, {"type": "node", "id": 11282281084, "lat": 40.2205096, "lon": 44.4720795}, {"type": "node", "id": 11282281086, "lat": 40.2213032, "lon": 44.475093}, {"type": "node", "id": 11282281087, "lat": 40.2219103, "lon": 44.4755451}, {"type": "node", "id": 11282349209, "lat": 40.2231651, "lon": 44.474934}, {"type": "node", "id": 11282349212, "lat": 40.2255567, "lon": 44.479083}, {"type": "node", "id": 11298873967, "lat": 40.1275159, "lon": 44.4344401}, {"type": "node", "id": 11298873968, "lat": 40.127489, "lon": 44.4342158}, {"type": "node", "id": 11298873969, "lat": 40.1274111, "lon": 44.434054}, {"type": "node", "id": 11298873970, "lat": 40.1272473, "lon": 44.4338876}, {"type": "node", "id": 11303525314, "lat": 40.1429978, "lon": 44.4360185}, {"type": "node", "id": 11303550294, "lat": 40.0951586, "lon": 44.4896674}, {"type": "node", "id": 11321829497, "lat": 40.0573152, "lon": 44.4489486}, {"type": "node", "id": 11321829727, "lat": 40.0595957, "lon": 44.405255}, {"type": "node", "id": 11321829732, "lat": 40.0602335, "lon": 44.4039091}, {"type": "node", "id": 11334836228, "lat": 40.0900207, "lon": 44.4900084}, {"type": "node", "id": 11338093220, "lat": 40.0900875, "lon": 44.4899552}, {"type": "node", "id": 11357160743, "lat": 40.1554935, "lon": 44.4447435}, {"type": "node", "id": 11357160747, "lat": 40.1553547, "lon": 44.4443944}, {"type": "node", "id": 11357160748, "lat": 40.1554715, "lon": 44.4439651}, {"type": "node", "id": 11357160749, "lat": 40.1555764, "lon": 44.4439413}, {"type": "node", "id": 11357214261, "lat": 40.1597654, "lon": 44.4420268}, {"type": "node", "id": 11390692948, "lat": 40.1066985, "lon": 44.4709929}, {"type": "node", "id": 11529334351, "lat": 40.1555867, "lon": 44.4200104}, {"type": "node", "id": 11576958614, "lat": 40.176935, "lon": 44.5862017}, {"type": "node", "id": 11576963172, "lat": 40.1888074, "lon": 44.5994683}, {"type": "node", "id": 11578533421, "lat": 40.1591356, "lon": 44.4323541}, {"type": "node", "id": 11582569713, "lat": 40.1723657, "lon": 44.4084354}, {"type": "node", "id": 12020245136, "lat": 40.3088651, "lon": 44.3671787}, {"type": "node", "id": 12020245137, "lat": 40.305954, "lon": 44.3711708}, {"type": "node", "id": 12192700615, "lat": 40.2213516, "lon": 44.4138903}, {"type": "node", "id": 12192700616, "lat": 40.2214822, "lon": 44.4141909}, {"type": "node", "id": 12310638583, "lat": 40.2234773, "lon": 44.4633111}, {"type": "node", "id": 12310638703, "lat": 40.2272267, "lon": 44.4200316}, {"type": "node", "id": 12310638704, "lat": 40.2271144, "lon": 44.4224181}, {"type": "node", "id": 12441341197, "lat": 40.1947156, "lon": 44.5970826}, {"type": "node", "id": 12460771687, "lat": 40.1455747, "lon": 44.3960827}, {"type": "node", "id": 12696518018, "lat": 40.1895012, "lon": 44.5902168}, {"type": "node", "id": 12696518019, "lat": 40.1895165, "lon": 44.5901169}, {"type": "node", "id": 12696518020, "lat": 40.1895544, "lon": 44.5898735}, {"type": "node", "id": 12696524492, "lat": 40.1879358, "lon": 44.5974356}, {"type": "node", "id": 12726940294, "lat": 40.1679731, "lon": 44.4209218}, {"type": "node", "id": 12726940295, "lat": 40.1678374, "lon": 44.4206953}, {"type": "node", "id": 12726941412, "lat": 40.168482, "lon": 44.4239274}, {"type": "node", "id": 13177475187, "lat": 40.1490384, "lon": 44.0198319}, {"type": "node", "id": 13177475188, "lat": 40.1485556, "lon": 44.0204638}, {"type": "node", "id": 13177475189, "lat": 40.1512714, "lon": 44.018716}, {"type": "node", "id": 13177475190, "lat": 40.1430202, "lon": 44.0331114}, {"type": "node", "id": 13177475191, "lat": 40.143179, "lon": 44.0334009}, {"type": "node", "id": 13177475192, "lat": 40.1430638, "lon": 44.0338519}, {"type": "node", "id": 13177475193, "lat": 40.1433241, "lon": 44.0347079}, {"type": "node", "id": 13233320485, "lat": 40.308941, "lon": 44.3518342}, {"type": "node", "id": 13233320486, "lat": 40.3082521, "lon": 44.3487192}, {"type": "node", "id": 13233320487, "lat": 40.3078615, "lon": 44.3516364}, {"type": "node", "id": 13233320488, "lat": 40.3073486, "lon": 44.3512858}, {"type": "node", "id": 13318779183, "lat": 40.1949648, "lon": 44.3281636}, {"type": "node", "id": 13318779184, "lat": 40.1949582, "lon": 44.3281473}, {"type": "way", "id": 46343021, "nodes": [9187094715, 9187094714, 9855346315, 9187094713, 9855346314, 9187094712, 9855346313, 9187094711, 9855346312, 9187094710, 9855346311, 9187094709, 9187094708, 9855346310, 9187094707, 6452062359, 6452062358, 6452061557, 6452061556, 6452062365, 6452062366, 6452062367, 2266368577, 2266368544, 8528351858, 2266368542, 2266368536, 9855346308, 9187014678], "tags": {"admin_level": "4", "boundary": "administrative", "name": "\u0535\u0580\u0587\u0561\u0576 - \u0531\u0580\u0574\u0561\u057e\u056b\u0580 \u057d\u0561\u0570\u0574\u0561\u0576", "name:en": "Yerevan - Armavir Border", "name:hy": "\u0535\u0580\u0587\u0561\u0576 - \u0531\u0580\u0574\u0561\u057e\u056b\u0580 \u057d\u0561\u0570\u0574\u0561\u0576", "source": "gadm.org"}}, {"type": "way", "id": 46343022, "nodes": [4607623089, 4253136729, 9165104367, 9182423759, 1450662641, 9250084196, 9250084195, 9250084194, 1450662662, 9250084197, 9250084198, 9165104368, 9250084206, 9250084207, 9250084208, 9250084209, 9250084211, 9250084210, 9250084212, 4607622588, 9250088520, 9250088524, 9250088528, 9250088527, 9250088526, 9165104369, 12310638583, 1535086679, 4607622587, 9197008803, 9165104371, 9165104372, 9165104373, 11282281081, 11282281084, 11282281082, 9165104374, 9165104375, 11282281086, 11282281087, 9165104376, 11282349209, 9165104378, 9165104379, 11282349212, 9165104380, 9165104381, 9165104382, 9165104383, 9165104384, 9165104385, 592148836, 9165104386], "tags": {"admin_level": "4", "boundary": "administrative", "name": "\u0535\u0580\u0587\u0561\u0576 - \u053f\u0578\u057f\u0561\u0575\u0584 \u057d\u0561\u0570\u0574\u0561\u0576", "name:en": "Yerevan - Kotayk Border", "name:hy": "\u0535\u0580\u0587\u0561\u0576 - \u053f\u0578\u057f\u0561\u0575\u0584 \u057d\u0561\u0570\u0574\u0561\u0576", "source": "gadm.org"}}, {"type": "way", "id": 46343023, "nodes": [9186461326, 9186461327, 592148825, 592148823, 8932177018, 592148817, 8932146811, 8932146812, 8932146810, 2246946775, 8932177020, 9141238021, 9141238022, 10242806405, 10242806404, 10242806403], "tags": {"admin_level": "4", "boundary": "administrative", "name": "\u0535\u0580\u0587\u0561\u0576 - \u0531\u0580\u0561\u0580\u0561\u057f \u057d\u0561\u0570\u0574\u0561\u0576", "name:en": "Border Yerevan - Ararat", "name:hy": "\u0535\u0580\u0587\u0561\u0576 - \u0531\u0580\u0561\u0580\u0561\u057f \u057d\u0561\u0570\u0574\u0561\u0576", "source": "gadm.org"}}, {"type": "way", "id": 109017583, "nodes": [1249313316, 1249313411, 9697913418, 1249313615, 9697913419, 9697913421, 9697913420, 9697913422, 9697913423, 9697913424, 9697913425, 9697913426, 9697913427, 9697913428, 9697913429, 9697913430, 9697913431, 11321829727, 11321829732, 1249313345, 9697913432, 1249313586, 9697913433, 9919282435, 9697913435, 1249313600, 9562359801, 9562359800, 11277048244, 11277048245, 11277048246, 8594783549, 1249313443, 9698102025, 8594783548, 2247168773, 8594783547, 9695373929, 1249313273, 9946131586, 9946131585, 11165928678, 9083928029, 9942622340, 9942622339, 1249313409, 9942622341, 1249313614, 9942576983, 9942576996, 9942576984, 1249313342, 9920633603, 9920633604, 1249313455, 1249313619, 2127975214, 11280511722, 2127975236, 2127975188, 2127975154, 9428661113, 1249313357, 1249313467, 9942376771, 1249313295, 9942376772, 9428661112, 1920837124, 9873776838, 9873776839, 9873776840, 9873776841, 9942799159, 9942799158, 8333825385, 8485848432, 9942799157, 9942799156, 9942799155, 11321829497, 2286378829, 1249313627, 1250040563, 1249313316], "tags": {"landuse": "residential", "name": "\u0544\u0561\u057d\u056b\u057d", "name:en": "Masis", "name:hy": "\u0544\u0561\u057d\u056b\u057d", "name:ru": "\u041c\u0430\u0441\u0438\u0441", "place": "town", "population": "21000", "wikidata": "Q2001643", "wikipedia": "en:Masis, Armenia"}}, {"type": "way", "id": 118864691, "nodes": [9141047409, 10571945461, 11582569713, 10571945462, 10571945463, 1381377067, 9187014699, 592148784, 592148782, 9187014693, 9187014694, 9187014692, 9187014691, 9187014690, 9187014689, 9187014685, 9187014684, 9187014674, 1381377065, 9855346948, 9855346949, 9187014675, 9855346943, 9855346944, 9187014676, 9187014677, 9855346922, 9855346926, 9855346925, 9855346929, 9141047410, 9855346307, 9855346309, 9855346306, 9187014678], "tags": {"admin_level": "4", "boundary": "administrative", "name": "\u0535\u0580\u0587\u0561\u0576 - \u0531\u0580\u0574\u0561\u057e\u056b\u0580 \u057d\u0561\u0570\u0574\u0561\u0576", "name:en": "Yerevan - Armavir Border", "name:hy": "\u0535\u0580\u0587\u0561\u0576 - \u0531\u0580\u0574\u0561\u057e\u056b\u0580 \u057d\u0561\u0570\u0574\u0561\u0576", "source": "gadm.org"}}, {"type": "way", "id": 148508807, "nodes": [1616037414, 8930959894, 8930959895, 4140058463, 8930959896, 4140058462, 1616037410, 8638116276, 1616037412, 1616037418, 7843059334, 7843059335, 1616037484, 1616037626, 1616037744, 1616037726, 1616038415, 11226626742, 11226626743, 11226626741, 1616038540, 1616038553, 8384269665, 1616038552, 1616038548, 1616038550, 1616038519, 9924621981, 9924621980, 9924639158, 9924639159, 9924639157, 9924639156, 9924639155, 9924639154, 1616038479, 9924639153, 8384269664, 9028673336, 1616037654, 4117420542, 5942093425, 2962211126, 13177475189, 1615944577, 1615944559, 13177475187, 13177475188, 8930959889, 4135392065, 4135392053, 1615944425, 1615944419, 4132750276, 4127553689, 8930959892, 8930959893, 4154858129, 13177475190, 11224548264, 13177475191, 11224548267, 13177475192, 11224548269, 11224548271, 13177475193, 1616037414], "tags": {"landuse": "residential", "name": "\u0531\u0580\u0574\u0561\u057e\u056b\u0580", "name:bg": "\u041e\u043a\u0442\u0435\u043c\u0431\u0435\u0440\u044f\u043d", "name:de": "Armawir", "name:el": "\u0391\u03c1\u03bc\u03b1\u03b2\u03af\u03c1", "name:en": "Armavir", "name:hy": "\u0531\u0580\u0574\u0561\u057e\u056b\u0580", "name:ru": "\u0410\u0440\u043c\u0430\u0432\u0438\u0440", "place": "town", "population": "33800", "wikidata": "Q15771", "wikipedia": "en:Armavir, Armenia"}}, {"type": "way", "id": 177841996, "nodes": [1882446044, 1882446067, 1882446073, 1882446082, 1882446079, 1882446085, 1988137572, 9656011317, 1882446091, 1882446094, 9656011333, 2154686801, 1882446088, 1882446076, 1882446071, 1882446063, 5466953739, 5466953740, 1882446037, 5466953741, 5466953742, 1882446034, 5466953743, 5466953744, 1882446027, 5466953745, 5466953746, 1882446040, 1882446044], "tags": {"landuse": "residential", "name": "\u0535\u0572\u057e\u0561\u0580\u0564", "name:en": "Yeghvard", "name:hy": "\u0535\u0572\u057e\u0561\u0580\u0564", "name:ru": "\u0415\u0433\u0432\u0430\u0440\u0434", "place": "town", "wikidata": "Q1649945", "wikipedia": "en:Yeghvard"}}, {"type": "way", "id": 177841998, "nodes": [1882446003, 1882445997, 5583760430, 5583760429, 1882446007, 11143575055, 11143575056, 5583760431, 11143575057, 11143575058, 5583760432, 1882446017, 1882446020, 5581898145, 11143575046, 1882446023, 11143575045, 1882446014, 1882446011, 1882446000, 1882446003], "tags": {"landuse": "residential", "name": "\u0544\u0565\u056e\u0561\u0574\u0578\u0580", "name:en": "Metsamor", "name:fa": "\u0645\u062a\u0633\u0627\u0645\u0648\u0631", "name:hy": "\u0544\u0565\u056e\u0561\u0574\u0578\u0580", "name:ru": "\u041c\u0435\u0446\u0430\u043c\u043e\u0440", "place": "town", "wikidata": "Q1136307", "wikipedia": "en:Metsamor"}}, {"type": "way", "id": 177922252, "nodes": [1883221514, 8528838594, 4077270023, 4077270024, 8528838592, 8528838593, 4077270025, 1883221515, 5313133721, 1883221517, 5313133722, 9859921425, 9859921426, 9859921427, 1883221519, 1883221521, 10094955116, 1883221523, 10094967517, 1883221522, 8736227779, 8736227780, 8736227783, 8736227784, 8736227785, 8736227786, 8736227787, 8736227788, 8736227789, 8736227790, 8736227791, 8736227781, 8736227782, 8594775136, 8594775135, 8594775134, 8594775133, 8594775132, 8594775131, 8594775130, 8528838601, 9191041287, 8528838600, 5668528808, 5668528825, 5668528824, 5246867060, 5246867059, 5246867058, 5246867057, 5246867056, 5246867055, 12020245137, 5246867054, 5246867053, 5246867052, 5246867051, 12020245136, 5246867050, 5246867048, 8463676295, 5246867047, 5246867046, 5246867045, 5246867044, 5246867043, 5246867042, 8736227803, 8736227802, 8736227801, 8736227800, 8736227825, 8736227799, 8736227798, 8736227797, 8736227796, 8736227795, 8736227794, 8736227793, 8736227792, 1883221536, 1883221537, 2010489379, 1883221539, 13233320485, 13233320487, 13233320488, 1883221538, 13233320486, 1883221534, 1883221529, 1883221526, 1883221524, 1883221520, 10230976293, 10230976292, 10230976291, 10230976294, 4373206103, 4373206102, 4373218889, 3514771568, 11099251516, 4077270022, 11099251515, 1883221516, 11099251510, 1883221514], "tags": {"landuse": "residential", "name": "\u0531\u0577\u057f\u0561\u0580\u0561\u056f", "name:el": "\u0391\u03c3\u03c4\u03b1\u03c1\u03b1\u03ba", "name:en": "Ashtarak", "name:fa": "\u0622\u0634\u062a\u0627\u0631\u0627\u06a9", "name:fr": "Achtarak", "name:hy": "\u0531\u0577\u057f\u0561\u0580\u0561\u056f", "name:ja": "\u30a2\u30b7\u30e5\u30bf\u30e9\u30af", "name:ru": "\u0410\u0448\u0442\u0430\u0440\u0430\u043a", "place": "town", "wikidata": "Q39510", "wikipedia": "en:Ashtarak"}}, {"type": "way", "id": 543824286, "nodes": [10582696573, 10582696574, 10582696575, 10582696576, 10582696577, 10582696578, 10582696579, 10582696580, 10582696581, 10582696582, 10582696583, 10582696584, 10582696585, 10582696586, 10582696587], "tags": {"admin_level": "5", "boundary": "administrative"}}, {"type": "way", "id": 782401960, "nodes": [9942432617, 9942432620, 9942432621, 9942432622, 9942432623, 9942432624, 9942432625, 11390692948, 9320844677, 4548145051, 9996087475, 9996087477, 9996087478, 9996087476, 9897431876, 9296495455, 9296495452, 9296495451, 9296495449, 9296495450, 9296495448, 9296495447, 9296495446, 9296495445, 9296495444, 9897431866, 9296495443, 9897431865, 9296495442, 9897431827, 9296495441, 9897431817, 9897431818, 5841544611, 9897419816, 5841544610, 8935040631, 9897419815, 8935040632, 8935040633, 8935040635, 8935040634, 8935040628, 8935040627, 8935040626, 8935040625, 8935040624], "tags": {"admin_level": "4", "boundary": "administrative", "name": "\u0531\u0580\u0561\u0580\u0561\u057f - \u0535\u0580\u0587\u0561\u0576 \u057d\u0561\u0570\u0574\u0561\u0576", "name:en": "Ararat - Yerevan border", "name:hy": "\u0531\u0580\u0561\u0580\u0561\u057f - \u0535\u0580\u0587\u0561\u0576 \u057d\u0561\u0570\u0574\u0561\u0576", "name:ru": "\u0433\u0440\u0430\u043d\u0438\u0446\u0430 \u0410\u0440\u0430\u0440\u0430\u0442 - \u0415\u0440\u0435\u0432\u0430\u043d"}}, {"type": "way", "id": 782627968, "nodes": [11101694603, 9186315842, 5208641425, 5208641426, 592148831, 9198893590, 9232988082, 9232988081, 10867106937, 9249704091, 6294221785, 6294221786, 11265572988, 9192539296, 5208641424, 4781263989, 4781263990, 4781263991, 9192539297, 5251664598, 6956627443, 4781263992, 4781263993, 4781263994, 11045460048, 11045460049, 4781263995, 9198944653, 4781263996, 5163972834, 11045460053, 11045460054, 9198944654, 4795526398, 4607812194, 5251520601, 9186387483, 9249704183, 9249704182, 9249704184, 9186387488, 9192409159, 9249704181, 9249704178, 9192409160, 9249704179, 9249704176, 9186387490, 11198442823, 9186387497, 9249704180, 9249704175, 9198944664, 9186387495, 9186387500, 9186387502, 9186387501, 9186387503, 9186387505, 9186387504, 9186387506, 9186387507, 9186387508, 9186387509, 9186387510, 9186387511, 9186387512, 11016153921, 9186387513, 9186387514], "tags": {"admin_level": "4", "boundary": "administrative", "name": "Border Kotayk - Yerevan", "source": "gadm.org"}}, {"type": "way", "id": 896205420, "nodes": [9186387714, 9186387713, 9186461319, 9249801967, 9249801968, 9249801969, 9249801970, 9186461318, 9193229000, 9193229002, 9249801971, 9249801972, 9249801973, 9249801974, 9249801975, 9249801976, 9249801977, 9249801978, 9249801979, 9193229004, 9249801980, 9249801983, 9249801981, 9249801982, 9249801984, 9249801985, 9249801986], "tags": {"admin_level": "4", "boundary": "administrative", "name": "Border Kotayk - Yerevan", "source": "gadm.org"}}, {"type": "way", "id": 993945480, "nodes": [10581511630, 9182972640, 9182972641, 9999046838], "tags": {"admin_level": "4", "boundary": "administrative", "name": "\u0531\u0580\u0574\u0561\u057e\u056b\u0580 - \u0535\u0580\u0587\u0561\u0576 \u057d\u0561\u0570\u0574\u0561\u0576", "name:en": "Armavir - Yerevan border", "name:hy": "\u0531\u0580\u0574\u0561\u057e\u056b\u0580 - \u0535\u0580\u0587\u0561\u0576 \u057d\u0561\u0570\u0574\u0561\u0576"}}, {"type": "way", "id": 995897948, "nodes": [11101273707, 592148846, 10895099158, 9196855035, 9187108845, 9187108846, 9187108847, 9187108848, 9187108849, 9187108844, 9187108843, 9187108842, 9187108841, 9187108840, 9187108839, 12310638704, 9187108838, 12310638703, 9187108837, 9187108836, 592148794, 9187108828, 9187108829, 9187108830, 9187108831, 9187108832, 12192700616, 12192700615, 8528351855, 9187108826, 9187108825, 9187108824, 9187108823, 9187108822, 9187108821, 9187108820, 9187108819], "tags": {"admin_level": "4", "boundary": "administrative", "name": "\u0535\u0580\u0587\u0561\u0576 - \u053f\u0578\u057f\u0561\u0575\u0584 \u057d\u0561\u0570\u0574\u0561\u0576", "name:en": "Yerevan - Kotayk Border", "name:hy": "\u0535\u0580\u0587\u0561\u0576 - \u053f\u0578\u057f\u0561\u0575\u0584 \u057d\u0561\u0570\u0574\u0561\u0576", "source": "gadm.org"}}, {"type": "way", "id": 996628914, "nodes": [9186389045, 9182050494, 9182050497, 12696524492, 9213971183, 9192915200, 9186389035, 9193207837, 9193207836, 9202566639, 9186389036, 9193207834, 9193207832, 9193207833, 9182050500, 9193207831, 9193207830, 9193207828, 3822500362, 9192915196, 9202566638, 9186389044, 9186389043, 9192915195, 1466987162, 9193207819, 9193207820, 9193207821, 9186389041, 9193198612, 9186389042, 11016801887, 11016801893, 9193198613, 11016801895, 9186389040, 9182050507, 9141576732, 12696518018, 12696518019, 12696518020, 9187274097, 9182050490, 9187274095, 4463141883, 9192915179, 9141576731, 9187274090, 9187274091, 9235164637, 10913680827, 9187274089, 9235164636, 9141576730, 9235164635, 11016801881, 11016801880, 4463141875, 11016801882, 9193228957, 11016801883, 9193228958, 4463141876, 9193228959, 9193228960, 11016801885, 9193228962, 11016801884, 9193228961, 9193228963, 9193228964, 9193228965, 9193228966, 9193228967, 9193228968, 9193228969, 9193228970, 9213513346, 9193228971, 9193228972, 9193228973, 9193228975, 9193228974, 9193228976, 9193228977, 9193228978, 9186389038, 9193228979, 9193228980, 9193228981, 11576958614, 9141576729], "tags": {"admin_level": "4", "boundary": "administrative", "name": "Border Kotayk - Yerevan", "source": "gadm.org"}}, {"type": "way", "id": 998995697, "nodes": [9191135230, 9191135232, 9186461326], "tags": {"admin_level": "4", "boundary": "administrative", "name": "\u0535\u0580\u0587\u0561\u0576 - \u0531\u0580\u0561\u0580\u0561\u057f \u057d\u0561\u0570\u0574\u0561\u0576", "name:en": "Border Yerevan - Ararat", "name:hy": "\u0535\u0580\u0587\u0561\u0576 - \u0531\u0580\u0561\u0580\u0561\u057f \u057d\u0561\u0570\u0574\u0561\u0576", "source": "gadm.org"}}, {"type": "way", "id": 998995698, "nodes": [9152244026, 9850581010, 9850581009, 9850581011, 9850581006, 9850581012, 9850581015, 9850581013, 9850581014, 9850581003, 9850581005, 9850581004, 8302855921, 9850581002, 9850581000, 9850581001, 9850580998, 9850580999, 9850580994, 9850580995, 9850580993, 9850580997, 9850580996, 9850580992, 9850580991, 9850580989, 9850580990, 9850580988, 9850580987, 9850580982, 9850580983, 9850580981, 9850580986, 9850580985, 8302855920, 9850580984, 9850580980, 9850580979, 9897432166, 9850580978, 5908007128, 9897432165, 9850580977, 9897432164, 9897432163, 9897432162, 9897432161, 9850580966, 9850580973, 9897432160, 9850580975, 9897432159, 9850580976, 9897432158, 9897432157, 9850580974, 9850580972, 9850580967, 9850580965, 9850580964, 9850580962, 9850580963, 8302855918, 8302850916, 9850580952, 9850580953, 8302855917, 9850580944, 9850580947, 9850580949, 9850580951, 9850580950, 9850580948, 9850580946, 5908007126, 8349180052, 9850580945, 9850581101, 9850581102, 9850581103, 5908007125, 9850581104, 8349180050, 8349180051, 8349180049, 9850581105, 9227012884, 10014307090, 10014307091, 10014307092, 9227012886, 9227012885, 10014307093, 9227012888, 10014307094, 9227012887, 10014307095, 9850581107, 9850581106, 10014307096, 9850581100, 10014307097, 9850581099, 8349180046], "tags": {"admin_level": "4", "boundary": "administrative", "name": "\u0531\u0580\u0561\u0580\u0561\u057f - \u0535\u0580\u0587\u0561\u0576 \u057d\u0561\u0570\u0574\u0561\u0576", "name:en": "Ararat - Yerevan border", "name:hy": "\u0531\u0580\u0561\u0580\u0561\u057f - \u0535\u0580\u0587\u0561\u0576 \u057d\u0561\u0570\u0574\u0561\u0576"}}, {"type": "way", "id": 998995701, "nodes": [9999274925, 11357160743, 11357160747, 11357160748, 11357160749, 9999274922, 9999274921, 9999274920, 9999274919, 10768675900, 9999274918, 9999274917, 9999153116, 9999153115, 9999153114, 9999153113, 9999153112, 9999153111, 9999046881, 9999046879, 11357214261, 9999046876, 9999046875, 9999046873, 9999046871, 9999046869, 9045569762, 9045569764, 9842040924, 9842040925, 11220640237, 11220606436, 11220606435, 1983420635], "tags": {"admin_level": "4", "boundary": "administrative", "name": "\u0531\u0580\u0561\u0580\u0561\u057f - \u0535\u0580\u0587\u0561\u0576 \u057d\u0561\u0570\u0574\u0561\u0576", "name:en": "Ararat - Yerevan border", "name:hy": "\u0531\u0580\u0561\u0580\u0561\u057f - \u0535\u0580\u0587\u0561\u0576 \u057d\u0561\u0570\u0574\u0561\u0576", "name:ru": "\u0433\u0440\u0430\u043d\u0438\u0446\u0430 \u0410\u0440\u0430\u0440\u0430\u0442 - \u0415\u0440\u0435\u0432\u0430\u043d"}}, {"type": "way", "id": 998995705, "nodes": [9141576729, 9193228982, 9193228983, 9193228984, 9186387706], "tags": {"admin_level": "4", "boundary": "administrative", "name": "Border Kotayk - Yerevan", "source": "gadm.org"}}, {"type": "way", "id": 998995718, "nodes": [9276823871, 11015807702, 11015807700, 11015807697, 11015807694, 11015807689, 11015807686, 11015807683, 11015807680, 11015807678, 11015807674, 11015807672, 11015807668, 11015807665, 11073166584, 9186389027, 9201927997, 11015807650, 9201927996, 9201927998, 9193029006, 5224779848, 9193029000, 9193028999, 9193028995, 9186389029, 12441341197, 9186389030, 9193028982, 9193028980, 9186389031, 9186389032, 9186389033], "tags": {"admin_level": "4", "boundary": "administrative", "name": "Border Kotayk - Yerevan", "source": "gadm.org"}}, {"type": "way", "id": 999003182, "nodes": [592148871, 9186315841, 4607812192, 9182844595], "tags": {"admin_level": "4", "boundary": "administrative", "name": "Border Kotayk - Yerevan", "source": "gadm.org"}}, {"type": "way", "id": 999003185, "nodes": [9186308381, 9186308382, 9186308384, 9186308385, 9186308386, 9186308387, 9186308388, 9186308389, 9186308390, 9186308391, 4607796176, 9186308392, 9186308393, 9186308394, 9186308395, 9186308397, 9186308396, 592148838, 9186308398, 9186308400, 9186308399, 9186308401, 9186308402, 9186308403, 9186308404, 9186308405, 9186308406, 9186308407, 9186308408, 9186308409, 4607796175, 9186308410, 9186308411, 9186308412, 9186308413, 9186308414, 9186308415, 9186308416, 9186315817, 9186315818, 9186315819, 9186315820, 592148869, 9186315821], "tags": {"admin_level": "4", "boundary": "administrative", "name": "Border Kotayk - Yerevan", "source": "gadm.org"}}, {"type": "way", "id": 1002200732, "nodes": [9186387516, 11015807644, 9186389017, 9276823869, 9249704188, 9249704211, 9249704210, 9276823871], "tags": {"admin_level": "4", "boundary": "administrative", "name": "Border Kotayk - Yerevan", "source": "gadm.org"}}, {"type": "way", "id": 1002208614, "nodes": [9186387706, 9249797576, 9193228985, 9193228986, 9186387707, 9193228987, 9193228988, 9193228989, 9186387708, 9193228992, 9193228991, 9193228990, 9186387709, 9192389332, 9186387710, 9249797552, 9249797553, 9249797554, 9249797555, 9249797556, 9141576725], "tags": {"admin_level": "4", "boundary": "administrative", "name": "Border Kotayk - Yerevan", "source": "gadm.org"}}, {"type": "way", "id": 1014080198, "nodes": [9850581109, 9897432123, 9897432124, 9897432125, 9897432122, 9897432107, 9897432108, 9897432104, 9897432106, 9897432105, 9850581110, 9897432102, 9897432099, 9897432100, 9897432101, 9197546713, 9897432071, 9897432072, 9897432070, 9897432068, 9897432065, 9897432067, 9897432066, 9897432040, 9897432041, 5908007122, 9897432036, 9897432034, 9897432032, 9897432033, 9897432028, 9897432029, 9897432022, 11334836228, 11338093220, 9897432023, 9897432024, 5908007121, 9897432015, 9897432014, 9897432013, 9897432021, 9897432020, 9897432019, 592148807, 1982947314, 1982947335, 5908007120, 5908007119, 5908007118, 5908007117, 5908007116, 5908007115, 5908007114, 5908007113, 5908007112, 11303550294, 10014413529, 10014413530, 10014413536, 10014413537, 10014413531, 10014413532, 10014413539, 10014413533, 1360529862, 10014413544, 1360529662, 1360529751, 10014413546, 1360529844, 10014413548, 1360511849, 1360511918, 10014413555, 1360512036, 1360511830, 1360511968, 1360511822, 10014413561, 1360511962, 1360512078, 9897431964, 1360511883, 9897431963, 1360512015, 1360511805, 1360511945, 9942432634, 9942432633, 1360512059, 1360511789, 1360511924, 5908007111], "tags": {"admin_level": "4", "boundary": "administrative", "name": "\u0531\u0580\u0561\u0580\u0561\u057f - \u0535\u0580\u0587\u0561\u0576 \u057d\u0561\u0570\u0574\u0561\u0576", "name:en": "Ararat - Yerevan border", "name:hy": "\u0531\u0580\u0561\u0580\u0561\u057f - \u0535\u0580\u0587\u0561\u0576 \u057d\u0561\u0570\u0574\u0561\u0576"}}, {"type": "way", "id": 1014080200, "nodes": [5908007111, 10927599834, 1982947935, 9897431944, 9897431945, 9897431946, 9897431932, 2252713043, 1982947964, 2126233395, 9355893290, 11258679105, 9355893289, 9355893291, 9942432618, 9942432617], "tags": {"admin_level": "4", "boundary": "administrative", "name": "\u0531\u0580\u0561\u0580\u0561\u057f - \u0535\u0580\u0587\u0561\u0576 \u057d\u0561\u0570\u0574\u0561\u0576", "name:en": "Ararat - Yerevan border", "name:hy": "\u0531\u0580\u0561\u0580\u0561\u057f - \u0535\u0580\u0587\u0561\u0576 \u057d\u0561\u0570\u0574\u0561\u0576"}}, {"type": "way", "id": 1034786390, "nodes": [9182872960, 9897231574, 9182872959, 9593858065, 2122692241, 9877672598, 9182872958, 9182872957, 9875386684, 9875386683, 9182872956, 9182872955, 9182872954, 9999046858, 9249933655, 9249933654, 289113365, 289113366, 9920781418], "tags": {"admin_level": "4", "boundary": "administrative", "name": "\u0531\u0580\u0561\u0580\u0561\u057f - \u0535\u0580\u0587\u0561\u0576 \u057d\u0561\u0570\u0574\u0561\u0576", "name:en": "Ararat - Yerevan border", "name:hy": "\u0531\u0580\u0561\u0580\u0561\u057f - \u0535\u0580\u0587\u0561\u0576 \u057d\u0561\u0570\u0574\u0561\u0576"}}, {"type": "way", "id": 1037768828, "nodes": [9926583680, 9897316456, 9897316457, 9897316458, 8261702383, 9897316453, 9897316452, 9558692934, 9897316451, 9897316450, 9897316449, 9187125785, 9897316411, 9187125767, 9897316410, 9187125768, 9897316412, 9187125781, 9187125780, 9187125779, 9187125778, 9187125777, 9187125769, 9187125776, 9187125775, 9187125774, 9187125773, 9187125772, 9187125771, 11298873970, 11298873969, 11298873968, 11298873967, 9187125770, 9260680768], "tags": {"admin_level": "4", "boundary": "administrative", "name": "\u0531\u0580\u0561\u0580\u0561\u057f - \u0535\u0580\u0587\u0561\u0576 \u057d\u0561\u0570\u0574\u0561\u0576", "name:en": "Ararat - Yerevan border", "name:hy": "\u0531\u0580\u0561\u0580\u0561\u057f - \u0535\u0580\u0587\u0561\u0576 \u057d\u0561\u0570\u0574\u0561\u0576", "name:ru": "\u0433\u0440\u0430\u043d\u0438\u0446\u0430 \u0410\u0440\u0430\u0440\u0430\u0442 - \u0415\u0440\u0435\u0432\u0430\u043d"}}, {"type": "way", "id": 1038224052, "nodes": [9999046847, 10089551125, 9182972646, 10089551127, 9182972647, 10089551128, 10089551129, 10089551130, 10089551131, 10089551132, 7301965084, 7301965085, 9182972648, 7301965086, 9182972649, 7301965083, 9182972650, 592148766], "tags": {"admin_level": "4", "boundary": "administrative", "name": "\u0531\u0580\u0574\u0561\u057e\u056b\u0580 - \u0535\u0580\u0587\u0561\u0576 \u057d\u0561\u0570\u0574\u0561\u0576", "name:en": "Armavir - Yerevan border", "name:hy": "\u0531\u0580\u0574\u0561\u057e\u056b\u0580 - \u0535\u0580\u0587\u0561\u0576 \u057d\u0561\u0570\u0574\u0561\u0576"}}, {"type": "way", "id": 1074960832, "nodes": [9605006231, 9593661339, 10960611949, 10960611952, 9593661338, 9859286519, 9859286520, 9859286521, 9859286522, 9859286523, 9859286525, 9859286526, 9859286527, 9859286524, 9593661337, 9859286528, 9859286529, 9859286530, 9859286531, 9859286532, 9859286533, 9859286534, 9859286535, 9859286536, 11529334351, 9859286537, 9859286538, 9859286539, 9859286540, 9859286541, 11263520941, 9859286542, 9859286543, 9859286544, 9859286545, 9182872960], "tags": {"admin_level": "4", "boundary": "administrative", "name": "\u0531\u0580\u0574\u0561\u057e\u056b\u0580 - \u0535\u0580\u0587\u0561\u0576 \u057d\u0561\u0570\u0574\u0561\u0576", "name:en": "Armavir - Yerevan border", "name:hy": "\u0531\u0580\u0574\u0561\u057e\u056b\u0580 - \u0535\u0580\u0587\u0561\u0576 \u057d\u0561\u0570\u0574\u0561\u0576"}}, {"type": "way", "id": 1082308601, "nodes": [9141576725, 9186387711, 9249797557, 9249797558, 9249797559, 9249797560, 9249797561, 9249797566, 9249797562, 9249797565, 9249797564, 9249797563, 9186387712, 9249797567, 9249797568, 9249797569, 9249797570, 9249797571, 9249797572, 9249797573, 9186387715, 9249797574, 9249797575, 9186387716, 9186387714], "tags": {"admin_level": "4", "boundary": "administrative", "name": "Border Kotayk - Yerevan", "source": "gadm.org"}}, {"type": "way", "id": 1082497976, "nodes": [9920781418, 9850465477, 9182872953, 9850465476, 12460771687, 9593903047, 9999046857, 592148766], "tags": {"admin_level": "4", "boundary": "administrative", "name": "\u0531\u0580\u0561\u0580\u0561\u057f - \u0535\u0580\u0587\u0561\u0576 \u057d\u0561\u0570\u0574\u0561\u0576", "name:en": "Ararat - Yerevan border", "name:hy": "\u0531\u0580\u0561\u0580\u0561\u057f - \u0535\u0580\u0587\u0561\u0576 \u057d\u0561\u0570\u0574\u0561\u0576"}}, {"type": "way", "id": 1082502761, "nodes": [9240227513, 9999274925], "tags": {"admin_level": "4", "boundary": "administrative", "name": "\u0531\u0580\u0561\u0580\u0561\u057f - \u0535\u0580\u0587\u0561\u0576 \u057d\u0561\u0570\u0574\u0561\u0576", "name:en": "Ararat - Yerevan border", "name:hy": "\u0531\u0580\u0561\u0580\u0561\u057f - \u0535\u0580\u0587\u0561\u0576 \u057d\u0561\u0570\u0574\u0561\u0576", "name:ru": "\u0433\u0440\u0430\u043d\u0438\u0446\u0430 \u0410\u0440\u0430\u0440\u0430\u0442 - \u0415\u0440\u0435\u0432\u0430\u043d"}}, {"type": "way", "id": 1082502765, "nodes": [592148761, 9260680772, 9260680771, 11220605489, 9897316368, 9897316351, 9260680770, 9897316292, 9897316293, 9260680769, 9897316291, 9897316290, 11043071975, 9897316302, 9897316303, 9260680767, 9260680766, 9260680763, 9260680760, 9260680762, 5657760339, 6029481338, 8639638535, 5657760338, 11258679044, 11303525314, 11258679046, 9399727831, 10016894613, 9399727832, 8639638533, 9897298408, 10016991817, 8639638534, 10016991818, 8639638532, 8639638531, 8639638530, 9045569732, 9045569733, 9897231567, 9897231568, 9897231569, 9240227510, 9897231570, 9897231571, 9240227511, 9527078301, 9897231572, 9240227513], "tags": {"admin_level": "4", "boundary": "administrative", "name": "\u0531\u0580\u0561\u0580\u0561\u057f - \u0535\u0580\u0587\u0561\u0576 \u057d\u0561\u0570\u0574\u0561\u0576", "name:en": "Ararat - Yerevan border", "name:hy": "\u0531\u0580\u0561\u0580\u0561\u057f - \u0535\u0580\u0587\u0561\u0576 \u057d\u0561\u0570\u0574\u0561\u0576", "name:ru": "\u0433\u0440\u0430\u043d\u0438\u0446\u0430 \u0410\u0440\u0430\u0440\u0430\u0442 - \u0415\u0440\u0435\u0432\u0430\u043d"}}, {"type": "way", "id": 1082502769, "nodes": [9260680768, 9260680773, 592148761], "tags": {"admin_level": "4", "boundary": "administrative", "name": "\u0531\u0580\u0561\u0580\u0561\u057f - \u0535\u0580\u0587\u0561\u0576 \u057d\u0561\u0570\u0574\u0561\u0576", "name:en": "Ararat - Yerevan border", "name:hy": "\u0531\u0580\u0561\u0580\u0561\u057f - \u0535\u0580\u0587\u0561\u0576 \u057d\u0561\u0570\u0574\u0561\u0576", "name:ru": "\u0433\u0440\u0430\u043d\u0438\u0446\u0430 \u0410\u0440\u0430\u0440\u0430\u0442 - \u0415\u0440\u0435\u0432\u0430\u043d"}}, {"type": "way", "id": 1083158714, "nodes": [8935040624, 9897419814, 9850581143, 9897419813, 9897419812, 9897419811, 9897419810, 8261702384, 9869219924, 9897316505, 9926583680], "tags": {"admin_level": "4", "boundary": "administrative", "name": "\u0531\u0580\u0561\u0580\u0561\u057f - \u0535\u0580\u0587\u0561\u0576 \u057d\u0561\u0570\u0574\u0561\u0576", "name:en": "Ararat - Yerevan border", "name:hy": "\u0531\u0580\u0561\u0580\u0561\u057f - \u0535\u0580\u0587\u0561\u0576 \u057d\u0561\u0570\u0574\u0561\u0576", "name:ru": "\u0433\u0440\u0430\u043d\u0438\u0446\u0430 \u0410\u0440\u0430\u0440\u0430\u0442 - \u0415\u0440\u0435\u0432\u0430\u043d"}}, {"type": "way", "id": 1084429931, "nodes": [8349180046, 10014307098, 10014307100, 10014307102, 10014307103, 9850581098, 10014307104, 10014307105, 9850581093, 9897432140, 9850581094, 10014307106, 9897432141, 10014307107, 10014307108, 9850581095, 9897432142, 5908007124, 9850581096, 9850581097, 9850581108, 9850581109], "tags": {"admin_level": "4", "boundary": "administrative", "name": "\u0531\u0580\u0561\u0580\u0561\u057f - \u0535\u0580\u0587\u0561\u0576 \u057d\u0561\u0570\u0574\u0561\u0576", "name:en": "Ararat - Yerevan border", "name:hy": "\u0531\u0580\u0561\u0580\u0561\u057f - \u0535\u0580\u0587\u0561\u0576 \u057d\u0561\u0570\u0574\u0561\u0576"}}, {"type": "way", "id": 1106210605, "nodes": [10122733770, 10122733771, 10122733772, 10122733773, 10122733774, 10122733775, 10122733776, 10122733777, 10122733778, 10122733779, 10122733780, 10122733781, 10122733782, 10122733783, 10122733784, 10122733785, 10122733786, 10122733787, 10122733788, 10122733789, 10122733790, 10122733791, 10122733792, 10122733793, 10122733794, 10122733795, 10122733796, 10122733797, 10122733798, 10122733799, 10122733800, 10122733801, 10122733804, 10122733802, 10122733803, 10122733810, 10122733811, 10122733812, 10122733813, 10122733814, 10122733815, 10122733816, 10122738117, 10122738118, 10122738119, 10122738120, 10122738121, 10122738122, 10122738123, 10122738124, 10122738125, 10122738126, 10122738127, 10122738128, 10122738129, 10122738130, 10122738131, 10122738132, 10122738133, 9860372275], "tags": {"admin_level": "6", "boundary": "administrative"}}, {"type": "way", "id": 1119905506, "nodes": [10242806403, 10242806402, 10242806401, 9141238023, 5908007133, 9182687258, 10242806379, 9182687259, 9141238024, 9141238025, 9897432245, 9897432244, 5908007130, 9897432242, 9897432241, 9897432243, 9152244026], "tags": {"admin_level": "4", "boundary": "administrative", "name": "\u0535\u0580\u0587\u0561\u0576 - \u0531\u0580\u0561\u0580\u0561\u057f \u057d\u0561\u0570\u0574\u0561\u0576", "name:en": "Border Yerevan - Ararat", "name:hy": "\u0535\u0580\u0587\u0561\u0576 - \u0531\u0580\u0561\u0580\u0561\u057f \u057d\u0561\u0570\u0574\u0561\u0576", "source": "gadm.org"}}, {"type": "way", "id": 1133016198, "nodes": [9860372275, 9519323530, 10098162197, 9947466982, 10098162198, 9947466984, 10098162203, 9850483623, 9519323528, 9850483627, 9850483628, 9519323527, 9920865945, 9920865944, 9519323550], "tags": {"admin_level": "4", "boundary": "administrative", "name": "\u0531\u0580\u0561\u0580\u0561\u057f - \u0531\u0580\u0574\u0561\u057e\u056b\u0580 \u057d\u0561\u0570\u0574\u0561\u0576", "name:en": "Ararat - Armavir border", "name:hy": "\u0531\u0580\u0561\u0580\u0561\u057f - \u0531\u0580\u0574\u0561\u057e\u056b\u0580 \u057d\u0561\u0570\u0574\u0561\u0576"}}, {"type": "way", "id": 1133016228, "nodes": [9519323550, 10563777400, 10563777401, 10563777402, 10563777403, 10563777404, 10563777405], "tags": {"admin_level": "5", "boundary": "administrative"}}, {"type": "way", "id": 1133016229, "nodes": [10563777405, 10563807387, 10563807388, 10563807389, 10563807390, 10563807393, 10563807394, 10563807395, 10566564731], "tags": {"admin_level": "5", "boundary": "administrative"}}, {"type": "way", "id": 1133337752, "nodes": [10566564731, 10566564732, 10566564733, 10566564734, 10566564735, 10566564736, 10566564737, 10566564738, 10566564739, 10566564740, 10566564741, 10566564742, 10566564743, 10566564744], "tags": {"admin_level": "5", "boundary": "administrative"}}, {"type": "way", "id": 1133954073, "nodes": [1983420635, 9859286547, 10099453919, 10099453921, 10099453923, 10099453922, 10099453920, 9859286546, 10099453926, 10099453925, 10099453924, 10099453927, 11578533421, 592148764, 9272287128, 9272287129, 9272287130, 9272287131, 9272287133, 9272287134, 9272287135, 5099920043, 9272287122, 9150999733, 9272287121, 10582715489, 592148790, 10582715488, 9141047406, 9141047407, 10582715487, 10582715486, 12726941412, 10582715485, 9141009872, 10582715484, 12726940294, 10582715483, 12726940295, 9141047408, 10582715482, 10582715481, 10582715480, 10582715479, 10582715478, 10582715472, 10582715477, 10582715475, 10582715476, 10582715474, 10582715473, 10582715471, 10582715469, 10582715470, 10571945464, 9141047409], "tags": {"admin_level": "4", "boundary": "administrative", "name": "\u0531\u0580\u0574\u0561\u057e\u056b\u0580 - \u0535\u0580\u0587\u0561\u0576 \u057d\u0561\u0570\u0574\u0561\u0576", "name:en": "Armavir - Yerevan border", "name:hy": "\u0531\u0580\u0574\u0561\u057e\u056b\u0580 - \u0535\u0580\u0587\u0561\u0576 \u057d\u0561\u0570\u0574\u0561\u0576"}}, {"type": "way", "id": 1135131076, "nodes": [10581511461, 13318779183, 10581511462, 10581511463, 10581511464, 10581511465, 10581511466, 10581511467, 10581511468, 10581511469, 10581511470, 10581511471, 10581511472, 10581511473, 10581511474, 10581511475, 10581511476, 10581511477, 10581511478, 9658816268, 9658816267, 9658816266, 9658816265, 9658816264, 9658816263, 9658816262, 9658816261, 9658816256, 10581511479], "tags": {"admin_level": "5", "boundary": "administrative"}}, {"type": "way", "id": 1135131086, "nodes": [9999046838, 289113373, 289113372, 9551800187, 9999046842, 9999046844, 9999046846, 9999046847], "tags": {"admin_level": "4", "boundary": "administrative", "name": "\u0531\u0580\u0574\u0561\u057e\u056b\u0580 - \u0535\u0580\u0587\u0561\u0576 \u057d\u0561\u0570\u0574\u0561\u0576", "name:en": "Armavir - Yerevan border", "name:hy": "\u0531\u0580\u0574\u0561\u057e\u056b\u0580 - \u0535\u0580\u0587\u0561\u0576 \u057d\u0561\u0570\u0574\u0561\u0576"}}, {"type": "way", "id": 1135131088, "nodes": [10581511601, 10581511602, 10581511603, 9658816255, 10039670563, 9658816260, 9658816280, 10581511479], "tags": {"admin_level": "5", "boundary": "administrative"}}, {"type": "way", "id": 1135131092, "nodes": [9605006231, 9182972623, 9182972624, 9182972625, 9182972626, 9182972628, 9182972627, 9182972629, 9182972630, 9182972631, 9182972632, 9182972633, 9182972634, 9182972635, 9182972637, 9182972638, 9182972639, 10581511630], "tags": {"admin_level": "4", "boundary": "administrative", "name": "\u0531\u0580\u0574\u0561\u057e\u056b\u0580 - \u0535\u0580\u0587\u0561\u0576 \u057d\u0561\u0570\u0574\u0561\u0576", "name:en": "Armavir \u2013 Yerevan border", "name:hy": "\u0531\u0580\u0574\u0561\u057e\u056b\u0580 - \u0535\u0580\u0587\u0561\u0576 \u057d\u0561\u0570\u0574\u0561\u0576"}}, {"type": "way", "id": 1135286805, "nodes": [10566564744, 10566564804, 10566564805, 10566564806, 10566564807, 10566564808, 10566599509, 10566599510, 10566599511, 10566599545, 10566599512, 10566599513, 10566599514], "tags": {"admin_level": "5", "boundary": "administrative"}}, {"type": "way", "id": 1135286807, "nodes": [10122733770, 10582711023, 10582711024, 10582711025, 10582711026, 10582711027, 10582711028, 10582711029, 10582711030, 10581511601], "tags": {"admin_level": "5", "boundary": "administrative"}}, {"type": "way", "id": 1196310118, "nodes": [11101273707, 10895099183, 10895099185, 4607623089], "tags": {"admin_level": "4", "boundary": "administrative", "name": "\u0535\u0580\u0587\u0561\u0576 - \u053f\u0578\u057f\u0561\u0575\u0584 \u057d\u0561\u0570\u0574\u0561\u0576", "name:en": "Yerevan - Kotayk Border", "name:hy": "\u0535\u0580\u0587\u0561\u0576 - \u053f\u0578\u057f\u0561\u0575\u0584 \u057d\u0561\u0570\u0574\u0561\u0576", "source": "gadm.org"}}, {"type": "way", "id": 1196310121, "nodes": [9187108819, 9187108818, 9187108817, 9187155573, 9187094715], "tags": {"admin_level": "4", "boundary": "administrative", "name": "\u0535\u0580\u0587\u0561\u0576 - \u0531\u0580\u0561\u0563\u0561\u056e\u0578\u057f\u0576 \u057d\u0561\u0570\u0574\u0561\u0576", "name:en": "Yerevan - Aragatsotn Border", "name:hy": "\u0535\u0580\u0587\u0561\u0576 - \u0531\u0580\u0561\u0563\u0561\u056e\u0578\u057f\u0576 \u057d\u0561\u0570\u0574\u0561\u0576", "source": "gadm.org"}}, {"type": "way", "id": 1196351147, "nodes": [9165104411, 9165104412, 4607796182, 9186308366, 9186308367, 9186308368, 9186308369, 9186308370, 9186308371, 4607796183, 9186308372, 9186308373, 9186308374, 9186308375, 9186308377, 9186308376, 9186308378, 9186308379, 9186308380, 9186308383, 9186308381], "tags": {"admin_level": "4", "boundary": "administrative", "name": "Border Kotayk - Yerevan", "source": "gadm.org"}}, {"type": "way", "id": 1196351152, "nodes": [9165104386, 9165104387, 9165104388, 4607796178, 9165104389, 9165104390, 9165104391, 9165104392, 9165104393, 9165104394, 9165104395, 9165104396, 9165104397, 9165104398, 9165104399, 9165104400, 9165104401, 9165104402, 9165104403, 6443201121, 6240014903, 9165104404, 4607796179, 9165104405, 9165104406, 9197028726, 9165104407, 9165104408, 9165104409, 4607796180, 11073279328, 11073279327, 6865948480, 9182423809, 9165104410, 4607796181, 9165104411], "tags": {"admin_level": "4", "boundary": "administrative", "name": "\u0535\u0580\u0587\u0561\u0576 - \u053f\u0578\u057f\u0561\u0575\u0584 \u057d\u0561\u0570\u0574\u0561\u0576", "name:en": "Yerevan - Kotayk Border", "name:hy": "\u0535\u0580\u0587\u0561\u0576 - \u053f\u0578\u057f\u0561\u0575\u0584 \u057d\u0561\u0570\u0574\u0561\u0576", "source": "gadm.org"}}, {"type": "way", "id": 1196367142, "nodes": [9186315821, 9186315822, 9186315823, 9186315825, 9186315824, 9186315826, 9186315827, 9186315828, 9186315829, 9186315830, 9186315831, 9186315832, 9186315833, 9186315834, 9186315836, 9186315835, 9186315837, 9186315838, 9186315839, 9186315840], "tags": {"admin_level": "4", "boundary": "administrative", "name": "Border Kotayk - Yerevan", "source": "gadm.org"}}, {"type": "way", "id": 1196378889, "nodes": [9186315840, 592148871], "tags": {"admin_level": "4", "boundary": "administrative", "name": "Border Kotayk - Yerevan", "source": "gadm.org"}}, {"type": "way", "id": 1196378891, "nodes": [9182844595, 9186315846, 592148830, 9186315845, 9186315844, 9186315843, 11101694603], "tags": {"admin_level": "4", "boundary": "administrative", "name": "Border Kotayk - Yerevan", "source": "gadm.org"}}, {"type": "way", "id": 1196400678, "nodes": [9186387514, 9249704213, 9249704212, 9186387516], "tags": {"admin_level": "4", "boundary": "administrative", "name": "Border Kotayk - Yerevan", "source": "gadm.org"}}, {"type": "way", "id": 1196405202, "nodes": [10582711015, 10582711016, 10582711017, 10582711018, 10582711019, 10582711020, 1464069105, 10042570770, 10042570769, 10042570771, 1464069111, 10042570766, 5257081252, 5257081251, 5257081250, 5257081249, 5257081248, 5257081327, 10582711022, 10566599514], "tags": {"admin_level": "5", "boundary": "administrative"}}, {"type": "way", "id": 1196698061, "nodes": [10582696587, 10582696588, 10582696589, 10582696590, 10582696591, 10582711011, 10582711012, 10582711013, 10582711014, 10582711015], "tags": {"admin_level": "5", "boundary": "administrative"}}, {"type": "way", "id": 1196699743, "nodes": [10581511461, 13318779184, 10582696558, 10582696559, 10582696560, 10582696561, 10582696562, 10582696563, 10582696564, 10582696565, 10582696566, 10582696567, 10582696568, 10582696569, 10582696570, 10582696571, 10582696572, 10582696573], "tags": {"admin_level": "5", "boundary": "administrative"}}, {"type": "way", "id": 1196746963, "nodes": [9249802000, 9191135230], "tags": {"admin_level": "4", "boundary": "administrative", "name": "Border Kotayk - Yerevan", "source": "gadm.org"}}, {"type": "way", "id": 1196758965, "nodes": [9249801986, 9249801987, 9249801988, 9191135226, 9193229005, 9249801989, 9249801990, 9249801991, 9249801992, 9249801994, 9249801993, 9186461323, 9249801996, 8461225901, 9249801997, 9249801998, 9249801999, 9249802000], "tags": {"admin_level": "4", "boundary": "administrative", "name": "Border Kotayk - Yerevan", "source": "gadm.org"}}, {"type": "way", "id": 1196763886, "nodes": [9186389033, 11258679056, 11258679047, 11258679049, 11258679050, 11073166580, 9186389034, 11576963172, 9186389045], "tags": {"admin_level": "4", "boundary": "administrative", "name": "Border Kotayk - Yerevan", "source": "gadm.org"}}, {"type": "relation", "id": 364087, "members": [{"type": "node", "ref": 130040361, "role": "admin_centre"}, {"type": "way", "ref": 1196310121, "role": "outer"}, {"type": "way", "ref": 46343021, "role": "outer"}, {"type": "way", "ref": 118864691, "role": "outer"}, {"type": "way", "ref": 1133954073, "role": "outer"}, {"type": "way", "ref": 998995701, "role": "outer"}, {"type": "way", "ref": 1082502761, "role": "outer"}, {"type": "way", "ref": 1082502765, "role": "outer"}, {"type": "way", "ref": 1082502769, "role": "outer"}, {"type": "way", "ref": 1037768828, "role": "outer"}, {"type": "way", "ref": 1083158714, "role": "outer"}, {"type": "way", "ref": 782401960, "role": "outer"}, {"type": "way", "ref": 1014080200, "role": "outer"}, {"type": "way", "ref": 1014080198, "role": "outer"}, {"type": "way", "ref": 1084429931, "role": "outer"}, {"type": "way", "ref": 998995698, "role": "outer"}, {"type": "way", "ref": 1119905506, "role": "outer"}, {"type": "way", "ref": 46343023, "role": "outer"}, {"type": "way", "ref": 998995697, "role": "outer"}, {"type": "way", "ref": 1196746963, "role": "outer"}, {"type": "way", "ref": 1196758965, "role": "outer"}, {"type": "way", "ref": 896205420, "role": "outer"}, {"type": "way", "ref": 1082308601, "role": "outer"}, {"type": "way", "ref": 1002208614, "role": "outer"}, {"type": "way", "ref": 998995705, "role": "outer"}, {"type": "way", "ref": 996628914, "role": "outer"}, {"type": "way", "ref": 1196763886, "role": "outer"}, {"type": "way", "ref": 998995718, "role": "outer"}, {"type": "way", "ref": 1002200732, "role": "outer"}, {"type": "way", "ref": 1196400678, "role": "outer"}, {"type": "way", "ref": 782627968, "role": "outer"}, {"type": "way", "ref": 1196378891, "role": "outer"}, {"type": "way", "ref": 999003182, "role": "outer"}, {"type": "way", "ref": 1196378889, "role": "outer"}, {"type": "way", "ref": 1196367142, "role": "outer"}, {"type": "way", "ref": 999003185, "role": "outer"}, {"type": "way", "ref": 1196351147, "role": "outer"}, {"type": "way", "ref": 1196351152, "role": "outer"}, {"type": "way", "ref": 46343022, "role": "outer"}, {"type": "way", "ref": 1196310118, "role": "outer"}, {"type": "way", "ref": 995897948, "role": "outer"}, {"type": "way", "ref": 1034786390, "role": "outer"}, {"type": "way", "ref": 1074960832, "role": "outer"}, {"type": "way", "ref": 1135131092, "role": "outer"}, {"type": "way", "ref": 993945480, "role": "outer"}, {"type": "way", "ref": 1135131086, "role": "outer"}, {"type": "way", "ref": 1038224052, "role": "outer"}, {"type": "way", "ref": 1082497976, "role": "outer"}, {"type": "relation", "ref": 13404299, "role": "subarea"}, {"type": "relation", "ref": 13404250, "role": "subarea"}, {"type": "relation", "ref": 13404297, "role": "subarea"}, {"type": "relation", "ref": 13404298, "role": "subarea"}, {"type": "relation", "ref": 13404216, "role": "subarea"}, {"type": "relation", "ref": 13404218, "role": "subarea"}, {"type": "relation", "ref": 13404219, "role": "subarea"}, {"type": "relation", "ref": 13404220, "role": "subarea"}, {"type": "relation", "ref": 13404217, "role": "subarea"}, {"type": "relation", "ref": 13404214, "role": "subarea"}, {"type": "relation", "ref": 13404215, "role": "subarea"}, {"type": "relation", "ref": 13404296, "role": "subarea"}], "tags": {"ISO3166-2": "AM-ER", "admin_level": "4", "boundary": "administrative", "capital": "yes", "int_name": "Yerevan", "is_in:country": "Armenia", "is_in:country_code": "AM", "name": "\u0535\u0580\u0587\u0561\u0576", "name:ab": "\u0415\u0440\u0435\u0432\u0430\u043d", "name:ady": "\u0415\u0440\u0435\u0432\u0430\u043d", "name:af": "Jerewan", "name:ak": "Erevan", "name:am": "\u12ec\u122c\u126b\u1295", "name:an": "Erevan", "name:ar": "\u064a\u0631\u064a\u0641\u0627\u0646", "name:arz": "\u064a\u0631\u064a\u0641\u064a\u0627\u0646", "name:ast": "Yerev\u00e1n", "name:av": "\u0415\u0440\u0435\u0432\u0430\u043d", "name:avk": "Yerevan", "name:awa": "\u092f\u0947\u0930\u0947\u0935\u0928", "name:az": "\u0130r\u0259van", "name:azb": "\u0627\u06cc\u0631\u0648\u0627\u0646", "name:ba": "\u0415\u0440\u0435\u0432\u0430\u043d", "name:ban": "Yerevan", "name:bat-smg": "Jerevans", "name:bcl": "Yerevan", "name:be": "\u0415\u0440\u044d\u0432\u0430\u043d", "name:be-tarask": "\u0415\u0440\u044d\u0432\u0430\u043d", "name:bg": "\u0415\u0440\u0435\u0432\u0430\u043d", "name:bn": "\u0987\u09af\u09bc\u09c7\u09b0\u09c7\u09ad\u09be\u09a8", "name:bo": "\u0f61\u0f7a\u0f0b\u0f62\u0f7a\u0f0b\u0f5d\u0f53\u0f0d", "name:br": "Yerevan", "name:bs": "Erevan", "name:bxr": "\u0415\u0440\u0435\u0432\u0430\u043d", "name:ca": "Erevan", "name:cdo": "Yerevan", "name:ce": "\u0415\u0440\u0435\u0432\u0430\u043d", "name:ceb": "Yerevan", "name:ckb": "\u06cc\u06d5\u0631\u06cc\u06a4\u0627\u0646", "name:crh": "Yerevan", "name:cs": "Jerevan", "name:cv": "\u0415\u0440\u0435\u0432\u0430\u043d", "name:cy": "Yerevan", "name:da": "Jerevan", "name:de": "Jerewan", "name:diq": "Yer\u00eavan", "name:el": "\u0393\u03b9\u03b5\u03c1\u03b5\u03b2\u03ac\u03bd", "name:en": "Yerevan", "name:eo": "Erevano", "name:es": "Erev\u00e1n", "name:et": "Jerevan", "name:eu": "Erevan", "name:fa": "\u0627\u06cc\u0631\u0648\u0627\u0646", "name:ff": "Yerevan", "name:fi": "Jerevan", "name:fr": "Erevan", "name:frp": "Y\u00e8r\u00e8van", "name:fy": "Jerevan", "name:ga": "Eireav\u00e1n", "name:gag": "Erivan", "name:gd": "Yerevan", "name:gl": "Ierev\u00e1n - \u0535\u0580\u0565\u057e\u0561\u0576", "name:gv": "Yerevan", "name:haw": "Helewan", "name:he": "\u05d9\u05e8\u05d5\u05d5\u05d0\u05df", "name:hi": "\u092f\u0947\u0930\u0935\u093e\u0928", "name:hif": "Yerevan", "name:hr": "Erevan", "name:hsb": "Jerjewan", "name:ht": "Erev\u00e0n", "name:hu": "Jerev\u00e1n", "name:hy": "\u0535\u0580\u0587\u0561\u0576", "name:hyw": "\u0535\u0580\u0565\u0582\u0561\u0576", "name:ia": "Yerevan", "name:id": "Yerevan", "name:ie": "Jerevan", "name:ilo": "Yerevan", "name:io": "Yerevan", "name:is": "Jerevan", "name:it": "Yerevan", "name:ja": "\u30a8\u30ec\u30d0\u30f3", "name:jv": "Yerevan", "name:ka": "\u10d4\u10e0\u10d4\u10d5\u10d0\u10dc\u10d8", "name:kaa": "Erevan", "name:kab": "Erevan", "name:kk": "\u0415\u0440\u0435\u0432\u0430\u043d", "name:kn": "\u0caf\u0cc6\u0cb0\u0cc6\u0cb5\u0cbe\u0ca8\u0ccd", "name:ko": "\uc608\ub808\ubc18", "name:ku": "\u00car\u00eevan", "name:kv": "\u0415\u0440\u0435\u0432\u0430\u043d", "name:ky": "\u0415\u0440\u0435\u0432\u0430\u043d", "name:la": "Erevanum", "name:lad": "Djerevan", "name:lb": "Eriwan", "name:lez": "\u0415\u0440\u0435\u0432\u0430\u043d", "name:li": "Jerevan", "name:lij": "Erevan", "name:lmo": "Erevan", "name:lt": "Jerevanas", "name:lv": "Erev\u0101na", "name:lzh": "\u57c3\u91cc\u6eab", "name:mdf": "\u0415\u0440\u0435\u0432\u0430\u043d \u043e\u0448\u0441\u044c", "name:mg": "Yerevan", "name:mhr": "\u0415\u0440\u0435\u0432\u0430\u043d", "name:mi": "Yerevan", "name:mk": "\u0415\u0440\u0435\u0432\u0430\u043d", "name:ml": "\u0d2f\u0d46\u0d31\u0d3f\u0d35\u0d3e\u0d7b", "name:mn": "\u0415\u0440\u0435\u0432\u0430\u043d", "name:mni": "\uabcc\uabe6\uabd4\uabe6\uabda\uabe5\uabdf", "name:mr": "\u092f\u0947\u0930\u0947\u0935\u094d\u0939\u093e\u0928", "name:ms": "Yerevan", "name:myv": "\u0415\u0440\u0435\u0432\u0430\u043d \u043e\u0448", "name:mzn": "\u0627\u06cc\u0631\u0648\u0627\u0646", "name:nah": "Erevan", "name:nan": "Yerevan", "name:ne": "\u092f\u0947\u0930\u0935\u093e\u0928 \u092a\u094d\u0930\u093e\u0928\u094d\u0924", "name:nl": "Jerevan", "name:nn": "Jerevan", "name:no": "Jerevan", "name:nov": "Yerevan", "name:ny": "Yerevan", "name:oc": "Erevan", "name:os": "\u0415\u0440\u0435\u0432\u0430\u043d", "name:pa": "\u0a2f\u0a47\u0a30\u0a35\u0a3e\u0a28", "name:pap": "Yerevan", "name:pih": "Yerevan", "name:pl": "Erywa\u0144", "name:pms": "Erevan", "name:pnb": "\u06cc\u0631\u06cc\u0648\u0627\u0646", "name:pt": "Erevan", "name:qu": "Yiriwan", "name:ro": "Erevan", "name:ru": "\u0415\u0440\u0435\u0432\u0430\u043d", "name:rw": "Yerevan", "name:sa": "\u092f\u0947\u0930\u0947\u0935\u093e\u0928", "name:sah": "\u0415\u0440\u0435\u0432\u0430\u043d", "name:sat": "\u1c6d\u1c6e\u1c68\u1c6e\u1c75\u1c77\u1c5f\u1c71", "name:sc": "Erevan", "name:scn": "Erevan", "name:sco": "Yerevan", "name:sd": "\u064a\u0631\u064a\u0648\u0627\u0646", "name:sh": "Erevan", "name:simple": "Yerevan", "name:sk": "Jerevan", "name:sl": "Erevan", "name:sn": "Yerevan", "name:sq": "Jerevani", "name:sr": "\u0408\u0435\u0440\u0435\u0432\u0430\u043d", "name:su": "Y\u00e9r\u00e9van", "name:sv": "Jerevan", "name:sw": "Yerevan", "name:szl": "Erywa\u0144", "name:ta": "\u0baf\u0bc6\u0bb0\u0bc6\u0bb5\u0bbe\u0ba9\u0bcd", "name:te": "\u0c2f\u0c46\u0c30\u0c46\u0c35\u0c3e\u0c28\u0c4d", "name:tg": "\u0415\u0440\u0435\u0432\u0430\u043d", "name:th": "\u0e40\u0e22\u0e40\u0e23\u0e27\u0e32\u0e19", "name:tk": "\u00dderewan", "name:tl": "Yerevan", "name:tr": "Erivan", "name:tt": "\u0415\u0440\u0435\u0432\u0430\u043d", "name:tw": "E\u03b5r\u03b5wan", "name:udm": "\u0415\u0440\u0435\u0432\u0430\u043d", "name:ug": "\u064a\u06d0\u0631\u06d0\u06cb\u0627\u0646", "name:uk": "\u0404\u0440\u0435\u0432\u0430\u043d", "name:ur": "\u06cc\u0631\u06cc\u0648\u0627\u0646", "name:uz": "Yerevan", "name:vec": "\u00c8revan", "name:vep": "Jerevan", "name:vi": "Yerevan", "name:vls": "Yerevan", "name:vo": "Yerevan", "name:vro": "Jerevan", "name:war": "Yerevan", "name:wuu": "\u57c3\u91cc\u6e29", "name:xmf": "\u10d4\u10e0\u10d4\u10d5\u10d0\u10dc\u10d8", "name:yi": "\u05d9\u05e2\u05e8\u05e2\u05d5\u05d5\u05d0\u05df", "name:yo": "Yerevan", "name:yue": "\u57c3\u91cc\u6eab", "name:zea": "Jerevan", "name:zh": "\u8449\u91cc\u6eab", "place": "city", "type": "boundary", "wikidata": "Q1953", "wikipedia": "en:Yerevan"}}, {"type": "relation", "id": 7772201, "members": [{"type": "node", "ref": 130042088, "role": "admin_centre"}, {"type": "way", "ref": 1135286807, "role": "outer"}, {"type": "way", "ref": 1106210605, "role": "outer"}, {"type": "way", "ref": 1133016198, "role": "outer"}, {"type": "way", "ref": 1133016228, "role": "outer"}, {"type": "way", "ref": 1133016229, "role": "outer"}, {"type": "way", "ref": 1133337752, "role": "outer"}, {"type": "way", "ref": 1135286805, "role": "outer"}, {"type": "way", "ref": 1196699743, "role": "outer"}, {"type": "way", "ref": 543824286, "role": "outer"}, {"type": "way", "ref": 1196698061, "role": "outer"}, {"type": "way", "ref": 1196405202, "role": "outer"}, {"type": "way", "ref": 1135131076, "role": "outer"}, {"type": "way", "ref": 1135131088, "role": "outer"}], "tags": {"admin_level": "6", "boundary": "administrative", "is_in:country": "Armenia", "is_in:country_code": "AM", "is_in:municipality": "\u054e\u0561\u0572\u0561\u0580\u0577\u0561\u057a\u0561\u057f\u056b \u0570\u0561\u0574\u0561\u0575\u0576\u0584", "is_in:region": "\u0531\u0580\u0574\u0561\u057e\u056b\u0580\u056b \u0574\u0561\u0580\u0566", "name": "\u054e\u0561\u0572\u0561\u0580\u0577\u0561\u057a\u0561\u057f", "name:de": "Wagharschapat", "name:en": "Vagharshapat", "name:fa": "\u0648\u0627\u063a\u0627\u0631\u0634\u0627\u067e\u0627\u062a", "name:fr": "Vagharchapat", "name:hy": "\u054e\u0561\u0572\u0561\u0580\u0577\u0561\u057a\u0561\u057f", "name:ru": "\u0412\u0430\u0433\u0430\u0440\u0448\u0430\u043f\u0430\u0442", "old_name": "\u0537\u057b\u0574\u056b\u0561\u056e\u056b\u0576", "old_name:de": "Etschmiadsin", "old_name:fr": "Etchmiadzin", "old_name:hy": "\u0537\u057b\u0574\u056b\u0561\u056e\u056b\u0576", "old_name:ru": "\u042d\u0447\u043c\u0438\u0430\u0434\u0437\u0438\u043d", "place": "town", "type": "boundary", "wikidata": "Q183394", "wikipedia": "en:Vagharshapat"}}]}