{"version": 0.6, "generator": "Overpass API 0.7.62.8 e802775f", "osm3s": {"timestamp_osm_base": "2025-12-01T14:37:09Z", "copyright": "The data included in this document is from www.openstreetmap.org. The data is made available under ODbL."}, "elements": [{"type": "node", "id": 210178763, "lat": 39.7601008, "lon": 45.3302273, "tags": {"capital": "4", "int_name": "Yeghegnadzor", "is_in:country": "Armenia", "is_in:country_code": "AM", "is_in:municipality": "\u0535\u0572\u0565\u0563\u0576\u0561\u0571\u0578\u0580\u056b \u0570\u0561\u0574\u0561\u0575\u0576\u0584", "is_in:region": "\u054e\u0561\u0575\u0578\u0581 \u0571\u0578\u0580\u056b \u0574\u0561\u0580\u0566", "name": "\u0535\u0572\u0565\u0563\u0576\u0561\u0571\u0578\u0580", "name:ar": "\u064a\u063a\u063a\u0646\u0627\u062f\u0632\u0648\u0631", "name:az": "Ye\u011feqnadzor", "name:be": "\u0415\u0445\u0435\u0433\u043d\u0430\u0434\u0437\u043e\u0440", "name:bg": "\u0415\u0445\u0435\u0433\u043d\u0430\u0434\u0437\u043e\u0440", "name:ca": "Ieghegnadzor", "name:ce": "\u0415\u0445\u0435\u0433\u043d\u0430\u0434\u0437\u043e\u0440", "name:ckb": "\u06cc\u06ce\u063a\u06ce\u06af\u0646\u0627\u062f\u0632\u06c6\u0631", "name:cs": "Jeghegnadzor", "name:de": "Jeghegnadsor", "name:el": "\u0393\u03b5\u03b3\u03b5\u03b3\u03ba\u03bd\u03b1\u03bd\u03c4\u03b6\u03cc\u03c1", "name:en": "Yeghegnadzor", "name:eo": "Jeghegnadzor", "name:es": "Yeghegnadzor", "name:et": "Jeghegnadzor", "name:fa": "\u06cc\u063a\u06af\u0646\u0627\u062f\u0632\u0648\u0631", "name:fi": "Jeghegnadzor", "name:fr": "Eghegnazor", "name:hr": "Jehegnadzor", "name:hu": "Jehegnadzor", "name:hy": "\u0535\u0572\u0565\u0563\u0576\u0561\u0571\u0578\u0580", "name:id": "Yeghegnadzor", "name:it": "Yeghegnadzor", "name:ja": "\u30a4\u30a7\u30b2\u30b0\u30ca\u30be\u30eb", "name:ka": "\u10d4\u10e6\u10d4\u10d2\u10dc\u10d0\u10eb\u10dd\u10e0\u10d8", "name:ko": "\uc608\uac8c\uadf8\ub098\uc870\ub974", "name:ku": "Y\u00eax\u00eagnadzor", "name:lt": "Jeghegnadzoras", "name:lv": "Jehegnadzora", "name:ml": "\u0d2f\u0d46\u0d17\u0d46\u0d17\u0d4d\u0d28\u0d3e\u0d21\u0d4d\u0d38\u0d4b\u0d7c", "name:ms": "Yeghegnadzor", "name:nb": "Jeghegnadzor", "name:nl": "Jechegnadzor", "name:os": "\u0415\u0445\u0435\u0433\u043d\u0430\u0434\u0437\u043e\u0440", "name:pa": "\u0a2f\u0a47\u0a17\u0a47\u0a17\u0a28\u0a3e\u0a26\u0a1c\u0a4b\u0a30", "name:pl": "Jeghegnadzor", "name:ro": "Ehegnadzor", "name:ru": "\u0415\u0445\u0435\u0433\u043d\u0430\u0434\u0437\u043e\u0440", "name:sr": "\u0408\u0435\u0445\u0435\u0433\u043d\u0430\u045f\u043e\u0440", "name:sv": "Jeghegnadzor", "name:tr": "Ye\u011fegnadzor", "name:uk": "\u0404\u0433\u0435\u0491\u043d\u0430\u0434\u0437\u043e\u0440", "name:ur": "\u06cc\u063a\u06af\u0646\u062f\u0632\u0648\u0631", "name:vi": "Yeghegnadzor", "name:zh": "\u8449\u6d77\u683c\u7d0d\u4f50\u723e", "nat_name": "\u0535\u0572\u0565\u0563\u0576\u0561\u0571\u0578\u0580", "place": "town", "population": "7040", "population:date": "2022-01-01", "source:population": "Armstat", "wikidata": "Q39538", "wikipedia": "hy:\u0535\u0572\u0565\u0563\u0576\u0561\u0571\u0578\u0580"}}, {"type": "node", "id": 210207192, "lat": 39.7412168, "lon": 45.3471561}, {"type": "node", "id": 210207193, "lat": 39.7409267, "lon": 45.3458708}, {"type": "node", "id": 210207194, "lat": 39.7405162, "lon": 45.3438329}, {"type": "node", "id": 210207195, "lat": 39.7394955, "lon": 45.3425694}, {"type": "node", "id": 210207196, "lat": 39.738203, "lon": 45.3405164}, {"type": "node", "id": 210207198, "lat": 39.7377627, "lon": 45.338814}, {"type": "node", "id": 210207201, "lat": 39.7378164, "lon": 45.3369906}, {"type": "node", "id": 210207232, "lat": 39.7446409, "lon": 45.3200358}, {"type": "node", "id": 210207234, "lat": 39.7433809, "lon": 45.3185907}, {"type": "node", "id": 210207235, "lat": 39.7426899, "lon": 45.3177559}, {"type": "node", "id": 210207236, "lat": 39.7413494, "lon": 45.3168225}, {"type": "node", "id": 210207238, "lat": 39.7408791, "lon": 45.3162485}, {"type": "node", "id": 210207239, "lat": 39.739355, "lon": 45.3148999}, {"type": "node", "id": 210207242, "lat": 39.738365, "lon": 45.31387}, {"type": "node", "id": 210207245, "lat": 39.7371439, "lon": 45.3126416}, {"type": "node", "id": 210207249, "lat": 39.7372637, "lon": 45.3109469}, {"type": "node", "id": 210207250, "lat": 39.7374409, "lon": 45.3089776}, {"type": "node", "id": 210207251, "lat": 39.7374275, "lon": 45.3083824}, {"type": "node", "id": 210207252, "lat": 39.7360674, "lon": 45.3055742}, {"type": "node", "id": 210207253, "lat": 39.7356633, "lon": 45.304984}, {"type": "node", "id": 210207258, "lat": 39.7338779, "lon": 45.3025888}, {"type": "node", "id": 210207260, "lat": 39.7331413, "lon": 45.2980379}, {"type": "node", "id": 210207263, "lat": 39.7333458, "lon": 45.2968214}, {"type": "node", "id": 210207264, "lat": 39.7335867, "lon": 45.2959729}, {"type": "node", "id": 993559514, "lat": 39.7401781, "lon": 45.3630306}, {"type": "node", "id": 993559571, "lat": 39.7434024, "lon": 45.3504937}, {"type": "node", "id": 993559594, "lat": 39.7418356, "lon": 45.3578185}, {"type": "node", "id": 993559624, "lat": 39.7399554, "lon": 45.3639851}, {"type": "node", "id": 993559642, "lat": 39.7414563, "lon": 45.3596738}, {"type": "node", "id": 993559698, "lat": 39.7435591, "lon": 45.3533786}, {"type": "node", "id": 993559726, "lat": 39.741547, "lon": 45.3604353}, {"type": "node", "id": 993559767, "lat": 39.7432127, "lon": 45.3550194}, {"type": "node", "id": 993559846, "lat": 39.7410439, "lon": 45.3618187}, {"type": "node", "id": 993559919, "lat": 39.7426334, "lon": 45.3489654}, {"type": "node", "id": 993559982, "lat": 39.7425365, "lon": 45.3560811}, {"type": "node", "id": 993560012, "lat": 39.7437282, "lon": 45.35166}, {"type": "node", "id": 993560036, "lat": 39.741547, "lon": 45.358966}, {"type": "node", "id": 993560066, "lat": 39.7396915, "lon": 45.3648537}, {"type": "node", "id": 993560090, "lat": 39.7436828, "lon": 45.3526922}, {"type": "node", "id": 993560141, "lat": 39.7436601, "lon": 45.3541105}, {"type": "node", "id": 993560217, "lat": 39.7414068, "lon": 45.3614326}, {"type": "node", "id": 993560295, "lat": 39.7415923, "lon": 45.3478126}, {"type": "node", "id": 996071524, "lat": 39.8149965, "lon": 45.5301634, "tags": {"name": "\u053f\u0561\u0580\u0574\u0580\u0561\u0577\u0565\u0576", "name:en": "Karmrashen", "name:hy": "\u053f\u0561\u0580\u0574\u0580\u0561\u0577\u0565\u0576", "name:ru": "\u041a\u0430\u0440\u043c\u0440\u0430\u0448\u0435\u043d", "place": "village", "population": "192", "population:date": "2022-01-01", "source:population": "Armstat", "wikidata": "Q2536621", "wikipedia": "en:Karmrashen, Vayots Dzor"}}, {"type": "node", "id": 1363119631, "lat": 39.926358, "lon": 45.5125165, "tags": {"is_in:country": "Armenia", "is_in:country_code": "AM", "is_in:municipality": "\u0535\u0572\u0565\u0563\u056b\u057d\u056b \u0570\u0561\u0574\u0561\u0575\u0576\u0584", "is_in:region": "\u054e\u0561\u0575\u0578\u0581 \u0571\u0578\u0580\u056b \u0574\u0561\u0580\u0566", "name": "\u0533\u0565\u057f\u056b\u056f\u057e\u0561\u0576\u0584", "name:en": "Getikvanq", "name:hy": "\u0533\u0565\u057f\u056b\u056f\u057e\u0561\u0576\u0584", "name:ru": "\u0413\u0435\u0442\u0438\u043a\u0432\u0430\u043d\u043a", "place": "village", "population": "0", "population:date": "2022-01-01", "source:population": "Armstat", "wikidata": "Q3600260", "wikipedia": "en:Getikvank"}}, {"type": "node", "id": 1363386647, "lat": 39.8727362, "lon": 45.3298228, "tags": {"is_in:country": "Armenia", "is_in:country_code": "AM", "is_in:municipality": "\u0535\u0572\u0565\u0563\u056b\u057d\u056b \u0570\u0561\u0574\u0561\u0575\u0576\u0584", "is_in:region": "\u054e\u0561\u0575\u0578\u0581 \u0571\u0578\u0580\u056b \u0574\u0561\u0580\u0566", "name": "\u0531\u0580\u057f\u0561\u0562\u0578\u0582\u0575\u0576\u0584", "name:en": "Artabuynk", "name:hy": "\u0531\u0580\u057f\u0561\u0562\u0578\u0582\u0575\u0576\u0584", "name:ru": "\u0410\u0440\u0442\u0430\u0431\u0443\u0439\u043d\u043a", "old_name": "\u0540\u056b\u0576 \u0535\u0572\u0565\u0563\u056b\u057d", "place": "village", "population": "1084", "population:date": "2022-01-01", "source:population": "Armstat", "wikidata": "Q2536530", "wikipedia": "en:Artabuynk"}}, {"type": "node", "id": 1363386651, "lat": 39.8954938, "lon": 45.3358196, "tags": {"is_in:country": "Armenia", "is_in:country_code": "AM", "is_in:municipality": "\u0535\u0572\u0565\u0563\u056b\u057d\u056b \u0570\u0561\u0574\u0561\u0575\u0576\u0584", "is_in:region": "\u054e\u0561\u0575\u0578\u0581 \u0571\u0578\u0580\u056b \u0574\u0561\u0580\u0566", "name": "\u0540\u0578\u0580\u0562\u0561\u057f\u0565\u0572", "name:en": "Horbategh", "name:hy": "\u0540\u0578\u0580\u0562\u0561\u057f\u0565\u0572", "name:ru": "\u041e\u0440\u0431\u0430\u0442\u0435\u0445", "place": "village", "population": "251", "population:date": "2022-01-01", "source:population": "Armstat", "wikidata": "Q2672584", "wikipedia": "en:Horbategh"}}, {"type": "node", "id": 1363386655, "lat": 39.8740012, "lon": 45.4627193, "tags": {"is_in:country": "Armenia", "is_in:country_code": "AM", "is_in:municipality": "\u0535\u0572\u0565\u0563\u056b\u057d\u056b \u0570\u0561\u0574\u0561\u0575\u0576\u0584", "is_in:region": "\u054e\u0561\u0575\u0578\u0581 \u0571\u0578\u0580\u056b \u0574\u0561\u0580\u0566", "name": "\u0533\u0578\u0572\u0569\u0561\u0576\u056b\u056f", "name:en": "Goghtanik", "name:hy": "\u0533\u0578\u0572\u0569\u0561\u0576\u056b\u056f", "name:ru": "\u0413\u043e\u0445\u0442\u0430\u043d\u0438\u043a", "place": "village", "population": "190", "population:date": "2022-01-01", "source:population": "Armstat", "wikidata": "Q2536579", "wikipedia": "en:Goghtanik"}}, {"type": "node", "id": 1363386667, "lat": 39.9047587, "lon": 45.4399478, "tags": {"is_in:country": "Armenia", "is_in:country_code": "AM", "is_in:municipality": "\u0535\u0572\u0565\u0563\u056b\u057d\u056b \u0570\u0561\u0574\u0561\u0575\u0576\u0584", "is_in:region": "\u054e\u0561\u0575\u0578\u0581 \u0571\u0578\u0580\u056b \u0574\u0561\u0580\u0566", "name": "\u0531\u0580\u0561\u057f\u0565\u057d", "name:en": "Arates", "name:hy": "\u0531\u0580\u0561\u057f\u0565\u057d", "name:ru": "\u0410\u0440\u0430\u0442\u0435\u0441", "place": "village", "population": "0", "population:date": "2022-01-01", "source:population": "Armstat", "wikidata": "Q4784419", "wikipedia": "hy:\u0531\u0580\u0561\u057f\u0565\u057d"}}, {"type": "node", "id": 1363386676, "lat": 39.8990865, "lon": 45.4843809, "tags": {"is_in:country": "Armenia", "is_in:country_code": "AM", "is_in:municipality": "\u0535\u0572\u0565\u0563\u056b\u057d\u056b \u0570\u0561\u0574\u0561\u0575\u0576\u0584", "is_in:region": "\u054e\u0561\u0575\u0578\u0581 \u0571\u0578\u0580\u056b \u0574\u0561\u0580\u0566", "name": "\u054e\u0561\u0580\u0564\u0561\u0570\u0578\u057e\u056b\u057f", "name:en": "Vardahovit", "name:hy": "\u054e\u0561\u0580\u0564\u0561\u0570\u0578\u057e\u056b\u057f", "name:ru": "\u0412\u0430\u0440\u0434\u0430\u043e\u0432\u0438\u0442", "place": "village", "population": "199", "population:date": "2022-01-01", "source:population": "Armstat", "wikidata": "Q2672588", "wikipedia": "hy:\u054e\u0561\u0580\u0564\u0561\u0570\u0578\u057e\u056b\u057f"}}, {"type": "node", "id": 1363386679, "lat": 39.9127693, "lon": 45.4766704, "tags": {"is_in:country": "Armenia", "is_in:country_code": "AM", "is_in:municipality": "\u0535\u0572\u0565\u0563\u056b\u057d\u056b \u0570\u0561\u0574\u0561\u0575\u0576\u0584", "is_in:region": "\u054e\u0561\u0575\u0578\u0581 \u0571\u0578\u0580\u056b \u0574\u0561\u0580\u0566", "name": "\u054d\u0587\u0561\u056a\u0561\u0575\u057c", "name:en": "Sevazhayr", "name:hy": "\u054d\u0587\u0561\u056a\u0561\u0575\u057c", "name:ru": "\u0421\u0435\u0432\u0430\u0436\u0430\u0439\u0440", "place": "village", "population": "28", "population:date": "2022-01-01", "source:population": "Armstat", "wikidata": "Q2592964", "wikipedia": "en:Sevazhayr"}}, {"type": "node", "id": 1363386687, "lat": 39.8725793, "lon": 45.3593006, "tags": {"alt_name": "\u0546\u0578\u0580 \u0565\u0572\u0565\u0563\u056b\u057d", "is_in:country": "Armenia", "is_in:country_code": "AM", "is_in:municipality": "\u0535\u0572\u0565\u0563\u056b\u057d\u056b \u0570\u0561\u0574\u0561\u0575\u0576\u0584", "is_in:region": "\u054e\u0561\u0575\u0578\u0581 \u0571\u0578\u0580\u056b \u0574\u0561\u0580\u0566", "name": "\u0535\u0572\u0565\u0563\u056b\u057d", "name:en": "Yeghegis", "name:hy": "\u0535\u0572\u0565\u0563\u056b\u057d", "name:ru": "\u0415\u0445\u0435\u0433\u0438\u0441", "place": "village", "population": "364", "population:date": "2022-01-01", "source:population": "Armstat", "wikidata": "Q610325", "wikipedia": "hy:\u0535\u0572\u0565\u0563\u056b\u057d"}}, {"type": "node", "id": 1363386697, "lat": 39.8334617, "lon": 45.2988202, "tags": {"is_in:country": "Armenia", "is_in:country_code": "AM", "is_in:municipality": "\u0535\u0572\u0565\u0563\u056b\u057d\u056b \u0570\u0561\u0574\u0561\u0575\u0576\u0584", "is_in:region": "\u054e\u0561\u0575\u0578\u0581 \u0571\u0578\u0580\u056b \u0574\u0561\u0580\u0566", "name": "\u0547\u0561\u057f\u056b\u0576", "name:ckb": "\u0634\u0627\u062a\u06cc\u0646", "name:en": "Shatin", "name:hy": "\u0547\u0561\u057f\u056b\u0576", "name:ku": "\u015eat\u00een", "name:ru": "\u0428\u0430\u0442\u0438\u043d", "name:uk": "\u0428\u0430\u0442\u0456\u043d", "place": "village", "population": "1780", "population:date": "2022-01-01", "source:population": "Armstat", "wikidata": "Q2536626", "wikipedia": "hy:\u0547\u0561\u057f\u056b\u0576"}}, {"type": "node", "id": 1363386698, "lat": 39.8773933, "lon": 45.4276285, "tags": {"is_in:country": "Armenia", "is_in:country_code": "AM", "is_in:municipality": "\u0535\u0572\u0565\u0563\u056b\u057d\u056b \u0570\u0561\u0574\u0561\u0575\u0576\u0584", "is_in:region": "\u054e\u0561\u0575\u0578\u0581 \u0571\u0578\u0580\u056b \u0574\u0561\u0580\u0566", "name": "\u0540\u0565\u0580\u0574\u0578\u0576", "name:en": "Hermon", "name:hy": "\u0540\u0565\u0580\u0574\u0578\u0576", "name:ru": "\u042d\u0440\u043c\u043e\u043d", "place": "village", "population": "188", "population:date": "2022-01-01", "source:population": "Armstat", "wikidata": "Q2710084", "wikipedia": "hy:\u0540\u0565\u0580\u0574\u0578\u0576"}}, {"type": "node", "id": 1363550110, "lat": 39.873762, "lon": 45.2752905, "tags": {"is_in:country": "Armenia", "is_in:country_code": "AM", "is_in:municipality": "\u0535\u0572\u0565\u0563\u056b\u057d\u056b \u0570\u0561\u0574\u0561\u0575\u0576\u0584", "is_in:region": "\u054e\u0561\u0575\u0578\u0581 \u0571\u0578\u0580\u056b \u0574\u0561\u0580\u0566", "name": "\u054d\u0561\u056c\u056c\u056b", "name:en": "Salli", "name:hy": "\u054d\u0561\u056c\u056c\u056b", "name:ru": "\u0421\u0430\u043b\u043b\u0438", "place": "village", "population": "243", "population:date": "2022-01-01", "source:population": "Armstat", "wikidata": "Q2672563", "wikipedia": "en:Salli, Armenia"}}, {"type": "node", "id": 1363550154, "lat": 39.7659472, "lon": 45.1414301, "tags": {"is_in:country": "Armenia", "is_in:country_code": "AM", "is_in:municipality": "\u0531\u0580\u0565\u0576\u056b\u056b \u0570\u0561\u0574\u0561\u0575\u0576\u0584", "is_in:region": "\u054e\u0561\u0575\u0578\u0581 \u0571\u0578\u0580\u056b \u0574\u0561\u0580\u0566", "name": "\u0549\u056b\u057e\u0561", "name:en": "Chiva", "name:hy": "\u0549\u056b\u057e\u0561", "name:ru": "\u0427\u0438\u0432\u0430", "place": "village", "population": "800", "population:date": "2022-01-01", "source:population": "Armstat", "wikidata": "Q2536560", "wikipedia": "en:Chiva, Armenia"}}, {"type": "node", "id": 1363550269, "lat": 39.7836111, "lon": 45.2280556, "tags": {"is_in:country": "Armenia", "is_in:country_code": "AM", "is_in:municipality": "\u0531\u0580\u0565\u0576\u056b\u056b \u0570\u0561\u0574\u0561\u0575\u0576\u0584", "is_in:region": "\u054e\u0561\u0575\u0578\u0581 \u0571\u0578\u0580\u056b \u0574\u0561\u0580\u0566", "name": "\u0531\u0572\u0561\u057e\u0576\u0561\u0571\u0578\u0580", "name:en": "Aghavnadzor", "name:hy": "\u0531\u0572\u0561\u057e\u0576\u0561\u0571\u0578\u0580", "name:ru": "\u0410\u0433\u0430\u0432\u043d\u0430\u0434\u0437\u043e\u0440", "place": "village", "population": "1936", "population:date": "2022-01-01", "source:population": "Armstat", "wikidata": "Q2422770", "wikipedia": "en:Aghavnadzor, Vayots Dzor"}}, {"type": "node", "id": 1363550271, "lat": 39.8916804, "lon": 45.2531764, "tags": {"is_in:country": "Armenia", "is_in:country_code": "AM", "is_in:municipality": "\u0535\u0572\u0565\u0563\u056b\u057d\u056b \u0570\u0561\u0574\u0561\u0575\u0576\u0584", "is_in:region": "\u054e\u0561\u0575\u0578\u0581 \u0571\u0578\u0580\u056b \u0574\u0561\u0580\u0566", "name": "\u0539\u0561\u057c\u0561\u0569\u0578\u0582\u0574\u0562", "name:en": "Taratumb", "name:hy": "\u0539\u0561\u057c\u0561\u0569\u0578\u0582\u0574\u0562", "name:ru": "\u0422\u0430\u0440\u0430\u0442\u0443\u043c\u0431", "place": "village", "population": "431", "population:date": "2022-01-01", "source:population": "Armstat", "wikidata": "Q2536540", "wikipedia": "en:Taratumb"}}, {"type": "node", "id": 1363550329, "lat": 39.8993438, "lon": 45.2488976, "tags": {"is_in:country": "Armenia", "is_in:country_code": "AM", "is_in:municipality": "\u0535\u0572\u0565\u0563\u056b\u057d\u056b \u0570\u0561\u0574\u0561\u0575\u0576\u0584", "is_in:region": "\u054e\u0561\u0575\u0578\u0581 \u0571\u0578\u0580\u056b \u0574\u0561\u0580\u0566", "name": "\u0531\u0572\u0576\u057b\u0561\u0571\u0578\u0580", "name:en": "Aghnjadzor", "name:hy": "\u0531\u0572\u0576\u057b\u0561\u0571\u0578\u0580", "name:ru": "\u0410\u0433\u043d\u0434\u0436\u0430\u0434\u0437\u043e\u0440", "place": "village", "population": "457", "population:date": "2022-01-01", "source:population": "Armstat", "wikidata": "Q2673049", "wikipedia": "en:Aghnjadzor"}}, {"type": "node", "id": 1364921829, "lat": 39.8913959, "lon": 45.2679196, "tags": {"is_in:country": "Armenia", "is_in:country_code": "AM", "is_in:municipality": "\u0535\u0572\u0565\u0563\u056b\u057d\u056b \u0570\u0561\u0574\u0561\u0575\u0576\u0584", "is_in:region": "\u054e\u0561\u0575\u0578\u0581 \u0571\u0578\u0580\u056b \u0574\u0561\u0580\u0566", "name": "\u0554\u0561\u0580\u0561\u0563\u056c\u0578\u0582\u056d", "name:en": "Karaglukh", "name:hy": "\u0554\u0561\u0580\u0561\u0563\u056c\u0578\u0582\u056d", "name:ru": "\u041a\u0430\u0440\u0430\u0433\u043b\u0443\u0445", "place": "village", "population": "774", "population:date": "2022-01-01", "source:population": "Armstat", "wikidata": "Q2642319", "wikipedia": "en:Karaglukh"}}, {"type": "node", "id": 1364922017, "lat": 39.8085543, "lon": 45.1100175, "tags": {"is_in:country": "Armenia", "is_in:country_code": "AM", "is_in:municipality": "\u0531\u0580\u0565\u0576\u056b\u056b \u0570\u0561\u0574\u0561\u0575\u0576\u0584", "is_in:region": "\u054e\u0561\u0575\u0578\u0581 \u0571\u0578\u0580\u056b \u0574\u0561\u0580\u0566", "name": "\u0535\u056c\u0583\u056b\u0576", "name:en": "Yelpin", "name:hy": "\u0535\u056c\u0583\u056b\u0576", "name:ru": "\u0415\u043b\u043f\u0438\u043d", "place": "village", "population": "1231", "population:date": "2022-01-01", "source:population": "Armstat", "wikidata": "Q2536444", "wikipedia": "hy:\u0535\u056c\u0583\u056b\u0576"}}, {"type": "node", "id": 1364922018, "lat": 39.8625, "lon": 45.2302778, "tags": {"is_in:country": "Armenia", "is_in:country_code": "AM", "is_in:municipality": "\u0535\u0572\u0565\u0563\u056b\u057d\u056b \u0570\u0561\u0574\u0561\u0575\u0576\u0584", "is_in:region": "\u054e\u0561\u0575\u0578\u0581 \u0571\u0578\u0580\u056b \u0574\u0561\u0580\u0566", "name": "\u0540\u0578\u0580\u057d", "name:en": "Hors", "name:hy": "\u0540\u0578\u0580\u057d", "name:ru": "\u0413\u043e\u0440\u0441", "place": "village", "population": "214", "population:date": "2022-01-01", "source:population": "Armstat", "wikidata": "Q2396024", "wikipedia": "en:Hors, Armenia"}}, {"type": "node", "id": 1364922115, "lat": 39.6837925, "lon": 45.213491, "tags": {"is_in:country": "Armenia", "is_in:country_code": "AM", "is_in:municipality": "\u0531\u0580\u0565\u0576\u056b\u056b \u0570\u0561\u0574\u0561\u0575\u0576\u0584", "is_in:region": "\u054e\u0561\u0575\u0578\u0581 \u0571\u0578\u0580\u056b \u0574\u0561\u0580\u0566", "name": "\u0531\u0574\u0561\u0572\u0578\u0582", "name:en": "Amaghu", "name:hy": "\u0531\u0574\u0561\u0572\u0578\u0582", "name:ru": "\u0410\u043c\u0430\u0433\u0443", "place": "village", "population": "0", "population:date": "2022-01-01", "source:population": "Armstat", "wikidata": "Q4739129", "wikipedia": "en:Amaghu"}}, {"type": "node", "id": 1421936586, "lat": 39.6949574, "lon": 45.4445756}, {"type": "node", "id": 1421936588, "lat": 39.6896209, "lon": 45.457991}, {"type": "node", "id": 1421936598, "lat": 39.6855257, "lon": 45.481058}, {"type": "node", "id": 1421936601, "lat": 39.7024281, "lon": 45.4592098}, {"type": "node", "id": 1421936603, "lat": 39.6850964, "lon": 45.4778823}, {"type": "node", "id": 1421936605, "lat": 39.7019047, "lon": 45.4359325}, {"type": "node", "id": 1421936609, "lat": 39.7056852, "lon": 45.4385933}, {"type": "node", "id": 1421936613, "lat": 39.6952309, "lon": 45.473935}, {"type": "node", "id": 1421936615, "lat": 39.6996174, "lon": 45.4625885}, {"type": "node", "id": 1421936618, "lat": 39.6933047, "lon": 45.4708175}, {"type": "node", "id": 1472418920, "lat": 39.7643419, "lon": 45.5398749}, {"type": "node", "id": 1472418932, "lat": 39.7661221, "lon": 45.5368737}, {"type": "node", "id": 1472418942, "lat": 39.7676049, "lon": 45.5432593}, {"type": "node", "id": 1472418944, "lat": 39.7677476, "lon": 45.5371109}, {"type": "node", "id": 1472418948, "lat": 39.7685577, "lon": 45.5338418}, {"type": "node", "id": 1472418954, "lat": 39.7686925, "lon": 45.5354839}, {"type": "node", "id": 1472418964, "lat": 39.7698714, "lon": 45.544106}, {"type": "node", "id": 1472418970, "lat": 39.7729874, "lon": 45.5430085}, {"type": "node", "id": 1472418972, "lat": 39.7733828, "lon": 45.5321462}, {"type": "node", "id": 1472418997, "lat": 39.7761919, "lon": 45.5418254}, {"type": "node", "id": 1472418999, "lat": 39.7758693, "lon": 45.5330976}, {"type": "node", "id": 1472419007, "lat": 39.7788399, "lon": 45.5423928}, {"type": "node", "id": 1472419009, "lat": 39.7801517, "lon": 45.5348922}, {"type": "node", "id": 1472419022, "lat": 39.7809029, "lon": 45.537387}, {"type": "node", "id": 1472419058, "lat": 39.782708, "lon": 45.5375766}, {"type": "node", "id": 1472419059, "lat": 39.7827563, "lon": 45.5420214}, {"type": "node", "id": 1472419073, "lat": 39.785198, "lon": 45.540639}, {"type": "node", "id": 1472419074, "lat": 39.785412, "lon": 45.5400098}, {"type": "node", "id": 1472419175, "lat": 39.8119844, "lon": 45.5353028}, {"type": "node", "id": 1472419178, "lat": 39.8121421, "lon": 45.5333279}, {"type": "node", "id": 1472419184, "lat": 39.8123974, "lon": 45.5362218}, {"type": "node", "id": 1472419191, "lat": 39.8130733, "lon": 45.5326435}, {"type": "node", "id": 1472419194, "lat": 39.8132385, "lon": 45.5318223}, {"type": "node", "id": 1472419196, "lat": 39.8137417, "lon": 45.5296225}, {"type": "node", "id": 1472419198, "lat": 39.8138093, "lon": 45.5287426}, {"type": "node", "id": 1472419200, "lat": 39.813982, "lon": 45.5311086}, {"type": "node", "id": 1472419202, "lat": 39.8141923, "lon": 45.5360165}, {"type": "node", "id": 1472419210, "lat": 39.815086, "lon": 45.5277258}, {"type": "node", "id": 1472419211, "lat": 39.815131, "lon": 45.5365738}, {"type": "node", "id": 1472419218, "lat": 39.8164227, "lon": 45.5278627}, {"type": "node", "id": 1472419220, "lat": 39.8172184, "lon": 45.5342926}, {"type": "node", "id": 1472419228, "lat": 39.8174282, "lon": 45.5300263}, {"type": "node", "id": 1472419231, "lat": 39.8178492, "lon": 45.5328652}, {"type": "node", "id": 1472419233, "lat": 39.8190835, "lon": 45.5291156}, {"type": "node", "id": 1472419236, "lat": 39.8196364, "lon": 45.5309391}, {"type": "node", "id": 1472419438, "lat": 39.8690602, "lon": 45.361666}, {"type": "node", "id": 1472419442, "lat": 39.8691483, "lon": 45.3589899}, {"type": "node", "id": 1472419449, "lat": 39.8693863, "lon": 45.3629754}, {"type": "node", "id": 1472419477, "lat": 39.8706469, "lon": 45.3544043}, {"type": "node", "id": 1472419482, "lat": 39.8710255, "lon": 45.4636827}, {"type": "node", "id": 1472419486, "lat": 39.8713714, "lon": 45.3628439}, {"type": "node", "id": 1472419498, "lat": 39.8712593, "lon": 45.4669378}, {"type": "node", "id": 1472419507, "lat": 39.8714711, "lon": 45.4677849}, {"type": "node", "id": 1472419511, "lat": 39.8716966, "lon": 45.3651291}, {"type": "node", "id": 1472419538, "lat": 39.8726326, "lon": 45.4674232}, {"type": "node", "id": 1472419554, "lat": 39.8727275, "lon": 45.4587715}, {"type": "node", "id": 1472419565, "lat": 39.8729656, "lon": 45.3539901}, {"type": "node", "id": 1472419570, "lat": 39.8732087, "lon": 45.3655389}, {"type": "node", "id": 1472419581, "lat": 39.8732243, "lon": 45.4566205}, {"type": "node", "id": 1472419591, "lat": 39.8735091, "lon": 45.4695742}, {"type": "node", "id": 1472419593, "lat": 39.8735328, "lon": 45.3539414}, {"type": "node", "id": 1472419613, "lat": 39.8741249, "lon": 45.3626477}, {"type": "node", "id": 1472419614, "lat": 39.87413, "lon": 45.4567538}, {"type": "node", "id": 1472419626, "lat": 39.8744003, "lon": 45.4580196}, {"type": "node", "id": 1472419627, "lat": 39.8744076, "lon": 45.4692696}, {"type": "node", "id": 1472419628, "lat": 39.874474, "lon": 45.3637035}, {"type": "node", "id": 1472419645, "lat": 39.8749726, "lon": 45.3623338}, {"type": "node", "id": 1472419661, "lat": 39.875138, "lon": 45.4595044}, {"type": "node", "id": 1472419664, "lat": 39.8751599, "lon": 45.4605799}, {"type": "node", "id": 1472419671, "lat": 39.8752695, "lon": 45.4674422}, {"type": "node", "id": 1472419700, "lat": 39.8757143, "lon": 45.3631106}, {"type": "node", "id": 1472419713, "lat": 39.8758078, "lon": 45.3557687}, {"type": "node", "id": 1472419742, "lat": 39.8760511, "lon": 45.4709828}, {"type": "node", "id": 1472419768, "lat": 39.8764124, "lon": 45.3564509}, {"type": "node", "id": 1472419774, "lat": 39.8774002, "lon": 45.3593439}, {"type": "node", "id": 1472419794, "lat": 39.8767376, "lon": 45.4708591}, {"type": "node", "id": 1472419797, "lat": 39.876818, "lon": 45.4601897}, {"type": "node", "id": 1472419809, "lat": 39.8769349, "lon": 45.4653102}, {"type": "node", "id": 1472419816, "lat": 39.8772252, "lon": 45.3614449}, {"type": "node", "id": 1472419834, "lat": 39.8774461, "lon": 45.4642728}, {"type": "node", "id": 1472419841, "lat": 39.8775703, "lon": 45.4692887}, {"type": "node", "id": 1472419857, "lat": 39.8780159, "lon": 45.4615793}, {"type": "node", "id": 1472419859, "lat": 39.8780159, "lon": 45.4625786}, {"type": "node", "id": 1472420460, "lat": 39.8946351, "lon": 45.4839514}, {"type": "node", "id": 1472420463, "lat": 39.895741, "lon": 45.4812408}, {"type": "node", "id": 1472420468, "lat": 39.8969262, "lon": 45.4820792}, {"type": "node", "id": 1472420471, "lat": 39.8972258, "lon": 45.4879713}, {"type": "node", "id": 1472420474, "lat": 39.897521, "lon": 45.4812982}, {"type": "node", "id": 1472420476, "lat": 39.8989441, "lon": 45.4824985}, {"type": "node", "id": 1472420478, "lat": 39.8994639, "lon": 45.4908657}, {"type": "node", "id": 1472420480, "lat": 39.9003274, "lon": 45.4813327}, {"type": "node", "id": 1472420482, "lat": 39.9005654, "lon": 45.4918075}, {"type": "node", "id": 1472420483, "lat": 39.9019091, "lon": 45.4852607}, {"type": "node", "id": 1472420484, "lat": 39.9021673, "lon": 45.4410555}, {"type": "node", "id": 1472420490, "lat": 39.9023397, "lon": 45.442123}, {"type": "node", "id": 1472420492, "lat": 39.902473, "lon": 45.4817634}, {"type": "node", "id": 1472420494, "lat": 39.9025126, "lon": 45.4893496}, {"type": "node", "id": 1472420495, "lat": 39.9026404, "lon": 45.4866964}, {"type": "node", "id": 1472420496, "lat": 39.9028224, "lon": 45.4396937}, {"type": "node", "id": 1472420497, "lat": 39.9030342, "lon": 45.4406115}, {"type": "node", "id": 1472420500, "lat": 39.9040865, "lon": 45.4386956}, {"type": "node", "id": 1472420503, "lat": 39.9049936, "lon": 45.4378055}, {"type": "node", "id": 1472420506, "lat": 39.9051058, "lon": 45.4383983}, {"type": "node", "id": 1472420512, "lat": 39.9055109, "lon": 45.4372501}, {"type": "node", "id": 1472420514, "lat": 39.9055919, "lon": 45.44045}, {"type": "node", "id": 1472420517, "lat": 39.9062772, "lon": 45.4391099}, {"type": "node", "id": 1472420519, "lat": 39.9064703, "lon": 45.4377618}, {"type": "node", "id": 1472420522, "lat": 39.907249, "lon": 45.4408154}, {"type": "node", "id": 1472420525, "lat": 39.908034, "lon": 45.4389556}, {"type": "node", "id": 1472420527, "lat": 39.9083579, "lon": 45.4397596}, {"type": "node", "id": 1876490239, "lat": 39.7690365, "lon": 45.3433746}, {"type": "node", "id": 1876490241, "lat": 39.7741494, "lon": 45.3350792}, {"type": "node", "id": 1882772525, "lat": 39.737866, "lon": 45.3397879}, {"type": "node", "id": 1882772527, "lat": 39.7400404, "lon": 45.3433617}, {"type": "node", "id": 1962506528, "lat": 39.7415242, "lon": 45.3609052}, {"type": "node", "id": 1986989286, "lat": 39.8773651, "lon": 45.3609288}, {"type": "node", "id": 2235177379, "lat": 40.0042992, "lon": 45.2399361, "tags": {"alt_name": "\u0545\u0561\u0576\u0568\u0572", "is_in:country": "Armenia", "is_in:country_code": "AM", "is_in:municipality": "\u0544\u0561\u0580\u057f\u0578\u0582\u0576\u0578\u0582 \u0570\u0561\u0574\u0561\u0575\u0576\u0584", "is_in:region": "\u0533\u0565\u0572\u0561\u0580\u0584\u0578\u0582\u0576\u056b\u0584\u056b \u0574\u0561\u0580\u0566", "name": "\u0546\u0577\u056d\u0561\u0580\u0584", "name:en": "Nshkharq", "name:hy": "\u0546\u0577\u056d\u0561\u0580\u0584", "name:ru": "\u041d\u0448\u0445\u0430\u0440\u043a", "place": "village", "population": "0", "population:date": "2022-01-01", "source:population": "Armstat", "wikidata": "Q12134523", "wikipedia": "en:Nshkhark"}}, {"type": "node", "id": 2235775611, "lat": 39.6846404, "lon": 45.210073}, {"type": "node", "id": 2247265355, "lat": 39.804737, "lon": 45.1145398}, {"type": "node", "id": 2247265356, "lat": 39.8054483, "lon": 45.1146534}, {"type": "node", "id": 2247265358, "lat": 39.8057424, "lon": 45.1148371}, {"type": "node", "id": 2247265359, "lat": 39.8060301, "lon": 45.115378}, {"type": "node", "id": 2247265361, "lat": 39.8068331, "lon": 45.1156866}, {"type": "node", "id": 2464171263, "lat": 39.681182, "lon": 45.2177525}, {"type": "node", "id": 2464171658, "lat": 39.733904, "lon": 45.2997259}, {"type": "node", "id": 2464171660, "lat": 39.7340741, "lon": 45.3008845}, {"type": "node", "id": 2464171673, "lat": 39.7365476, "lon": 45.3074897}, {"type": "node", "id": 2469427229, "lat": 39.8722761, "lon": 45.2742053}, {"type": "node", "id": 2469427256, "lat": 39.8751264, "lon": 45.2721718}, {"type": "node", "id": 2559567558, "lat": 40.0721042, "lon": 45.2591804, "tags": {"is_in:country": "Armenia", "is_in:country_code": "AM", "is_in:municipality": "\u0544\u0561\u0580\u057f\u0578\u0582\u0576\u0578\u0582 \u0570\u0561\u0574\u0561\u0575\u0576\u0584", "is_in:region": "\u0533\u0565\u0572\u0561\u0580\u0584\u0578\u0582\u0576\u056b\u0584\u056b \u0574\u0561\u0580\u0566", "name": "\u053c\u0565\u057c\u0576\u0561\u056f\u0565\u0580\u057f", "name:en": "Lernakert", "name:hy": "\u053c\u0565\u057c\u0576\u0561\u056f\u0565\u0580\u057f", "name:ru": "\u041b\u0435\u0440\u043d\u0430\u043a\u0435\u0440\u0442", "old_name": "\u053c\u0565\u057c\u0576\u0561\u0570\u0578\u057e\u056b\u057f", "old_name:en": "Lernahovit", "old_name:hy": "\u053c\u0565\u057c\u0576\u0561\u0570\u0578\u057e\u056b\u057f", "old_name:ru": "\u041b\u0435\u0440\u043d\u0430\u043e\u0432\u0438\u0442", "place": "village", "population": "292", "population:date": "2022-01-01", "source:population": "Armstat", "wikidata": "Q6528841", "wikipedia": "en:Lernahovit, Gegharkunik"}}, {"type": "node", "id": 2725685601, "lat": 39.8861058, "lon": 45.2573906}, {"type": "node", "id": 2725685604, "lat": 39.8876635, "lon": 45.2562103}, {"type": "node", "id": 2725685613, "lat": 39.8855243, "lon": 45.2592916}, {"type": "node", "id": 2725685618, "lat": 39.8895291, "lon": 45.252268}, {"type": "node", "id": 2725685623, "lat": 39.8902174, "lon": 45.2459651}, {"type": "node", "id": 2725685632, "lat": 39.8905797, "lon": 45.2481605}, {"type": "node", "id": 2725685673, "lat": 39.8920105, "lon": 45.2585945}, {"type": "node", "id": 2725685677, "lat": 39.8923184, "lon": 45.2457055}, {"type": "node", "id": 2725685689, "lat": 39.8928799, "lon": 45.2467678}, {"type": "node", "id": 2725685690, "lat": 39.892898, "lon": 45.2460832}, {"type": "node", "id": 2725685708, "lat": 39.8937674, "lon": 45.2487035}, {"type": "node", "id": 2725685709, "lat": 39.8937674, "lon": 45.2552896}, {"type": "node", "id": 2725685734, "lat": 39.8949265, "lon": 45.251371}, {"type": "node", "id": 2725685742, "lat": 39.8952344, "lon": 45.2487271}, {"type": "node", "id": 2725687940, "lat": 40.0021887, "lon": 45.2435457}, {"type": "node", "id": 2725687988, "lat": 40.0025019, "lon": 45.2414683}, {"type": "node", "id": 2725688003, "lat": 40.0032579, "lon": 45.2451695}, {"type": "node", "id": 2725688088, "lat": 40.0042864, "lon": 45.2437366}, {"type": "node", "id": 2725688096, "lat": 40.0044625, "lon": 45.2377899}, {"type": "node", "id": 2725688117, "lat": 40.004803, "lon": 45.2376672}, {"type": "node", "id": 2725688154, "lat": 40.0056365, "lon": 45.2432308}, {"type": "node", "id": 2725688183, "lat": 40.006247, "lon": 45.2388014}, {"type": "node", "id": 2725688191, "lat": 40.0063644, "lon": 45.2432002}, {"type": "node", "id": 2725688215, "lat": 40.0072449, "lon": 45.2406253}, {"type": "node", "id": 2726028190, "lat": 39.7082761, "lon": 45.3127392, "tags": {"ele": "1826", "name": "\u054d\u0578\u0586\u056b", "name:en": "Sofi", "natural": "peak"}}, {"type": "node", "id": 2832387016, "lat": 39.7337013, "lon": 45.2950108}, {"type": "node", "id": 3413339194, "lat": 39.6903031, "lon": 45.4778172}, {"type": "node", "id": 3413342146, "lat": 39.6855566, "lon": 45.4667435}, {"type": "node", "id": 3559430141, "lat": 39.8711245, "lon": 45.2766403}, {"type": "node", "id": 3559430142, "lat": 39.8712818, "lon": 45.27817}, {"type": "node", "id": 3559430143, "lat": 39.8719354, "lon": 45.2764511}, {"type": "node", "id": 3559430144, "lat": 39.8722863, "lon": 45.2759307}, {"type": "node", "id": 3559430145, "lat": 39.8725768, "lon": 45.278375}, {"type": "node", "id": 3559430146, "lat": 39.8733635, "lon": 45.2778703}, {"type": "node", "id": 3559430147, "lat": 39.8740412, "lon": 45.2782961}, {"type": "node", "id": 3559430148, "lat": 39.8757355, "lon": 45.2776023}, {"type": "node", "id": 3559430149, "lat": 39.8768246, "lon": 45.2732184}, {"type": "node", "id": 3559430150, "lat": 39.876994, "lon": 45.2769557}, {"type": "node", "id": 3559430151, "lat": 39.8774055, "lon": 45.2750319}, {"type": "node", "id": 3559430152, "lat": 39.8853732, "lon": 45.2674221}, {"type": "node", "id": 3559430153, "lat": 39.8856185, "lon": 45.2679117}, {"type": "node", "id": 3559430154, "lat": 39.8884973, "lon": 45.265589}, {"type": "node", "id": 3559430155, "lat": 39.8902694, "lon": 45.2656054}, {"type": "node", "id": 3559430174, "lat": 39.8929573, "lon": 45.2654973}, {"type": "node", "id": 3559430177, "lat": 39.8931398, "lon": 45.2700602}, {"type": "node", "id": 3559430191, "lat": 39.894799, "lon": 45.2656703}, {"type": "node", "id": 3559430192, "lat": 39.895164, "lon": 45.2662326}, {"type": "node", "id": 3559432393, "lat": 39.8956119, "lon": 45.2668597}, {"type": "node", "id": 3559432394, "lat": 39.8963023, "lon": 45.2490652}, {"type": "node", "id": 3559432395, "lat": 39.8964083, "lon": 45.2670976}, {"type": "node", "id": 3559432396, "lat": 39.8965908, "lon": 45.2675301}, {"type": "node", "id": 3559432397, "lat": 39.8973208, "lon": 45.2684816}, {"type": "node", "id": 3559432398, "lat": 39.8986721, "lon": 45.2469244}, {"type": "node", "id": 3559432399, "lat": 39.8987659, "lon": 45.2515424}, {"type": "node", "id": 3559432400, "lat": 39.8987808, "lon": 45.2711631}, {"type": "node", "id": 3559432401, "lat": 39.8990628, "lon": 45.2698007}, {"type": "node", "id": 3559432402, "lat": 39.9002076, "lon": 45.2698224}, {"type": "node", "id": 3559432403, "lat": 39.9006887, "lon": 45.2728499}, {"type": "node", "id": 3559432404, "lat": 39.9022979, "lon": 45.272093}, {"type": "node", "id": 3559432405, "lat": 39.9025633, "lon": 45.2755314}, {"type": "node", "id": 3559432406, "lat": 39.9027309, "lon": 45.2502885}, {"type": "node", "id": 3559432407, "lat": 39.9034757, "lon": 45.276656}, {"type": "node", "id": 3559432408, "lat": 39.9035584, "lon": 45.2436254}, {"type": "node", "id": 3559432409, "lat": 39.9038241, "lon": 45.2754882}, {"type": "node", "id": 3559432410, "lat": 39.9044376, "lon": 45.2495724}, {"type": "node", "id": 3559432413, "lat": 39.9048192, "lon": 45.2430632}, {"type": "node", "id": 3559432414, "lat": 39.9051841, "lon": 45.2461556}, {"type": "node", "id": 3559432416, "lat": 39.9052339, "lon": 45.2467611}, {"type": "node", "id": 3559432418, "lat": 39.9057647, "lon": 45.2481667}, {"type": "node", "id": 3559432421, "lat": 39.9060468, "lon": 45.2464151}, {"type": "node", "id": 3559432426, "lat": 39.9067932, "lon": 45.2450527}, {"type": "node", "id": 3559432428, "lat": 39.9070587, "lon": 45.2434308}, {"type": "node", "id": 3559432434, "lat": 39.9081535, "lon": 45.2445337}, {"type": "node", "id": 3559432436, "lat": 39.9082198, "lon": 45.243128}, {"type": "node", "id": 3559959435, "lat": 39.8692369, "lon": 45.362557}, {"type": "node", "id": 3579166495, "lat": 39.7974569, "lon": 45.3652704}, {"type": "node", "id": 3579167475, "lat": 39.8248779, "lon": 45.2962714}, {"type": "node", "id": 3579167482, "lat": 39.8249884, "lon": 45.2977784}, {"type": "node", "id": 3579167597, "lat": 39.8252648, "lon": 45.2984331}, {"type": "node", "id": 3579167605, "lat": 39.8255617, "lon": 45.2985556}, {"type": "node", "id": 3579167625, "lat": 39.8260468, "lon": 45.2985186}, {"type": "node", "id": 3579167644, "lat": 39.8266113, "lon": 45.2982353}, {"type": "node", "id": 3579167694, "lat": 39.8285576, "lon": 45.2990775}, {"type": "node", "id": 3579167727, "lat": 39.8294778, "lon": 45.3004787}, {"type": "node", "id": 3579167751, "lat": 39.8300893, "lon": 45.3021625}, {"type": "node", "id": 3579167763, "lat": 39.8305773, "lon": 45.3004627}, {"type": "node", "id": 3579608368, "lat": 39.7870056, "lon": 45.3637953}, {"type": "node", "id": 3579608369, "lat": 39.7879733, "lon": 45.3621782}, {"type": "node", "id": 3579608370, "lat": 39.7881796, "lon": 45.3646644}, {"type": "node", "id": 3579608371, "lat": 39.789429, "lon": 45.3636412}, {"type": "node", "id": 3579608372, "lat": 39.7894573, "lon": 45.3599266}, {"type": "node", "id": 3579608373, "lat": 39.7894896, "lon": 45.3595762}, {"type": "node", "id": 3579608374, "lat": 39.7900537, "lon": 45.3583848}, {"type": "node", "id": 3579608375, "lat": 39.7900968, "lon": 45.3639635}, {"type": "node", "id": 3579608376, "lat": 39.7915508, "lon": 45.3652111}, {"type": "node", "id": 3579608377, "lat": 39.7918193, "lon": 45.3601999}, {"type": "node", "id": 3579608378, "lat": 39.7929531, "lon": 45.3614721}, {"type": "node", "id": 3579608379, "lat": 39.7931556, "lon": 45.3660521}, {"type": "node", "id": 3579608385, "lat": 39.794168, "lon": 45.366024}, {"type": "node", "id": 3579608388, "lat": 39.795662, "lon": 45.3623499}, {"type": "node", "id": 3579608412, "lat": 39.7977318, "lon": 45.3634029}, {"type": "node", "id": 3579608416, "lat": 39.798923, "lon": 45.3650199}, {"type": "node", "id": 3579608417, "lat": 39.7989918, "lon": 45.3644682}, {"type": "node", "id": 3579608531, "lat": 39.8272936, "lon": 45.2961273}, {"type": "node", "id": 3579608564, "lat": 39.829423, "lon": 45.2948497}, {"type": "node", "id": 3579608585, "lat": 39.8305057, "lon": 45.3031512}, {"type": "node", "id": 3579608635, "lat": 39.8333686, "lon": 45.2949856}, {"type": "node", "id": 3579608659, "lat": 39.8345939, "lon": 45.2979013}, {"type": "node", "id": 3579608662, "lat": 39.8346628, "lon": 45.2915332}, {"type": "node", "id": 3579608665, "lat": 39.8349334, "lon": 45.2996506}, {"type": "node", "id": 3579608667, "lat": 39.8349776, "lon": 45.2984203}, {"type": "node", "id": 3579608670, "lat": 39.8350677, "lon": 45.3042114}, {"type": "node", "id": 3579608685, "lat": 39.8356231, "lon": 45.2913157}, {"type": "node", "id": 3579608703, "lat": 39.8362618, "lon": 45.2950949}, {"type": "node", "id": 3579608746, "lat": 39.8370736, "lon": 45.2940953}, {"type": "node", "id": 3579608767, "lat": 39.8374682, "lon": 45.3057609}, {"type": "node", "id": 3579608781, "lat": 39.8377731, "lon": 45.29137}, {"type": "node", "id": 3579608783, "lat": 39.8378264, "lon": 45.3008808}, {"type": "node", "id": 3579608815, "lat": 39.8394095, "lon": 45.3067396}, {"type": "node", "id": 3579608828, "lat": 39.8399648, "lon": 45.2953662}, {"type": "node", "id": 3579608838, "lat": 39.8404684, "lon": 45.3007078}, {"type": "node", "id": 3579608866, "lat": 39.8417808, "lon": 45.2930011}, {"type": "node", "id": 3579608869, "lat": 39.8420772, "lon": 45.3041678}, {"type": "node", "id": 3579608872, "lat": 39.8421657, "lon": 45.3018227}, {"type": "node", "id": 3579608873, "lat": 39.8422395, "lon": 45.3033797}, {"type": "node", "id": 3579608875, "lat": 39.8425404, "lon": 45.3101376}, {"type": "node", "id": 3579608889, "lat": 39.8436564, "lon": 45.3058017}, {"type": "node", "id": 3579608892, "lat": 39.8437006, "lon": 45.3066475}, {"type": "node", "id": 3579608895, "lat": 39.843863, "lon": 45.3137982}, {"type": "node", "id": 3579608923, "lat": 39.8459439, "lon": 45.3115684}, {"type": "node", "id": 3579608925, "lat": 39.8462686, "lon": 45.3152591}, {"type": "node", "id": 3579608926, "lat": 39.8465195, "lon": 45.307897}, {"type": "node", "id": 3579608927, "lat": 39.8466081, "lon": 45.3092425}, {"type": "node", "id": 3579608928, "lat": 39.8467999, "lon": 45.3128371}, {"type": "node", "id": 3579608929, "lat": 39.8477991, "lon": 45.3177701}, {"type": "node", "id": 3579608930, "lat": 39.853838, "lon": 45.3262334}, {"type": "node", "id": 3579608932, "lat": 39.8507986, "lon": 45.3162135}, {"type": "node", "id": 3579608968, "lat": 39.8581684, "lon": 45.2242209}, {"type": "node", "id": 3579608969, "lat": 39.8582938, "lon": 45.2235385}, {"type": "node", "id": 3579608971, "lat": 39.8585151, "lon": 45.2250571}, {"type": "node", "id": 3579608974, "lat": 39.8588545, "lon": 45.22721}, {"type": "node", "id": 3579608978, "lat": 39.8593267, "lon": 45.2219143}, {"type": "node", "id": 3579608981, "lat": 39.8600349, "lon": 45.229113}, {"type": "node", "id": 3579608991, "lat": 39.8607137, "lon": 45.2304586}, {"type": "node", "id": 3579608996, "lat": 39.8613924, "lon": 45.2223275}, {"type": "node", "id": 3579608997, "lat": 39.8614367, "lon": 45.2367635}, {"type": "node", "id": 3579609002, "lat": 39.8616433, "lon": 45.2337072}, {"type": "node", "id": 3579609003, "lat": 39.8616538, "lon": 45.2236467}, {"type": "node", "id": 3579609008, "lat": 39.8623958, "lon": 45.2377823}, {"type": "node", "id": 3579609010, "lat": 39.8625406, "lon": 45.2255496}, {"type": "node", "id": 3579609022, "lat": 39.863222, "lon": 45.2360715}, {"type": "node", "id": 3579609025, "lat": 39.8632663, "lon": 45.2281711}, {"type": "node", "id": 3579609031, "lat": 39.8635319, "lon": 45.2290553}, {"type": "node", "id": 3579609035, "lat": 39.8638122, "lon": 45.2353218}, {"type": "node", "id": 3579609038, "lat": 39.8640483, "lon": 45.2330151}, {"type": "node", "id": 3579609047, "lat": 39.8645204, "lon": 45.2299972}, {"type": "node", "id": 3579609053, "lat": 39.8650073, "lon": 45.2311698}, {"type": "node", "id": 3613370233, "lat": 39.7955438, "lon": 45.1090574}, {"type": "node", "id": 3613370234, "lat": 39.8017156, "lon": 45.1037785}, {"type": "node", "id": 3613370235, "lat": 39.8028788, "lon": 45.1141395}, {"type": "node", "id": 3613370236, "lat": 39.8053479, "lon": 45.1013915}, {"type": "node", "id": 3613370237, "lat": 39.8056804, "lon": 45.1060443}, {"type": "node", "id": 3613370238, "lat": 39.8060048, "lon": 45.1022399}, {"type": "node", "id": 3613370239, "lat": 39.8075028, "lon": 45.1155745}, {"type": "node", "id": 3613370240, "lat": 39.8110644, "lon": 45.1148898}, {"type": "node", "id": 3613370245, "lat": 39.8143485, "lon": 45.1060455}, {"type": "node", "id": 3613370246, "lat": 39.8146448, "lon": 45.10873}, {"type": "node", "id": 3613370247, "lat": 39.8123735, "lon": 45.1117474}, {"type": "node", "id": 3613370248, "lat": 39.8158258, "lon": 45.1111703}, {"type": "node", "id": 3648441910, "lat": 39.8530687, "lon": 45.318067}, {"type": "node", "id": 3648441911, "lat": 39.8548621, "lon": 45.3181108}, {"type": "node", "id": 3648441912, "lat": 39.855154, "lon": 45.3189817}, {"type": "node", "id": 3648441913, "lat": 39.8580477, "lon": 45.3190279}, {"type": "node", "id": 3648441914, "lat": 39.8595251, "lon": 45.3147109}, {"type": "node", "id": 3648441915, "lat": 39.8605247, "lon": 45.3198246}, {"type": "node", "id": 3648441916, "lat": 39.8611815, "lon": 45.317512}, {"type": "node", "id": 3648441917, "lat": 39.8621933, "lon": 45.3179745}, {"type": "node", "id": 3648441918, "lat": 39.8622111, "lon": 45.3218828}, {"type": "node", "id": 3648441919, "lat": 39.8625839, "lon": 45.3239872}, {"type": "node", "id": 3648441920, "lat": 39.8636134, "lon": 45.3264154}, {"type": "node", "id": 3648441921, "lat": 39.8646607, "lon": 45.3218828}, {"type": "node", "id": 3648441922, "lat": 39.8651932, "lon": 45.3241491}, {"type": "node", "id": 3648441923, "lat": 39.8656015, "lon": 45.328173}, {"type": "node", "id": 3648441924, "lat": 39.8659032, "lon": 45.3245653}, {"type": "node", "id": 3648443625, "lat": 39.8666665, "lon": 45.3265079}, {"type": "node", "id": 3648443626, "lat": 39.8679444, "lon": 45.3235247}, {"type": "node", "id": 3648443627, "lat": 39.8679444, "lon": 45.3291905}, {"type": "node", "id": 3648443628, "lat": 39.8690693, "lon": 45.3270356}, {"type": "node", "id": 3648443629, "lat": 39.8687077, "lon": 45.3250972}, {"type": "node", "id": 3648443630, "lat": 39.8701276, "lon": 45.3263691}, {"type": "node", "id": 3648443631, "lat": 39.8702873, "lon": 45.3289824}, {"type": "node", "id": 3648443632, "lat": 39.8716717, "lon": 45.329838}, {"type": "node", "id": 3648443633, "lat": 39.8724882, "lon": 45.3268779}, {"type": "node", "id": 3648443634, "lat": 39.8738548, "lon": 45.3266004}, {"type": "node", "id": 3648443635, "lat": 39.8742452, "lon": 45.3279648}, {"type": "node", "id": 3648443636, "lat": 39.8747202, "lon": 45.3327619}, {"type": "node", "id": 3648443637, "lat": 39.8753633, "lon": 45.3306243}, {"type": "node", "id": 3648443638, "lat": 39.8752379, "lon": 45.3327598}, {"type": "node", "id": 3648443639, "lat": 39.875736, "lon": 45.3286123}, {"type": "node", "id": 3648443640, "lat": 39.8764637, "lon": 45.3322431}, {"type": "node", "id": 3648443641, "lat": 39.8760818, "lon": 45.3333904}, {"type": "node", "id": 3648443642, "lat": 39.8763311, "lon": 45.3338057}, {"type": "node", "id": 3648443643, "lat": 39.8768449, "lon": 45.3329083}, {"type": "node", "id": 3653769862, "lat": 39.768275, "lon": 45.2277382}, {"type": "node", "id": 3653769870, "lat": 39.7687223, "lon": 45.230793}, {"type": "node", "id": 3653769874, "lat": 39.7690353, "lon": 45.2334404}, {"type": "node", "id": 3653769878, "lat": 39.769259, "lon": 45.226749}, {"type": "node", "id": 3653769897, "lat": 39.7705559, "lon": 45.2370771}, {"type": "node", "id": 3653769898, "lat": 39.7706454, "lon": 45.2274181}, {"type": "node", "id": 3653769909, "lat": 39.7711373, "lon": 45.2362916}, {"type": "node", "id": 3653769913, "lat": 39.7715175, "lon": 45.2386481}, {"type": "node", "id": 3653769921, "lat": 39.7719423, "lon": 45.2265744}, {"type": "node", "id": 3653769929, "lat": 39.7727026, "lon": 45.2252652}, {"type": "node", "id": 3653769936, "lat": 39.7733063, "lon": 45.2257598}, {"type": "node", "id": 3653769939, "lat": 39.7735076, "lon": 45.2368444}, {"type": "node", "id": 3653769944, "lat": 39.7744691, "lon": 45.2378626}, {"type": "node", "id": 3653769950, "lat": 39.7746703, "lon": 45.2255562}, {"type": "node", "id": 3653769960, "lat": 39.7763697, "lon": 45.2317821}, {"type": "node", "id": 3653769962, "lat": 39.7766156, "lon": 45.2362043}, {"type": "node", "id": 3653769966, "lat": 39.7773088, "lon": 45.2250325}, {"type": "node", "id": 3653769967, "lat": 39.7774429, "lon": 45.231113}, {"type": "node", "id": 3653769974, "lat": 39.7792093, "lon": 45.2285528}, {"type": "node", "id": 3653769977, "lat": 39.7796788, "lon": 45.223956}, {"type": "node", "id": 3653769980, "lat": 39.7811097, "lon": 45.2282909}, {"type": "node", "id": 3653769981, "lat": 39.7811545, "lon": 45.2251489}, {"type": "node", "id": 3653769985, "lat": 39.7823394, "lon": 45.2253816}, {"type": "node", "id": 3653769986, "lat": 39.7825406, "lon": 45.2283491}, {"type": "node", "id": 3653769997, "lat": 39.7850893, "lon": 45.2253234}, {"type": "node", "id": 3653769998, "lat": 39.7852011, "lon": 45.2293965}, {"type": "node", "id": 3653769999, "lat": 39.7873921, "lon": 45.2235778}, {"type": "node", "id": 3653770000, "lat": 39.788644, "lon": 45.2300947}, {"type": "node", "id": 3653770001, "lat": 39.7888452, "lon": 45.2223559}, {"type": "node", "id": 3653770019, "lat": 39.7909466, "lon": 45.2283782}, {"type": "node", "id": 3653770021, "lat": 39.7911701, "lon": 45.2223559}, {"type": "node", "id": 3653770058, "lat": 39.7926232, "lon": 45.2259344}, {"type": "node", "id": 3653770059, "lat": 39.7926455, "lon": 45.2235487}, {"type": "node", "id": 3659682996, "lat": 39.7776647, "lon": 45.3543877}, {"type": "node", "id": 3659683008, "lat": 39.7796624, "lon": 45.3385507}, {"type": "node", "id": 3659683011, "lat": 39.7801474, "lon": 45.3432691}, {"type": "node", "id": 3659683015, "lat": 39.7808634, "lon": 45.3408047}, {"type": "node", "id": 3659683024, "lat": 39.7817856, "lon": 45.3559177}, {"type": "node", "id": 3659683127, "lat": 39.7818796, "lon": 45.3449821}, {"type": "node", "id": 3659683131, "lat": 39.7823007, "lon": 45.3566609}, {"type": "node", "id": 3659683135, "lat": 39.7834429, "lon": 45.3567483}, {"type": "node", "id": 3659683136, "lat": 39.7834732, "lon": 45.3444412}, {"type": "node", "id": 3659683138, "lat": 39.7844059, "lon": 45.3580889}, {"type": "node", "id": 3659683143, "lat": 39.7859623, "lon": 45.3591526}, {"type": "node", "id": 3659683144, "lat": 39.786106, "lon": 45.3481678}, {"type": "node", "id": 3659683147, "lat": 39.7871291, "lon": 45.3633882}, {"type": "node", "id": 3659683148, "lat": 39.7872145, "lon": 45.3481978}, {"type": "node", "id": 3659683149, "lat": 39.7876163, "lon": 45.3634344}, {"type": "node", "id": 3659683150, "lat": 39.7876533, "lon": 45.3511731}, {"type": "node", "id": 3659683151, "lat": 39.7876866, "lon": 45.3587883}, {"type": "node", "id": 3659683152, "lat": 39.7879646, "lon": 45.3629502}, {"type": "node", "id": 3659683153, "lat": 39.7881071, "lon": 45.3613016}, {"type": "node", "id": 3659683154, "lat": 39.7882206, "lon": 45.3523132}, {"type": "node", "id": 3659683155, "lat": 39.7891997, "lon": 45.3606422}, {"type": "node", "id": 3659683156, "lat": 39.7899164, "lon": 45.357334}, {"type": "node", "id": 3659683157, "lat": 39.7903782, "lon": 45.3565226}, {"type": "node", "id": 3659683158, "lat": 39.7906933, "lon": 45.3530087}, {"type": "node", "id": 3659683538, "lat": 39.8861847, "lon": 45.3370349}, {"type": "node", "id": 3659683540, "lat": 39.8868248, "lon": 45.3349115}, {"type": "node", "id": 3659683541, "lat": 39.8870866, "lon": 45.3380967}, {"type": "node", "id": 3659683545, "lat": 39.8918873, "lon": 45.3373004}, {"type": "node", "id": 3659683552, "lat": 39.8930802, "lon": 45.3368833}, {"type": "node", "id": 3659683554, "lat": 39.8929622, "lon": 45.3339952}, {"type": "node", "id": 3659683558, "lat": 39.8938657, "lon": 45.3378692}, {"type": "node", "id": 3659683560, "lat": 39.893953, "lon": 45.3339635}, {"type": "node", "id": 3659683566, "lat": 39.8946659, "lon": 45.3386338}, {"type": "node", "id": 3659683606, "lat": 39.8972113, "lon": 45.3379829}, {"type": "node", "id": 3659683610, "lat": 39.8976768, "lon": 45.3342289}, {"type": "node", "id": 3659683622, "lat": 39.8988405, "lon": 45.3356319}, {"type": "node", "id": 3659683819, "lat": 39.9104961, "lon": 45.4796574}, {"type": "node", "id": 3659683820, "lat": 39.9110514, "lon": 45.4800998}, {"type": "node", "id": 3659683821, "lat": 39.9111851, "lon": 45.478062}, {"type": "node", "id": 3659683822, "lat": 39.9118844, "lon": 45.475059}, {"type": "node", "id": 3659683823, "lat": 39.9119152, "lon": 45.4763728}, {"type": "node", "id": 3659683925, "lat": 39.9125322, "lon": 45.4748713}, {"type": "node", "id": 3659683929, "lat": 39.9133034, "lon": 45.4781157}, {"type": "node", "id": 3659683930, "lat": 39.913396, "lon": 45.4747908}, {"type": "node", "id": 3659683933, "lat": 39.9140438, "lon": 45.4750321}, {"type": "node", "id": 3659683934, "lat": 39.9141055, "lon": 45.4781827}, {"type": "node", "id": 3659683936, "lat": 39.9145785, "lon": 45.477633}, {"type": "node", "id": 3659683938, "lat": 39.9146197, "lon": 45.4764935}, {"type": "node", "id": 3751334339, "lat": 39.6806287, "lon": 45.2154645}, {"type": "node", "id": 3751334340, "lat": 39.6812047, "lon": 45.2168995}, {"type": "node", "id": 3751334341, "lat": 39.681623, "lon": 45.2181644}, {"type": "node", "id": 3751334342, "lat": 39.6827012, "lon": 45.218594}, {"type": "node", "id": 3751334343, "lat": 39.6834344, "lon": 45.2186501}, {"type": "node", "id": 3751334344, "lat": 39.6839375, "lon": 45.218594}, {"type": "node", "id": 3751334347, "lat": 39.6849547, "lon": 45.2169936}, {"type": "node", "id": 3751334350, "lat": 39.6848001, "lon": 45.2148954}, {"type": "node", "id": 3751334351, "lat": 39.6854038, "lon": 45.2148393}, {"type": "node", "id": 3751334352, "lat": 39.6857057, "lon": 45.2146339}, {"type": "node", "id": 3751334353, "lat": 39.6860795, "lon": 45.2143537}, {"type": "node", "id": 3751334354, "lat": 39.6864964, "lon": 45.2139427}, {"type": "node", "id": 3751334355, "lat": 39.6870139, "lon": 45.213868}, {"type": "node", "id": 3751334356, "lat": 39.6873014, "lon": 45.2136625}, {"type": "node", "id": 3751334357, "lat": 39.6874739, "lon": 45.2131021}, {"type": "node", "id": 3751334358, "lat": 39.6874882, "lon": 45.2124483}, {"type": "node", "id": 3751334359, "lat": 39.687402, "lon": 45.2119066}, {"type": "node", "id": 3751334360, "lat": 39.6869564, "lon": 45.2106177}, {"type": "node", "id": 3751334361, "lat": 39.6866545, "lon": 45.2100946}, {"type": "node", "id": 3751334362, "lat": 39.6860363, "lon": 45.2097397}, {"type": "node", "id": 3751334363, "lat": 39.6856913, "lon": 45.2095529}, {"type": "node", "id": 3921828872, "lat": 39.7574241, "lon": 45.1673351}, {"type": "node", "id": 3921828873, "lat": 39.759894, "lon": 45.1657286}, {"type": "node", "id": 3921828874, "lat": 39.760971, "lon": 45.1661396}, {"type": "node", "id": 3921828875, "lat": 39.7623208, "lon": 45.1677647}, {"type": "node", "id": 3921828876, "lat": 39.7625649, "lon": 45.1693525}, {"type": "node", "id": 3921828877, "lat": 39.7632254, "lon": 45.1705107}, {"type": "node", "id": 3921828878, "lat": 39.763168, "lon": 45.1715381}, {"type": "node", "id": 3921828879, "lat": 39.7629382, "lon": 45.1718556}, {"type": "node", "id": 3921828880, "lat": 39.76301, "lon": 45.1723226}, {"type": "node", "id": 3921828881, "lat": 39.7635988, "lon": 45.1728083}, {"type": "node", "id": 3921828882, "lat": 39.7636418, "lon": 45.1730885}, {"type": "node", "id": 3921828883, "lat": 39.7636131, "lon": 45.1733874}, {"type": "node", "id": 3921828884, "lat": 39.7636275, "lon": 45.1736676}, {"type": "node", "id": 3921828885, "lat": 39.764087, "lon": 45.1736302}, {"type": "node", "id": 3921828886, "lat": 39.7643472, "lon": 45.1738544}, {"type": "node", "id": 3921828887, "lat": 39.7644261, "lon": 45.1743681}, {"type": "node", "id": 3921828888, "lat": 39.7647492, "lon": 45.1743774}, {"type": "node", "id": 3921828889, "lat": 39.7651513, "lon": 45.1743681}, {"type": "node", "id": 3921828890, "lat": 39.7654169, "lon": 45.174667}, {"type": "node", "id": 3921828891, "lat": 39.7656825, "lon": 45.1753208}, {"type": "node", "id": 3921828892, "lat": 39.7657256, "lon": 45.176124}, {"type": "node", "id": 3921828893, "lat": 39.7658405, "lon": 45.1771421}, {"type": "node", "id": 3921828894, "lat": 39.7661348, "lon": 45.1778052}, {"type": "node", "id": 3921828895, "lat": 39.7660415, "lon": 45.1791689}, {"type": "node", "id": 3921828896, "lat": 39.7656466, "lon": 45.1803083}, {"type": "node", "id": 3921828897, "lat": 39.7653092, "lon": 45.1806913}, {"type": "node", "id": 3921828898, "lat": 39.7647564, "lon": 45.1802803}, {"type": "node", "id": 3921828899, "lat": 39.7643543, "lon": 45.1803737}, {"type": "node", "id": 3921828900, "lat": 39.7641318, "lon": 45.180738}, {"type": "node", "id": 3921828901, "lat": 39.7639954, "lon": 45.1815039}, {"type": "node", "id": 3921828902, "lat": 39.7636292, "lon": 45.1823445}, {"type": "node", "id": 3921828903, "lat": 39.762703, "lon": 45.1838015}, {"type": "node", "id": 3921828904, "lat": 39.7620066, "lon": 45.1850437}, {"type": "node", "id": 3921828905, "lat": 39.7610948, "lon": 45.1858376}, {"type": "node", "id": 3921828906, "lat": 39.7606784, "lon": 45.1860991}, {"type": "node", "id": 3921828907, "lat": 39.7604558, "lon": 45.185847}, {"type": "node", "id": 3921828908, "lat": 39.760147, "lon": 45.1860338}, {"type": "node", "id": 3921828909, "lat": 39.7594362, "lon": 45.1862112}, {"type": "node", "id": 3921828910, "lat": 39.7581223, "lon": 45.1866595}, {"type": "node", "id": 3921828911, "lat": 39.7567652, "lon": 45.1869584}, {"type": "node", "id": 3921828912, "lat": 39.7560229, "lon": 45.1870872}, {"type": "node", "id": 3921828913, "lat": 39.755576, "lon": 45.1865119}, {"type": "node", "id": 3921828914, "lat": 39.7547646, "lon": 45.186297}, {"type": "node", "id": 3921828915, "lat": 39.7533069, "lon": 45.1865772}, {"type": "node", "id": 3921828916, "lat": 39.7524093, "lon": 45.1865119}, {"type": "node", "id": 3921828917, "lat": 39.7514591, "lon": 45.186398}, {"type": "node", "id": 3921828918, "lat": 39.7512466, "lon": 45.1862679}, {"type": "node", "id": 3921828919, "lat": 39.7511966, "lon": 45.1857801}, {"type": "node", "id": 3921828920, "lat": 39.7504214, "lon": 45.1858289}, {"type": "node", "id": 3921828921, "lat": 39.7497963, "lon": 45.1855361}, {"type": "node", "id": 3921828922, "lat": 39.7501088, "lon": 45.1843165}, {"type": "node", "id": 3921828923, "lat": 39.7515967, "lon": 45.1839262}, {"type": "node", "id": 3921828924, "lat": 39.7521468, "lon": 45.1823488}, {"type": "node", "id": 3921828925, "lat": 39.7520968, "lon": 45.1810967}, {"type": "node", "id": 3921828926, "lat": 39.7515342, "lon": 45.1803974}, {"type": "node", "id": 3921828927, "lat": 39.7512466, "lon": 45.1801697}, {"type": "node", "id": 3921828928, "lat": 39.751328, "lon": 45.179306}, {"type": "node", "id": 3921828929, "lat": 39.7519656, "lon": 45.1766658}, {"type": "node", "id": 3921828930, "lat": 39.7521639, "lon": 45.1763117}, {"type": "node", "id": 3921828931, "lat": 39.7526231, "lon": 45.1760835}, {"type": "node", "id": 3921828932, "lat": 39.7546097, "lon": 45.1734211}, {"type": "node", "id": 3921828933, "lat": 39.7556474, "lon": 45.172982}, {"type": "node", "id": 3921828934, "lat": 39.7577726, "lon": 45.1723803}, {"type": "node", "id": 3921828935, "lat": 39.7585102, "lon": 45.1710143}, {"type": "node", "id": 3921828936, "lat": 39.7579352, "lon": 45.1691442}, {"type": "node", "id": 3921828937, "lat": 39.7573851, "lon": 45.1687539}, {"type": "node", "id": 3921828938, "lat": 39.7569225, "lon": 45.1685262}, {"type": "node", "id": 3921828939, "lat": 39.756935, "lon": 45.1678107}, {"type": "node", "id": 3984267604, "lat": 39.88994, "lon": 45.2609704}, {"type": "node", "id": 3984267980, "lat": 39.9057312, "lon": 45.2432129}, {"type": "node", "id": 4057711376, "lat": 39.7362023, "lon": 45.306437}, {"type": "node", "id": 4057711377, "lat": 39.7370975, "lon": 45.312295}, {"type": "node", "id": 4084595470, "lat": 39.7435252, "lon": 45.3546873}, {"type": "node", "id": 4271333656, "lat": 39.7766614, "lon": 45.3348763}, {"type": "node", "id": 4271333657, "lat": 39.7801622, "lon": 45.3551873}, {"type": "node", "id": 4271333658, "lat": 39.7842993, "lon": 45.3456104}, {"type": "node", "id": 4460162085, "lat": 39.7407595, "lon": 45.3447578}, {"type": "node", "id": 4460163032, "lat": 39.8187719, "lon": 45.5318708}, {"type": "node", "id": 4475309133, "lat": 39.742808, "lon": 45.3817434}, {"type": "node", "id": 4475309134, "lat": 39.7441444, "lon": 45.3818507}, {"type": "node", "id": 4475309135, "lat": 39.7446064, "lon": 45.3819794}, {"type": "node", "id": 4475309136, "lat": 39.7451839, "lon": 45.3830094}, {"type": "node", "id": 4475309137, "lat": 39.7456293, "lon": 45.3832454}, {"type": "node", "id": 4475309138, "lat": 39.7464378, "lon": 45.3833742}, {"type": "node", "id": 4475309139, "lat": 39.7473452, "lon": 45.3835458}, {"type": "node", "id": 4475309140, "lat": 39.7478566, "lon": 45.3843398}, {"type": "node", "id": 4475309141, "lat": 39.7481495, "lon": 45.3853}, {"type": "node", "id": 4475309142, "lat": 39.7481206, "lon": 45.3859491}, {"type": "node", "id": 4475309143, "lat": 39.7476751, "lon": 45.3865499}, {"type": "node", "id": 4475309144, "lat": 39.7473452, "lon": 45.3867859}, {"type": "node", "id": 4475309145, "lat": 39.7470977, "lon": 45.3872365}, {"type": "node", "id": 4475309146, "lat": 39.7473617, "lon": 45.387773}, {"type": "node", "id": 4475309147, "lat": 39.7474441, "lon": 45.3884382}, {"type": "node", "id": 4475309148, "lat": 39.7477576, "lon": 45.3887815}, {"type": "node", "id": 4475309149, "lat": 39.7479556, "lon": 45.3894252}, {"type": "node", "id": 4475309150, "lat": 39.7476586, "lon": 45.3903694}, {"type": "node", "id": 4475309151, "lat": 39.7469492, "lon": 45.3908629}, {"type": "node", "id": 4475309152, "lat": 39.7466027, "lon": 45.3911418}, {"type": "node", "id": 4475309153, "lat": 39.7462233, "lon": 45.391807}, {"type": "node", "id": 4475309154, "lat": 39.7461078, "lon": 45.3923006}, {"type": "node", "id": 4475309155, "lat": 39.7457118, "lon": 45.3926653}, {"type": "node", "id": 4475309156, "lat": 39.7452829, "lon": 45.3929443}, {"type": "node", "id": 4475309157, "lat": 39.7447219, "lon": 45.3932876}, {"type": "node", "id": 4475309158, "lat": 39.7444249, "lon": 45.3935666}, {"type": "node", "id": 4475309159, "lat": 39.7440289, "lon": 45.3939957}, {"type": "node", "id": 4475309160, "lat": 39.7438475, "lon": 45.3943176}, {"type": "node", "id": 4475309161, "lat": 39.7439299, "lon": 45.3947038}, {"type": "node", "id": 4475309162, "lat": 39.7442764, "lon": 45.3947897}, {"type": "node", "id": 4475309163, "lat": 39.7449529, "lon": 45.3945322}, {"type": "node", "id": 4475309164, "lat": 39.7456128, "lon": 45.3947897}, {"type": "node", "id": 4475309165, "lat": 39.7459098, "lon": 45.3958196}, {"type": "node", "id": 4475309166, "lat": 39.7456128, "lon": 45.3967208}, {"type": "node", "id": 4475309167, "lat": 39.7456293, "lon": 45.3976221}, {"type": "node", "id": 4475309168, "lat": 39.7459593, "lon": 45.3986735}, {"type": "node", "id": 4475309169, "lat": 39.7464378, "lon": 45.3988881}, {"type": "node", "id": 4475309170, "lat": 39.7467677, "lon": 45.3992528}, {"type": "node", "id": 4475309171, "lat": 39.7473287, "lon": 45.399682}, {"type": "node", "id": 4475309172, "lat": 39.7474771, "lon": 45.400433}, {"type": "node", "id": 4475309173, "lat": 39.7475266, "lon": 45.4013128}, {"type": "node", "id": 4475309174, "lat": 39.7480546, "lon": 45.4020853}, {"type": "node", "id": 4475309175, "lat": 39.7480381, "lon": 45.4030723}, {"type": "node", "id": 4475309176, "lat": 39.7475596, "lon": 45.4036731}, {"type": "node", "id": 4475309177, "lat": 39.7479061, "lon": 45.4049391}, {"type": "node", "id": 4475309178, "lat": 39.748731, "lon": 45.405497}, {"type": "node", "id": 4475309179, "lat": 39.7489125, "lon": 45.4061837}, {"type": "node", "id": 4475309180, "lat": 39.748434, "lon": 45.4071922}, {"type": "node", "id": 4475309181, "lat": 39.7478566, "lon": 45.4076857}, {"type": "node", "id": 4475309182, "lat": 39.7471802, "lon": 45.4081792}, {"type": "node", "id": 4475309183, "lat": 39.7465367, "lon": 45.4080719}, {"type": "node", "id": 4475309184, "lat": 39.7454808, "lon": 45.4078574}, {"type": "node", "id": 4475309185, "lat": 39.7447549, "lon": 45.4072995}, {"type": "node", "id": 4475309186, "lat": 39.7441609, "lon": 45.4071493}, {"type": "node", "id": 4475309187, "lat": 39.7436165, "lon": 45.4066343}, {"type": "node", "id": 4475309188, "lat": 39.7435175, "lon": 45.4057116}, {"type": "node", "id": 4475309289, "lat": 39.742643, "lon": 45.4042954}, {"type": "node", "id": 4475309290, "lat": 39.742346, "lon": 45.4035229}, {"type": "node", "id": 4475309291, "lat": 39.742115, "lon": 45.4031796}, {"type": "node", "id": 4475309292, "lat": 39.741851, "lon": 45.4031796}, {"type": "node", "id": 4475309293, "lat": 39.741686, "lon": 45.4035015}, {"type": "node", "id": 4475309294, "lat": 39.7414716, "lon": 45.4042096}, {"type": "node", "id": 4475309295, "lat": 39.7409436, "lon": 45.4046173}, {"type": "node", "id": 4475309296, "lat": 39.7399536, "lon": 45.4044241}, {"type": "node", "id": 4475309297, "lat": 39.7394586, "lon": 45.4036517}, {"type": "node", "id": 4475309298, "lat": 39.7393596, "lon": 45.4024286}, {"type": "node", "id": 4475309299, "lat": 39.7395246, "lon": 45.4012913}, {"type": "node", "id": 4475309300, "lat": 39.7398051, "lon": 45.4009695}, {"type": "node", "id": 4475309301, "lat": 39.7397556, "lon": 45.4006047}, {"type": "node", "id": 4475309302, "lat": 39.7395576, "lon": 45.4000039}, {"type": "node", "id": 4475309303, "lat": 39.7394421, "lon": 45.399403}, {"type": "node", "id": 4475309304, "lat": 39.7391946, "lon": 45.3989954}, {"type": "node", "id": 4475309305, "lat": 39.7388316, "lon": 45.3988237}, {"type": "node", "id": 4475309306, "lat": 39.7385676, "lon": 45.3988452}, {"type": "node", "id": 4475309307, "lat": 39.7381221, "lon": 45.3991026}, {"type": "node", "id": 4475309308, "lat": 39.7371485, "lon": 45.3995962}, {"type": "node", "id": 4475309309, "lat": 39.736736, "lon": 45.4001112}, {"type": "node", "id": 4475309310, "lat": 39.7364885, "lon": 45.4004974}, {"type": "node", "id": 4475309311, "lat": 39.7361255, "lon": 45.4009695}, {"type": "node", "id": 4475309312, "lat": 39.7355314, "lon": 45.4015488}, {"type": "node", "id": 4475309313, "lat": 39.7351519, "lon": 45.4016346}, {"type": "node", "id": 4475309314, "lat": 39.7345744, "lon": 45.4015274}, {"type": "node", "id": 4475309315, "lat": 39.7342608, "lon": 45.4012055}, {"type": "node", "id": 4475309316, "lat": 39.7340298, "lon": 45.400948}, {"type": "node", "id": 4475309317, "lat": 39.7334688, "lon": 45.4008622}, {"type": "node", "id": 4475309318, "lat": 39.7331718, "lon": 45.4005832}, {"type": "node", "id": 4475309319, "lat": 39.7330892, "lon": 45.4003257}, {"type": "node", "id": 4475309320, "lat": 39.7327097, "lon": 45.399403}, {"type": "node", "id": 4475309321, "lat": 39.7329242, "lon": 45.3986735}, {"type": "node", "id": 4475309322, "lat": 39.7335678, "lon": 45.3978796}, {"type": "node", "id": 4475309323, "lat": 39.7337163, "lon": 45.3971929}, {"type": "node", "id": 4475309324, "lat": 39.7334358, "lon": 45.3966779}, {"type": "node", "id": 4475309325, "lat": 39.7331222, "lon": 45.3966136}, {"type": "node", "id": 4475309326, "lat": 39.7322642, "lon": 45.3965492}, {"type": "node", "id": 4475309327, "lat": 39.7317526, "lon": 45.39612}, {"type": "node", "id": 4475309328, "lat": 39.7316866, "lon": 45.3955836}, {"type": "node", "id": 4475309329, "lat": 39.7318681, "lon": 45.3948969}, {"type": "node", "id": 4475309330, "lat": 39.7321486, "lon": 45.3944892}, {"type": "node", "id": 4475309331, "lat": 39.7318186, "lon": 45.3942318}, {"type": "node", "id": 4475309332, "lat": 39.7308615, "lon": 45.3939099}, {"type": "node", "id": 4475309333, "lat": 39.7303334, "lon": 45.3936309}, {"type": "node", "id": 4475309334, "lat": 39.7300364, "lon": 45.3930945}, {"type": "node", "id": 4475309335, "lat": 39.7299704, "lon": 45.3918714}, {"type": "node", "id": 4475309336, "lat": 39.7303004, "lon": 45.3905625}, {"type": "node", "id": 4475309337, "lat": 39.7303994, "lon": 45.3897686}, {"type": "node", "id": 4475309338, "lat": 39.7297393, "lon": 45.3871722}, {"type": "node", "id": 4475309339, "lat": 39.7300364, "lon": 45.3856701}, {"type": "node", "id": 4475309340, "lat": 39.730548, "lon": 45.3840179}, {"type": "node", "id": 4475309341, "lat": 39.7313896, "lon": 45.3814001}, {"type": "node", "id": 4475309342, "lat": 39.7327262, "lon": 45.3805847}, {"type": "node", "id": 4475309343, "lat": 39.7329696, "lon": 45.3808636}, {"type": "node", "id": 4475309344, "lat": 39.7331346, "lon": 45.3811533}, {"type": "node", "id": 4475309345, "lat": 39.7334152, "lon": 45.3813571}, {"type": "node", "id": 4475309346, "lat": 39.7338194, "lon": 45.3814322}, {"type": "node", "id": 4475309347, "lat": 39.7342897, "lon": 45.3816146}, {"type": "node", "id": 4475309348, "lat": 39.7345702, "lon": 45.3814001}, {"type": "node", "id": 4475309349, "lat": 39.734628, "lon": 45.3812069}, {"type": "node", "id": 4475309350, "lat": 39.7345702, "lon": 45.3806598}, {"type": "node", "id": 4475309351, "lat": 39.7345867, "lon": 45.3801877}, {"type": "node", "id": 4475309352, "lat": 39.7348425, "lon": 45.3796513}, {"type": "node", "id": 4475309353, "lat": 39.7351643, "lon": 45.3795225}, {"type": "node", "id": 4475309354, "lat": 39.7355851, "lon": 45.3793616}, {"type": "node", "id": 4475309355, "lat": 39.7358243, "lon": 45.3790183}, {"type": "node", "id": 4475309356, "lat": 39.7361296, "lon": 45.3787393}, {"type": "node", "id": 4475309357, "lat": 39.7363441, "lon": 45.3783209}, {"type": "node", "id": 4475309358, "lat": 39.7364514, "lon": 45.3779454}, {"type": "node", "id": 4475309359, "lat": 39.7364926, "lon": 45.3776128}, {"type": "node", "id": 4475309360, "lat": 39.7368804, "lon": 45.3771407}, {"type": "node", "id": 4475309361, "lat": 39.7371939, "lon": 45.3769154}, {"type": "node", "id": 4475309362, "lat": 39.7374827, "lon": 45.3767974}, {"type": "node", "id": 4475309363, "lat": 39.7380932, "lon": 45.3770334}, {"type": "node", "id": 4475309364, "lat": 39.7388109, "lon": 45.3775055}, {"type": "node", "id": 4475309365, "lat": 39.7389429, "lon": 45.3782672}, {"type": "node", "id": 4475309366, "lat": 39.7388192, "lon": 45.3785676}, {"type": "node", "id": 4475309367, "lat": 39.7389594, "lon": 45.3789646}, {"type": "node", "id": 4475309368, "lat": 39.7392069, "lon": 45.3790183}, {"type": "node", "id": 4475309369, "lat": 39.7395947, "lon": 45.379147}, {"type": "node", "id": 4475309370, "lat": 39.7400484, "lon": 45.3795976}, {"type": "node", "id": 4475309371, "lat": 39.7401804, "lon": 45.3800268}, {"type": "node", "id": 4475309372, "lat": 39.7406672, "lon": 45.3801341}, {"type": "node", "id": 4475309373, "lat": 39.7412447, "lon": 45.3802413}, {"type": "node", "id": 4475309374, "lat": 39.7413932, "lon": 45.3804667}, {"type": "node", "id": 4475309375, "lat": 39.7414674, "lon": 45.380692}, {"type": "node", "id": 4475309376, "lat": 39.7414179, "lon": 45.380928}, {"type": "node", "id": 4475309377, "lat": 39.7410962, "lon": 45.3810621}, {"type": "node", "id": 4475309378, "lat": 39.7408611, "lon": 45.3811479}, {"type": "node", "id": 4475309379, "lat": 39.7403496, "lon": 45.3813679}, {"type": "node", "id": 4475309380, "lat": 39.7402506, "lon": 45.3815234}, {"type": "node", "id": 4475309381, "lat": 39.7403042, "lon": 45.3819472}, {"type": "node", "id": 4475309382, "lat": 39.7404321, "lon": 45.382312}, {"type": "node", "id": 4475309383, "lat": 39.7406321, "lon": 45.3827626}, {"type": "node", "id": 4475309384, "lat": 39.7408054, "lon": 45.3832025}, {"type": "node", "id": 4475309385, "lat": 39.7411354, "lon": 45.3836531}, {"type": "node", "id": 4475309386, "lat": 39.7414571, "lon": 45.3838355}, {"type": "node", "id": 4475309387, "lat": 39.7416964, "lon": 45.3838248}, {"type": "node", "id": 4475309388, "lat": 39.7418284, "lon": 45.3832776}, {"type": "node", "id": 4475309489, "lat": 39.7417129, "lon": 45.3827519}, {"type": "node", "id": 4475309490, "lat": 39.7418201, "lon": 45.3823335}, {"type": "node", "id": 4475309491, "lat": 39.7422408, "lon": 45.381915}, {"type": "node", "id": 4482439964, "lat": 39.737011, "lon": 45.2541261}, {"type": "node", "id": 4482439965, "lat": 39.73744, "lon": 45.2536755}, {"type": "node", "id": 4482439966, "lat": 39.7382815, "lon": 45.2535682}, {"type": "node", "id": 4482439967, "lat": 39.738925, "lon": 45.2541261}, {"type": "node", "id": 4482439968, "lat": 39.739684, "lon": 45.2546626}, {"type": "node", "id": 4482439969, "lat": 39.740575, "lon": 45.2556925}, {"type": "node", "id": 4482439970, "lat": 39.7409545, "lon": 45.2552419}, {"type": "node", "id": 4482439971, "lat": 39.7416475, "lon": 45.2548342}, {"type": "node", "id": 4482439972, "lat": 39.7422085, "lon": 45.2550059}, {"type": "node", "id": 4482439973, "lat": 39.742918, "lon": 45.2555852}, {"type": "node", "id": 4482439974, "lat": 39.742885, "lon": 45.2564435}, {"type": "node", "id": 4482439975, "lat": 39.7423735, "lon": 45.2574735}, {"type": "node", "id": 4482439976, "lat": 39.7420435, "lon": 45.2580743}, {"type": "node", "id": 4482439977, "lat": 39.7419445, "lon": 45.2587395}, {"type": "node", "id": 4482439978, "lat": 39.742126, "lon": 45.2594047}, {"type": "node", "id": 4482439979, "lat": 39.742555, "lon": 45.259512}, {"type": "node", "id": 4482439980, "lat": 39.7433139, "lon": 45.259512}, {"type": "node", "id": 4482439981, "lat": 39.7440894, "lon": 45.2602201}, {"type": "node", "id": 4482439982, "lat": 39.7439739, "lon": 45.2609067}, {"type": "node", "id": 4482439983, "lat": 39.7434624, "lon": 45.2614646}, {"type": "node", "id": 4482439984, "lat": 39.742918, "lon": 45.2615076}, {"type": "node", "id": 4482439985, "lat": 39.742654, "lon": 45.2617436}, {"type": "node", "id": 4482439986, "lat": 39.7425715, "lon": 45.26228}, {"type": "node", "id": 4482439987, "lat": 39.7428355, "lon": 45.2626877}, {"type": "node", "id": 4482439988, "lat": 39.7432149, "lon": 45.2632885}, {"type": "node", "id": 4482442289, "lat": 39.7435449, "lon": 45.2640181}, {"type": "node", "id": 4482442290, "lat": 39.7433964, "lon": 45.2643829}, {"type": "node", "id": 4482442291, "lat": 39.7429675, "lon": 45.264576}, {"type": "node", "id": 4482442292, "lat": 39.742555, "lon": 45.2646618}, {"type": "node", "id": 4482442293, "lat": 39.742126, "lon": 45.2648979}, {"type": "node", "id": 4482442294, "lat": 39.741928, "lon": 45.2656703}, {"type": "node", "id": 4482442295, "lat": 39.7418785, "lon": 45.2664857}, {"type": "node", "id": 4482442296, "lat": 39.741895, "lon": 45.2669793}, {"type": "node", "id": 4482442297, "lat": 39.7416805, "lon": 45.2677303}, {"type": "node", "id": 4482442298, "lat": 39.741433, "lon": 45.2684384}, {"type": "node", "id": 4482442299, "lat": 39.7414, "lon": 45.2690392}, {"type": "node", "id": 4482442300, "lat": 39.7415485, "lon": 45.2695113}, {"type": "node", "id": 4482442301, "lat": 39.741565, "lon": 45.2701121}, {"type": "node", "id": 4482442302, "lat": 39.741301, "lon": 45.2702194}, {"type": "node", "id": 4482442303, "lat": 39.740872, "lon": 45.2702623}, {"type": "node", "id": 4482442304, "lat": 39.74074, "lon": 45.2705627}, {"type": "node", "id": 4482442305, "lat": 39.740674, "lon": 45.2712064}, {"type": "node", "id": 4482442306, "lat": 39.7402945, "lon": 45.2717643}, {"type": "node", "id": 4482442307, "lat": 39.7399645, "lon": 45.2717429}, {"type": "node", "id": 4482442308, "lat": 39.739453, "lon": 45.2713566}, {"type": "node", "id": 4482442309, "lat": 39.7391065, "lon": 45.2695756}, {"type": "node", "id": 4482442310, "lat": 39.738859, "lon": 45.2695756}, {"type": "node", "id": 4482442311, "lat": 39.7386115, "lon": 45.2699404}, {"type": "node", "id": 4482442312, "lat": 39.738595, "lon": 45.2705841}, {"type": "node", "id": 4482442313, "lat": 39.7387105, "lon": 45.2713995}, {"type": "node", "id": 4482442314, "lat": 39.738925, "lon": 45.2720433}, {"type": "node", "id": 4482442315, "lat": 39.738694, "lon": 45.2725797}, {"type": "node", "id": 4482442316, "lat": 39.7384795, "lon": 45.2728801}, {"type": "node", "id": 4482442317, "lat": 39.738595, "lon": 45.2734809}, {"type": "node", "id": 4482442318, "lat": 39.7388095, "lon": 45.2743607}, {"type": "node", "id": 4482442319, "lat": 39.7388755, "lon": 45.2748113}, {"type": "node", "id": 4482442320, "lat": 39.7401254, "lon": 45.2763509}, {"type": "node", "id": 4482442321, "lat": 39.7395025, "lon": 45.2781319}, {"type": "node", "id": 4482442322, "lat": 39.7378195, "lon": 45.2763563}, {"type": "node", "id": 4482442323, "lat": 39.737473, "lon": 45.2761417}, {"type": "node", "id": 4482442324, "lat": 39.736912, "lon": 45.2753907}, {"type": "node", "id": 4482442325, "lat": 39.7366645, "lon": 45.2754121}, {"type": "node", "id": 4482442326, "lat": 39.7357239, "lon": 45.2767425}, {"type": "node", "id": 4482442327, "lat": 39.7352619, "lon": 45.2762275}, {"type": "node", "id": 4482442328, "lat": 39.7347173, "lon": 45.2759057}, {"type": "node", "id": 4482442329, "lat": 39.7343254, "lon": 45.2756696}, {"type": "node", "id": 4482442330, "lat": 39.7340367, "lon": 45.2752083}, {"type": "node", "id": 4482442331, "lat": 39.7338056, "lon": 45.2745645}, {"type": "node", "id": 4482442332, "lat": 39.7334344, "lon": 45.2738994}, {"type": "node", "id": 4482442333, "lat": 39.7332693, "lon": 45.2731269}, {"type": "node", "id": 4482442334, "lat": 39.7332693, "lon": 45.2725046}, {"type": "node", "id": 4482442335, "lat": 39.7335086, "lon": 45.2718072}, {"type": "node", "id": 4482442336, "lat": 39.7339047, "lon": 45.2710455}, {"type": "node", "id": 4482442337, "lat": 39.7345235, "lon": 45.2703052}, {"type": "node", "id": 4482442338, "lat": 39.7353073, "lon": 45.2697366}, {"type": "node", "id": 4482442339, "lat": 39.7359095, "lon": 45.2677839}, {"type": "node", "id": 4482442340, "lat": 39.7368006, "lon": 45.2650588}, {"type": "node", "id": 4482442341, "lat": 39.7382939, "lon": 45.2619152}, {"type": "node", "id": 4482442342, "lat": 39.7381784, "lon": 45.2602201}, {"type": "node", "id": 4482442343, "lat": 39.7378484, "lon": 45.2590399}, {"type": "node", "id": 4482442344, "lat": 39.7376091, "lon": 45.257849}, {"type": "node", "id": 4482442345, "lat": 39.7376174, "lon": 45.2574521}, {"type": "node", "id": 4482442346, "lat": 39.7377329, "lon": 45.2565079}, {"type": "node", "id": 4482442347, "lat": 39.7377576, "lon": 45.2561324}, {"type": "node", "id": 4482442348, "lat": 39.7374854, "lon": 45.2557998}, {"type": "node", "id": 4482442349, "lat": 39.7371966, "lon": 45.2554458}, {"type": "node", "id": 4482442350, "lat": 39.7369408, "lon": 45.2551668}, {"type": "node", "id": 4482442351, "lat": 39.7368996, "lon": 45.2546733}, {"type": "node", "id": 4520201622, "lat": 39.7697823, "lon": 45.1335634}, {"type": "node", "id": 4520201623, "lat": 39.7703723, "lon": 45.1335634}, {"type": "node", "id": 4520201624, "lat": 39.7707738, "lon": 45.1330944}, {"type": "node", "id": 4520201625, "lat": 39.7710605, "lon": 45.1324441}, {"type": "node", "id": 4520201626, "lat": 39.77129, "lon": 45.1320284}, {"type": "node", "id": 4520201627, "lat": 39.7716668, "lon": 45.1317725}, {"type": "node", "id": 4520201628, "lat": 39.7718143, "lon": 45.1314954}, {"type": "node", "id": 4520201629, "lat": 39.7716832, "lon": 45.1312075}, {"type": "node", "id": 4520201630, "lat": 39.7713883, "lon": 45.1311756}, {"type": "node", "id": 4520201631, "lat": 39.7707902, "lon": 45.1314421}, {"type": "node", "id": 4520201632, "lat": 39.7698889, "lon": 45.1315593}, {"type": "node", "id": 4520201633, "lat": 39.7692416, "lon": 45.1318365}, {"type": "node", "id": 4520201634, "lat": 39.7685123, "lon": 45.1325401}, {"type": "node", "id": 4520201635, "lat": 39.7682092, "lon": 45.1327852}, {"type": "node", "id": 4520201636, "lat": 39.7679715, "lon": 45.1330198}, {"type": "node", "id": 4520201637, "lat": 39.767824, "lon": 45.1333502}, {"type": "node", "id": 4520201638, "lat": 39.7675864, "lon": 45.13367}, {"type": "node", "id": 4520201639, "lat": 39.7672013, "lon": 45.134235}, {"type": "node", "id": 4520201640, "lat": 39.7668736, "lon": 45.1343523}, {"type": "node", "id": 4520201641, "lat": 39.7660705, "lon": 45.1341924}, {"type": "node", "id": 4520201642, "lat": 39.765161, "lon": 45.1342563}, {"type": "node", "id": 4520201643, "lat": 39.7645464, "lon": 45.1345228}, {"type": "node", "id": 4520201644, "lat": 39.7638499, "lon": 45.1348746}, {"type": "node", "id": 4520201645, "lat": 39.7633337, "lon": 45.1356528}, {"type": "node", "id": 4520201646, "lat": 39.7628256, "lon": 45.1363884}, {"type": "node", "id": 4520201647, "lat": 39.7624077, "lon": 45.1370386}, {"type": "node", "id": 4520201648, "lat": 39.7620144, "lon": 45.1379234}, {"type": "node", "id": 4520201649, "lat": 39.7616538, "lon": 45.1395544}, {"type": "node", "id": 4520201650, "lat": 39.7615473, "lon": 45.1411108}, {"type": "node", "id": 4520201651, "lat": 39.7612687, "lon": 45.1445434}, {"type": "node", "id": 4520201652, "lat": 39.7611867, "lon": 45.1454069}, {"type": "node", "id": 4520201653, "lat": 39.7609327, "lon": 45.1460784}, {"type": "node", "id": 4520201654, "lat": 39.7608343, "lon": 45.1465795}, {"type": "node", "id": 4520201655, "lat": 39.7606541, "lon": 45.1473044}, {"type": "node", "id": 4520201656, "lat": 39.7606295, "lon": 45.1485409}, {"type": "node", "id": 4520201657, "lat": 39.7606704, "lon": 45.14901}, {"type": "node", "id": 4520201658, "lat": 39.7607442, "lon": 45.149479}, {"type": "node", "id": 4520201659, "lat": 39.7606213, "lon": 45.1498841}, {"type": "node", "id": 4520201660, "lat": 39.7606541, "lon": 45.1500973}, {"type": "node", "id": 4520201661, "lat": 39.7609327, "lon": 45.1501933}, {"type": "node", "id": 4520201662, "lat": 39.7612244, "lon": 45.1494809}, {"type": "node", "id": 4520201663, "lat": 39.7616407, "lon": 45.148862}, {"type": "node", "id": 4520201664, "lat": 39.7618407, "lon": 45.1487847}, {"type": "node", "id": 4520201665, "lat": 39.7620191, "lon": 45.1488128}, {"type": "node", "id": 4520201666, "lat": 39.7624841, "lon": 45.1489113}, {"type": "node", "id": 4520201667, "lat": 39.7634698, "lon": 45.1485459}, {"type": "node", "id": 4520201668, "lat": 39.764097, "lon": 45.1487075}, {"type": "node", "id": 4520201669, "lat": 39.7646, "lon": 45.1491437}, {"type": "node", "id": 4520201670, "lat": 39.7651279, "lon": 45.1497981}, {"type": "node", "id": 4520201671, "lat": 39.7657365, "lon": 45.149887}, {"type": "node", "id": 4520201672, "lat": 39.7662084, "lon": 45.1484813}, {"type": "node", "id": 4520201673, "lat": 39.7663947, "lon": 45.1473664}, {"type": "node", "id": 4520201674, "lat": 39.7668121, "lon": 45.1467474}, {"type": "node", "id": 4520201675, "lat": 39.7670546, "lon": 45.1455224}, {"type": "node", "id": 4520201676, "lat": 39.7674184, "lon": 45.1449099}, {"type": "node", "id": 4520201677, "lat": 39.767611, "lon": 45.1443438}, {"type": "node", "id": 4520201678, "lat": 39.7675111, "lon": 45.1440747}, {"type": "node", "id": 4520201679, "lat": 39.7677751, "lon": 45.1436663}, {"type": "node", "id": 4520201680, "lat": 39.7678607, "lon": 45.1431838}, {"type": "node", "id": 4520201681, "lat": 39.7679035, "lon": 45.1425713}, {"type": "node", "id": 4520201682, "lat": 39.7683386, "lon": 45.1421258}, {"type": "node", "id": 4520201683, "lat": 39.7695583, "lon": 45.1417082}, {"type": "node", "id": 4520201684, "lat": 39.7698151, "lon": 45.1411514}, {"type": "node", "id": 4520201685, "lat": 39.7696225, "lon": 45.1404368}, {"type": "node", "id": 4520201686, "lat": 39.7697937, "lon": 45.1398336}, {"type": "node", "id": 4520201687, "lat": 39.7697438, "lon": 45.1391933}, {"type": "node", "id": 4520201688, "lat": 39.7699078, "lon": 45.1385065}, {"type": "node", "id": 4520201989, "lat": 39.7698008, "lon": 45.1380333}, {"type": "node", "id": 4520201990, "lat": 39.7692302, "lon": 45.1378012}, {"type": "node", "id": 4520201991, "lat": 39.7687166, "lon": 45.1376435}, {"type": "node", "id": 4520201992, "lat": 39.7683243, "lon": 45.1373651}, {"type": "node", "id": 4520201993, "lat": 39.7684313, "lon": 45.1366041}, {"type": "node", "id": 4520201994, "lat": 39.7692445, "lon": 45.1358524}, {"type": "node", "id": 4520201995, "lat": 39.7696511, "lon": 45.1354998}, {"type": "node", "id": 4520201996, "lat": 39.7697723, "lon": 45.1351564}, {"type": "node", "id": 4520201997, "lat": 39.7697795, "lon": 45.134813}, {"type": "node", "id": 4520201998, "lat": 39.7696582, "lon": 45.1346924}, {"type": "node", "id": 4520201999, "lat": 39.7694157, "lon": 45.1344511}, {"type": "node", "id": 4520202000, "lat": 39.7692516, "lon": 45.1342841}, {"type": "node", "id": 4520202001, "lat": 39.7692373, "lon": 45.1340985}, {"type": "node", "id": 4520202002, "lat": 39.7693729, "lon": 45.1337551}, {"type": "node", "id": 4520202003, "lat": 39.7695512, "lon": 45.1335416}, {"type": "node", "id": 4520212776, "lat": 39.7318052, "lon": 45.1815639}, {"type": "node", "id": 4520212777, "lat": 39.7313128, "lon": 45.1821671}, {"type": "node", "id": 4520212778, "lat": 39.7314412, "lon": 45.1827146}, {"type": "node", "id": 4520212779, "lat": 39.7317267, "lon": 45.1831044}, {"type": "node", "id": 4520212780, "lat": 39.7319622, "lon": 45.184051}, {"type": "node", "id": 4520212781, "lat": 39.7312271, "lon": 45.1851925}, {"type": "node", "id": 4520212782, "lat": 39.7307775, "lon": 45.185443}, {"type": "node", "id": 4520212783, "lat": 39.7299639, "lon": 45.1861298}, {"type": "node", "id": 4520212784, "lat": 39.7296356, "lon": 45.1865474}, {"type": "node", "id": 4520212785, "lat": 39.7295856, "lon": 45.1869557}, {"type": "node", "id": 4520212786, "lat": 39.7296427, "lon": 45.1874754}, {"type": "node", "id": 4520212787, "lat": 39.7313056, "lon": 45.1881157}, {"type": "node", "id": 4520212788, "lat": 39.7312271, "lon": 45.1886725}, {"type": "node", "id": 4520212789, "lat": 39.7311201, "lon": 45.1893778}, {"type": "node", "id": 4520212790, "lat": 39.7310487, "lon": 45.1903244}, {"type": "node", "id": 4520212791, "lat": 39.7310987, "lon": 45.1912895}, {"type": "node", "id": 4520212792, "lat": 39.7312914, "lon": 45.1918556}, {"type": "node", "id": 4520212793, "lat": 39.7313056, "lon": 45.1929321}, {"type": "node", "id": 4520212794, "lat": 39.7313413, "lon": 45.1936931}, {"type": "node", "id": 4520212795, "lat": 39.7315554, "lon": 45.1946583}, {"type": "node", "id": 4520212796, "lat": 39.7318123, "lon": 45.1949459}, {"type": "node", "id": 4520212797, "lat": 39.7320907, "lon": 45.1954842}, {"type": "node", "id": 4520212798, "lat": 39.732005, "lon": 45.1959668}, {"type": "node", "id": 4520212799, "lat": 39.7316197, "lon": 45.195976}, {"type": "node", "id": 4520212800, "lat": 39.7309916, "lon": 45.1956512}, {"type": "node", "id": 4520212801, "lat": 39.7305562, "lon": 45.1953914}, {"type": "node", "id": 4520212802, "lat": 39.7302636, "lon": 45.1951687}, {"type": "node", "id": 4520212803, "lat": 39.7301494, "lon": 45.1946861}, {"type": "node", "id": 4520212804, "lat": 39.7300923, "lon": 45.1942314}, {"type": "node", "id": 4520212805, "lat": 39.7289647, "lon": 45.1928208}, {"type": "node", "id": 4520212806, "lat": 39.7279155, "lon": 45.1916608}, {"type": "node", "id": 4520212807, "lat": 39.7272089, "lon": 45.1906307}, {"type": "node", "id": 4520212808, "lat": 39.7266379, "lon": 45.1905657}, {"type": "node", "id": 4520212809, "lat": 39.7260669, "lon": 45.1903058}, {"type": "node", "id": 4520212810, "lat": 39.725482, "lon": 45.1899441}, {"type": "node", "id": 4520212811, "lat": 39.7252868, "lon": 45.1896761}, {"type": "node", "id": 4520212812, "lat": 39.7250749, "lon": 45.1893883}, {"type": "node", "id": 4520212813, "lat": 39.7244939, "lon": 45.1886828}, {"type": "node", "id": 4520212814, "lat": 39.7237752, "lon": 45.1881699}, {"type": "node", "id": 4520212815, "lat": 39.7230358, "lon": 45.1875026}, {"type": "node", "id": 4520212816, "lat": 39.722212, "lon": 45.1869485}, {"type": "node", "id": 4520212817, "lat": 39.721763, "lon": 45.1864773}, {"type": "node", "id": 4520212818, "lat": 39.7209707, "lon": 45.1863202}, {"type": "node", "id": 4520212819, "lat": 39.7204624, "lon": 45.1856593}, {"type": "node", "id": 4520212820, "lat": 39.719872, "lon": 45.1857126}, {"type": "node", "id": 4520212821, "lat": 39.7192488, "lon": 45.1854781}, {"type": "node", "id": 4520212822, "lat": 39.7187077, "lon": 45.1860857}, {"type": "node", "id": 4520212823, "lat": 39.7181255, "lon": 45.1869599}, {"type": "node", "id": 4520212824, "lat": 39.7176329, "lon": 45.1870515}, {"type": "node", "id": 4520212825, "lat": 39.7169351, "lon": 45.1869163}, {"type": "node", "id": 4520212826, "lat": 39.7167271, "lon": 45.1867332}, {"type": "node", "id": 4520212827, "lat": 39.7169541, "lon": 45.1860603}, {"type": "node", "id": 4520212828, "lat": 39.7173727, "lon": 45.1851569}, {"type": "node", "id": 4520212829, "lat": 39.7172776, "lon": 45.1839493}, {"type": "node", "id": 4520212830, "lat": 39.7168659, "lon": 45.1834003}, {"type": "node", "id": 4520212831, "lat": 39.717406, "lon": 45.1826291}, {"type": "node", "id": 4520212832, "lat": 39.7171325, "lon": 45.1814048}, {"type": "node", "id": 4520212833, "lat": 39.7159835, "lon": 45.1771012}, {"type": "node", "id": 4520212834, "lat": 39.7163081, "lon": 45.1742458}, {"type": "node", "id": 4520212835, "lat": 39.7167412, "lon": 45.1736326}, {"type": "node", "id": 4520212836, "lat": 39.7170857, "lon": 45.1745704}, {"type": "node", "id": 4520212838, "lat": 39.7190769, "lon": 45.1738244}, {"type": "node", "id": 4520212839, "lat": 39.7191249, "lon": 45.1748573}, {"type": "node", "id": 4520212840, "lat": 39.7194569, "lon": 45.1752241}, {"type": "node", "id": 4520212841, "lat": 39.7197241, "lon": 45.1759593}, {"type": "node", "id": 4520212842, "lat": 39.7200161, "lon": 45.1763794}, {"type": "node", "id": 4520212843, "lat": 39.7204325, "lon": 45.1767107}, {"type": "node", "id": 4520212844, "lat": 39.7205692, "lon": 45.177357}, {"type": "node", "id": 4520212845, "lat": 39.7207991, "lon": 45.1783911}, {"type": "node", "id": 4520212846, "lat": 39.7210974, "lon": 45.1797402}, {"type": "node", "id": 4520212847, "lat": 39.7211471, "lon": 45.1806289}, {"type": "node", "id": 4520212848, "lat": 39.7213832, "lon": 45.1814853}, {"type": "node", "id": 4520212849, "lat": 39.7217374, "lon": 45.182277}, {"type": "node", "id": 4520212850, "lat": 39.7224955, "lon": 45.1828668}, {"type": "node", "id": 4520212851, "lat": 39.7229553, "lon": 45.1833596}, {"type": "node", "id": 4520212852, "lat": 39.7234462, "lon": 45.1829879}, {"type": "node", "id": 4520212853, "lat": 39.7239247, "lon": 45.1826082}, {"type": "node", "id": 4520212854, "lat": 39.7245858, "lon": 45.1825319}, {"type": "node", "id": 4520212855, "lat": 39.7260205, "lon": 45.1820586}, {"type": "node", "id": 4520212856, "lat": 39.72662, "lon": 45.1823185}, {"type": "node", "id": 4520212857, "lat": 39.7276692, "lon": 45.1830702}, {"type": "node", "id": 4520212858, "lat": 39.7281974, "lon": 45.1828846}, {"type": "node", "id": 4520212859, "lat": 39.7286399, "lon": 45.1829217}, {"type": "node", "id": 4520212860, "lat": 39.7294606, "lon": 45.1824577}, {"type": "node", "id": 4520212861, "lat": 39.7300102, "lon": 45.1826154}, {"type": "node", "id": 4520212862, "lat": 39.7313305, "lon": 45.1813905}, {"type": "node", "id": 4541737872, "lat": 39.737156, "lon": 45.3410448}, {"type": "node", "id": 4541737873, "lat": 39.737519, "lon": 45.3401651}, {"type": "node", "id": 4541737874, "lat": 39.736859, "lon": 45.3380622}, {"type": "node", "id": 4541737875, "lat": 39.7354234, "lon": 45.3380622}, {"type": "node", "id": 4541737876, "lat": 39.7352419, "lon": 45.3390278}, {"type": "node", "id": 4541737877, "lat": 39.7350748, "lon": 45.3394395}, {"type": "node", "id": 4541737878, "lat": 39.7344374, "lon": 45.3394811}, {"type": "node", "id": 4541737879, "lat": 39.7332287, "lon": 45.3408517}, {"type": "node", "id": 4541737880, "lat": 39.7321396, "lon": 45.3409375}, {"type": "node", "id": 4541737881, "lat": 39.7315125, "lon": 45.3413452}, {"type": "node", "id": 4541737882, "lat": 39.7315455, "lon": 45.342225}, {"type": "node", "id": 4541737883, "lat": 39.7319416, "lon": 45.3426541}, {"type": "node", "id": 4541737884, "lat": 39.7325686, "lon": 45.3429546}, {"type": "node", "id": 4541737885, "lat": 39.7331627, "lon": 45.3430189}, {"type": "node", "id": 4541737886, "lat": 39.7334102, "lon": 45.343491}, {"type": "node", "id": 4541737887, "lat": 39.7331627, "lon": 45.3440918}, {"type": "node", "id": 4541737888, "lat": 39.7327832, "lon": 45.344521}, {"type": "node", "id": 4541738489, "lat": 39.7324201, "lon": 45.3451003}, {"type": "node", "id": 4541738490, "lat": 39.7322881, "lon": 45.3458084}, {"type": "node", "id": 4541738491, "lat": 39.7323871, "lon": 45.3466238}, {"type": "node", "id": 4541738492, "lat": 39.7324861, "lon": 45.3471173}, {"type": "node", "id": 4541738493, "lat": 39.7322881, "lon": 45.3484263}, {"type": "node", "id": 4541738494, "lat": 39.7319251, "lon": 45.3491773}, {"type": "node", "id": 4541738495, "lat": 39.7315455, "lon": 45.3496064}, {"type": "node", "id": 4541738496, "lat": 39.7320571, "lon": 45.3504862}, {"type": "node", "id": 4541738497, "lat": 39.7323376, "lon": 45.3507222}, {"type": "node", "id": 4541738498, "lat": 39.7322056, "lon": 45.3513874}, {"type": "node", "id": 4541738499, "lat": 39.7317931, "lon": 45.3514089}, {"type": "node", "id": 4541738500, "lat": 39.7313805, "lon": 45.3510441}, {"type": "node", "id": 4541738501, "lat": 39.7306379, "lon": 45.3506579}, {"type": "node", "id": 4541738502, "lat": 39.7300273, "lon": 45.3505935}, {"type": "node", "id": 4541738503, "lat": 39.7300108, "lon": 45.3508939}, {"type": "node", "id": 4541738504, "lat": 39.7302749, "lon": 45.3516449}, {"type": "node", "id": 4541738505, "lat": 39.7303904, "lon": 45.3521599}, {"type": "node", "id": 4541738506, "lat": 39.7302914, "lon": 45.3523959}, {"type": "node", "id": 4541738507, "lat": 39.7296148, "lon": 45.3523959}, {"type": "node", "id": 4541738508, "lat": 39.7291857, "lon": 45.3525247}, {"type": "node", "id": 4541738509, "lat": 39.7288392, "lon": 45.3527392}, {"type": "node", "id": 4541738510, "lat": 39.7284101, "lon": 45.3526534}, {"type": "node", "id": 4541738511, "lat": 39.7278325, "lon": 45.3522028}, {"type": "node", "id": 4541738512, "lat": 39.7271889, "lon": 45.3519668}, {"type": "node", "id": 4541738513, "lat": 39.7266938, "lon": 45.3516664}, {"type": "node", "id": 4541738514, "lat": 39.7261987, "lon": 45.3512801}, {"type": "node", "id": 4541738515, "lat": 39.7256706, "lon": 45.3511728}, {"type": "node", "id": 4541738516, "lat": 39.7251755, "lon": 45.3511728}, {"type": "node", "id": 4541738517, "lat": 39.7247464, "lon": 45.3517307}, {"type": "node", "id": 4541738518, "lat": 39.725258, "lon": 45.3522886}, {"type": "node", "id": 4541738519, "lat": 39.7258356, "lon": 45.3527392}, {"type": "node", "id": 4541738520, "lat": 39.7265783, "lon": 45.3532971}, {"type": "node", "id": 4541738521, "lat": 39.7270073, "lon": 45.3539194}, {"type": "node", "id": 4541738522, "lat": 39.7271559, "lon": 45.3544129}, {"type": "node", "id": 4541738523, "lat": 39.7271724, "lon": 45.3549494}, {"type": "node", "id": 4541738524, "lat": 39.7270403, "lon": 45.3554}, {"type": "node", "id": 4541738525, "lat": 39.727618, "lon": 45.3555287}, {"type": "node", "id": 4541738526, "lat": 39.728113, "lon": 45.3555502}, {"type": "node", "id": 4541738527, "lat": 39.728146, "lon": 45.3560223}, {"type": "node", "id": 4541738528, "lat": 39.727882, "lon": 45.3563441}, {"type": "node", "id": 4541738529, "lat": 39.727882, "lon": 45.3566231}, {"type": "node", "id": 4541738530, "lat": 39.7281625, "lon": 45.3569235}, {"type": "node", "id": 4541738531, "lat": 39.7286576, "lon": 45.3567733}, {"type": "node", "id": 4541738532, "lat": 39.7293507, "lon": 45.3558935}, {"type": "node", "id": 4541738533, "lat": 39.7295983, "lon": 45.3560437}, {"type": "node", "id": 4541738534, "lat": 39.7299448, "lon": 45.3562154}, {"type": "node", "id": 4541738535, "lat": 39.7304069, "lon": 45.3563656}, {"type": "node", "id": 4541738536, "lat": 39.7307204, "lon": 45.3561296}, {"type": "node", "id": 4541738537, "lat": 39.7309515, "lon": 45.3566231}, {"type": "node", "id": 4541738538, "lat": 39.7314135, "lon": 45.3566875}, {"type": "node", "id": 4541738539, "lat": 39.7322386, "lon": 45.3567733}, {"type": "node", "id": 4541738540, "lat": 39.7327997, "lon": 45.3566445}, {"type": "node", "id": 4541738541, "lat": 39.7333112, "lon": 45.3563656}, {"type": "node", "id": 4541738542, "lat": 39.7336413, "lon": 45.3559364}, {"type": "node", "id": 4541738543, "lat": 39.7341363, "lon": 45.3553356}, {"type": "node", "id": 4541738544, "lat": 39.7345818, "lon": 45.3550138}, {"type": "node", "id": 4541738545, "lat": 39.7348128, "lon": 45.3549494}, {"type": "node", "id": 4541738546, "lat": 39.7349449, "lon": 45.3550352}, {"type": "node", "id": 4541738547, "lat": 39.7348954, "lon": 45.3556789}, {"type": "node", "id": 4541738548, "lat": 39.7347468, "lon": 45.3560437}, {"type": "node", "id": 4541738549, "lat": 39.7348128, "lon": 45.3565373}, {"type": "node", "id": 4541738550, "lat": 39.7349614, "lon": 45.3568162}, {"type": "node", "id": 4541738551, "lat": 39.7353574, "lon": 45.3577818}, {"type": "node", "id": 4541738552, "lat": 39.7356874, "lon": 45.3588547}, {"type": "node", "id": 4541738553, "lat": 39.7357699, "lon": 45.3592624}, {"type": "node", "id": 4541738554, "lat": 39.7363804, "lon": 45.3591122}, {"type": "node", "id": 4541738555, "lat": 39.736562, "lon": 45.3582324}, {"type": "node", "id": 4541738556, "lat": 39.737288, "lon": 45.3570308}, {"type": "node", "id": 4541738557, "lat": 39.7378779, "lon": 45.3557648}, {"type": "node", "id": 4541738558, "lat": 39.7378531, "lon": 45.3547026}, {"type": "node", "id": 4541738559, "lat": 39.7376634, "lon": 45.3539301}, {"type": "node", "id": 4541738560, "lat": 39.7375891, "lon": 45.3535976}, {"type": "node", "id": 4541738561, "lat": 39.7375231, "lon": 45.3531469}, {"type": "node", "id": 4541738562, "lat": 39.7379026, "lon": 45.3519453}, {"type": "node", "id": 4541738563, "lat": 39.7383811, "lon": 45.3502502}, {"type": "node", "id": 4541738564, "lat": 39.7391381, "lon": 45.3474741}, {"type": "node", "id": 4541738565, "lat": 39.7361288, "lon": 45.3455402}, {"type": "node", "id": 4541738566, "lat": 39.7361618, "lon": 45.3447463}, {"type": "node", "id": 4541738567, "lat": 39.7364052, "lon": 45.3437512}, {"type": "node", "id": 4541738568, "lat": 39.7359844, "lon": 45.343609}, {"type": "node", "id": 4541738569, "lat": 39.7356874, "lon": 45.343137}, {"type": "node", "id": 4541738570, "lat": 39.7357163, "lon": 45.3424396}, {"type": "node", "id": 4541738571, "lat": 39.7357575, "lon": 45.3413881}, {"type": "node", "id": 4745729977, "lat": 39.7172392, "lon": 45.1751255}, {"type": "node", "id": 4745732171, "lat": 39.7058832, "lon": 45.2909514}, {"type": "node", "id": 4745732172, "lat": 39.7056522, "lon": 45.289334}, {"type": "node", "id": 4745732173, "lat": 39.7061308, "lon": 45.2891221}, {"type": "node", "id": 4745732174, "lat": 39.705941, "lon": 45.2883282}, {"type": "node", "id": 4745732175, "lat": 39.706428, "lon": 45.2869549}, {"type": "node", "id": 4745732176, "lat": 39.7060483, "lon": 45.2862146}, {"type": "node", "id": 4745732177, "lat": 39.7046781, "lon": 45.2865901}, {"type": "node", "id": 4745732178, "lat": 39.7033492, "lon": 45.2883175}, {"type": "node", "id": 4745732179, "lat": 39.7027961, "lon": 45.2898303}, {"type": "node", "id": 4745732180, "lat": 39.7033574, "lon": 45.2903345}, {"type": "node", "id": 4745732181, "lat": 39.7037784, "lon": 45.2913537}, {"type": "node", "id": 4745732182, "lat": 39.7036546, "lon": 45.2917078}, {"type": "node", "id": 4745732183, "lat": 39.7038362, "lon": 45.2924481}, {"type": "node", "id": 4745732184, "lat": 39.7049835, "lon": 45.2920618}, {"type": "node", "id": 4745732185, "lat": 39.7057677, "lon": 45.2917293}, {"type": "node", "id": 4745732186, "lat": 39.687048, "lon": 45.211085}, {"type": "node", "id": 4745732187, "lat": 39.6842247, "lon": 45.2150284}, {"type": "node", "id": 4745732188, "lat": 39.684006, "lon": 45.2151907}, {"type": "node", "id": 4745732189, "lat": 39.6839978, "lon": 45.2160042}, {"type": "node", "id": 4745732190, "lat": 39.6841669, "lon": 45.2165633}, {"type": "node", "id": 4745732191, "lat": 39.684594, "lon": 45.2168089}, {"type": "node", "id": 4745732192, "lat": 39.6851298, "lon": 45.2172395}, {"type": "node", "id": 4745732193, "lat": 39.6852133, "lon": 45.2174779}, {"type": "node", "id": 4745732194, "lat": 39.6849326, "lon": 45.2177037}, {"type": "node", "id": 4745732195, "lat": 39.6847655, "lon": 45.2182138}, {"type": "node", "id": 4745732196, "lat": 39.6842649, "lon": 45.2185514}, {"type": "node", "id": 4745732197, "lat": 39.6847848, "lon": 45.2183977}, {"type": "node", "id": 4745732373, "lat": 39.6853103, "lon": 45.2096375}, {"type": "node", "id": 4745732375, "lat": 39.6824169, "lon": 45.2115662}, {"type": "node", "id": 4745732376, "lat": 39.6816583, "lon": 45.211889}, {"type": "node", "id": 4745732377, "lat": 39.6811883, "lon": 45.2126761}, {"type": "node", "id": 4745732378, "lat": 39.6809918, "lon": 45.213505}, {"type": "node", "id": 4745732379, "lat": 39.6808325, "lon": 45.2147448}, {"type": "node", "id": 4768049547, "lat": 39.876691, "lon": 45.3581286}, {"type": "node", "id": 4768049548, "lat": 39.8765922, "lon": 45.3587187}, {"type": "node", "id": 4971085542, "lat": 39.6937315, "lon": 45.4755878}, {"type": "node", "id": 4971085543, "lat": 39.6901155, "lon": 45.4752445}, {"type": "node", "id": 4971085544, "lat": 39.7064603, "lon": 45.4439807}, {"type": "node", "id": 4971085545, "lat": 39.704727, "lon": 45.4509544}, {"type": "node", "id": 4971085546, "lat": 39.6998221, "lon": 45.4545734}, {"type": "node", "id": 4971085547, "lat": 39.6962818, "lon": 45.4646286}, {"type": "node", "id": 5224841169, "lat": 39.7059382, "lon": 45.2916607}, {"type": "node", "id": 5234660986, "lat": 39.6849471, "lon": 45.394671}, {"type": "node", "id": 5234660987, "lat": 39.684881, "lon": 45.3952074}, {"type": "node", "id": 5234660988, "lat": 39.6847489, "lon": 45.3954112}, {"type": "node", "id": 5234660989, "lat": 39.6841379, "lon": 45.3957116}, {"type": "node", "id": 5234660990, "lat": 39.6837416, "lon": 45.3958833}, {"type": "node", "id": 5234660991, "lat": 39.6835517, "lon": 45.3959906}, {"type": "node", "id": 5234660992, "lat": 39.68337, "lon": 45.3961408}, {"type": "node", "id": 5234660993, "lat": 39.6831884, "lon": 45.3962266}, {"type": "node", "id": 5234660994, "lat": 39.6827673, "lon": 45.3962374}, {"type": "node", "id": 5234660995, "lat": 39.6825691, "lon": 45.396173}, {"type": "node", "id": 5234660996, "lat": 39.6824288, "lon": 45.3959691}, {"type": "node", "id": 5234660997, "lat": 39.6823049, "lon": 45.3954327}, {"type": "node", "id": 5234660998, "lat": 39.6822389, "lon": 45.3951752}, {"type": "node", "id": 5234660999, "lat": 39.6821068, "lon": 45.3949284}, {"type": "node", "id": 5234661000, "lat": 39.6819334, "lon": 45.3947461}, {"type": "node", "id": 5234661001, "lat": 39.6817517, "lon": 45.3945959}, {"type": "node", "id": 5234661002, "lat": 39.6815535, "lon": 45.3944993}, {"type": "node", "id": 5234661003, "lat": 39.6811655, "lon": 45.3941989}, {"type": "node", "id": 5234661004, "lat": 39.6810086, "lon": 45.3940272}, {"type": "node", "id": 5234661005, "lat": 39.6808187, "lon": 45.3938663}, {"type": "node", "id": 5234661006, "lat": 39.6806618, "lon": 45.3936732}, {"type": "node", "id": 5234661007, "lat": 39.6803645, "lon": 45.393244}, {"type": "node", "id": 5234661008, "lat": 39.6802324, "lon": 45.3929865}, {"type": "node", "id": 5234661009, "lat": 39.6801168, "lon": 45.392729}, {"type": "node", "id": 5234661010, "lat": 39.6799517, "lon": 45.3924823}, {"type": "node", "id": 5234661011, "lat": 39.6798443, "lon": 45.3922677}, {"type": "node", "id": 5234661012, "lat": 39.6797618, "lon": 45.3919351}, {"type": "node", "id": 5234661013, "lat": 39.6796709, "lon": 45.3917098}, {"type": "node", "id": 5234661014, "lat": 39.6796131, "lon": 45.3914308}, {"type": "node", "id": 5234661015, "lat": 39.6796131, "lon": 45.3911412}, {"type": "node", "id": 5234661016, "lat": 39.6796462, "lon": 45.3908837}, {"type": "node", "id": 5234661017, "lat": 39.6797783, "lon": 45.3906798}, {"type": "node", "id": 5234661018, "lat": 39.6799764, "lon": 45.3905833}, {"type": "node", "id": 5234661019, "lat": 39.6801746, "lon": 45.3905833}, {"type": "node", "id": 5234661020, "lat": 39.6803976, "lon": 45.3906047}, {"type": "node", "id": 5234661021, "lat": 39.6808187, "lon": 45.3906155}, {"type": "node", "id": 5234661022, "lat": 39.6810333, "lon": 45.3906584}, {"type": "node", "id": 5234661023, "lat": 39.681248, "lon": 45.3907013}, {"type": "node", "id": 5234661024, "lat": 39.6814627, "lon": 45.3907227}, {"type": "node", "id": 5234661025, "lat": 39.6816774, "lon": 45.390712}, {"type": "node", "id": 5234661026, "lat": 39.6820737, "lon": 45.3906476}, {"type": "node", "id": 5234661027, "lat": 39.6822801, "lon": 45.3906155}, {"type": "node", "id": 5234661028, "lat": 39.6824866, "lon": 45.3906262}, {"type": "node", "id": 5234661029, "lat": 39.6827012, "lon": 45.3906906}, {"type": "node", "id": 5234661030, "lat": 39.6828829, "lon": 45.3907764}, {"type": "node", "id": 5234661031, "lat": 39.6831223, "lon": 45.3910339}, {"type": "node", "id": 5234661032, "lat": 39.6832379, "lon": 45.3912592}, {"type": "node", "id": 5234661033, "lat": 39.6833535, "lon": 45.3915381}, {"type": "node", "id": 5234661034, "lat": 39.6834609, "lon": 45.3917634}, {"type": "node", "id": 5234661035, "lat": 39.6836178, "lon": 45.3919995}, {"type": "node", "id": 5234661036, "lat": 39.6837829, "lon": 45.3921497}, {"type": "node", "id": 5234661037, "lat": 39.6841957, "lon": 45.3923106}, {"type": "node", "id": 5234661038, "lat": 39.6843939, "lon": 45.392375}, {"type": "node", "id": 5234661039, "lat": 39.6845755, "lon": 45.3924823}, {"type": "node", "id": 5234661040, "lat": 39.6847737, "lon": 45.3925466}, {"type": "node", "id": 5234661041, "lat": 39.6849636, "lon": 45.3926539}, {"type": "node", "id": 5234661042, "lat": 39.6853269, "lon": 45.3929222}, {"type": "node", "id": 5234661043, "lat": 39.6855085, "lon": 45.3930724}, {"type": "node", "id": 5234661044, "lat": 39.6856324, "lon": 45.3932869}, {"type": "node", "id": 5234661045, "lat": 39.6857067, "lon": 45.3935659}, {"type": "node", "id": 5234661046, "lat": 39.6857562, "lon": 45.3938556}, {"type": "node", "id": 5234661047, "lat": 39.6856736, "lon": 45.3941345}, {"type": "node", "id": 5234661048, "lat": 39.685492, "lon": 45.3943169}, {"type": "node", "id": 5234661049, "lat": 39.6852856, "lon": 45.394392}, {"type": "node", "id": 5234661050, "lat": 39.6850792, "lon": 45.394392}, {"type": "node", "id": 5237247974, "lat": 39.7162252, "lon": 45.1749456}, {"type": "node", "id": 5245900206, "lat": 39.7446946, "lon": 45.3204918}, {"type": "node", "id": 5271990867, "lat": 39.79085, "lon": 45.3542362}, {"type": "node", "id": 5273479959, "lat": 39.9049048, "lon": 45.2430772}, {"type": "node", "id": 5273479962, "lat": 39.9081794, "lon": 45.2431385}, {"type": "node", "id": 5325784966, "lat": 39.7403862, "lon": 45.3436232}, {"type": "node", "id": 5325784967, "lat": 39.7380328, "lon": 45.3401926}, {"type": "node", "id": 5325784968, "lat": 39.7378039, "lon": 45.3393128}, {"type": "node", "id": 5325784969, "lat": 39.7377915, "lon": 45.3377759}, {"type": "node", "id": 5325784970, "lat": 39.7378122, "lon": 45.3366387}, {"type": "node", "id": 5325784971, "lat": 39.7377792, "lon": 45.3362069}, {"type": "node", "id": 5325784972, "lat": 39.7376286, "lon": 45.3353485}, {"type": "node", "id": 5333013850, "lat": 39.7702152, "lon": 45.3131912}, {"type": "node", "id": 5333013851, "lat": 39.7643082, "lon": 45.3148709}, {"type": "node", "id": 5333013852, "lat": 39.7724604, "lon": 45.3093459}, {"type": "node", "id": 5333013853, "lat": 39.7593421, "lon": 45.3137862}, {"type": "node", "id": 5333013854, "lat": 39.762311, "lon": 45.3146556}, {"type": "node", "id": 5333013855, "lat": 39.7537725, "lon": 45.3083682}, {"type": "node", "id": 5333013856, "lat": 39.75369, "lon": 45.3088403}, {"type": "node", "id": 5333013857, "lat": 39.753426, "lon": 45.3094196}, {"type": "node", "id": 5333013858, "lat": 39.7530136, "lon": 45.3105998}, {"type": "node", "id": 5333013859, "lat": 39.7526342, "lon": 45.3116512}, {"type": "node", "id": 5333013860, "lat": 39.7525929, "lon": 45.3119945}, {"type": "node", "id": 5333013861, "lat": 39.7526589, "lon": 45.3125524}, {"type": "node", "id": 5333013862, "lat": 39.7529806, "lon": 45.3133356}, {"type": "node", "id": 5333013863, "lat": 39.7530796, "lon": 45.313679}, {"type": "node", "id": 5333013864, "lat": 39.7532281, "lon": 45.3140867}, {"type": "node", "id": 5333013865, "lat": 39.753492, "lon": 45.3144622}, {"type": "node", "id": 5333013866, "lat": 39.753789, "lon": 45.3144944}, {"type": "node", "id": 5333013867, "lat": 39.7541024, "lon": 45.3141403}, {"type": "node", "id": 5333013868, "lat": 39.7544901, "lon": 45.3140545}, {"type": "node", "id": 5333013869, "lat": 39.7553974, "lon": 45.3142369}, {"type": "node", "id": 5333013870, "lat": 39.7556695, "lon": 45.3143227}, {"type": "node", "id": 5333013871, "lat": 39.7559665, "lon": 45.3144944}, {"type": "node", "id": 5333013872, "lat": 39.7565686, "lon": 45.3139472}, {"type": "node", "id": 5333013873, "lat": 39.7570305, "lon": 45.3140759}, {"type": "node", "id": 5333013874, "lat": 39.7576078, "lon": 45.3141296}, {"type": "node", "id": 5333013875, "lat": 39.7584903, "lon": 45.3141081}, {"type": "node", "id": 5333013876, "lat": 39.7589605, "lon": 45.3141296}, {"type": "node", "id": 5333013877, "lat": 39.7591625, "lon": 45.313974}, {"type": "node", "id": 5333013879, "lat": 39.759546, "lon": 45.3137487}, {"type": "node", "id": 5333013880, "lat": 39.759979, "lon": 45.31362}, {"type": "node", "id": 5333013881, "lat": 39.7602182, "lon": 45.3135234}, {"type": "node", "id": 5333013882, "lat": 39.7603502, "lon": 45.3135127}, {"type": "node", "id": 5333013883, "lat": 39.7605894, "lon": 45.3135395}, {"type": "node", "id": 5333013884, "lat": 39.7607461, "lon": 45.3136682}, {"type": "node", "id": 5333013885, "lat": 39.7608038, "lon": 45.3138775}, {"type": "node", "id": 5333013886, "lat": 39.7607997, "lon": 45.3141645}, {"type": "node", "id": 5333013887, "lat": 39.7608945, "lon": 45.3142637}, {"type": "node", "id": 5333013888, "lat": 39.7610595, "lon": 45.3143388}, {"type": "node", "id": 5333013889, "lat": 39.7612739, "lon": 45.3144461}, {"type": "node", "id": 5333013890, "lat": 39.7613935, "lon": 45.3144944}, {"type": "node", "id": 5333013891, "lat": 39.761612, "lon": 45.3145212}, {"type": "node", "id": 5333013892, "lat": 39.7618388, "lon": 45.3145641}, {"type": "node", "id": 5333013894, "lat": 39.7630595, "lon": 45.3146982}, {"type": "node", "id": 5333013896, "lat": 39.7647852, "lon": 45.3142556}, {"type": "node", "id": 5333013897, "lat": 39.7659459, "lon": 45.3139257}, {"type": "node", "id": 5333013898, "lat": 39.7663191, "lon": 45.314269}, {"type": "node", "id": 5333013899, "lat": 39.7664572, "lon": 45.3151891}, {"type": "node", "id": 5333013900, "lat": 39.766985, "lon": 45.3152132}, {"type": "node", "id": 5333013901, "lat": 39.7674138, "lon": 45.3150415}, {"type": "node", "id": 5333013902, "lat": 39.7676448, "lon": 45.3146767}, {"type": "node", "id": 5333013903, "lat": 39.7680076, "lon": 45.3142905}, {"type": "node", "id": 5333013904, "lat": 39.7683045, "lon": 45.3138184}, {"type": "node", "id": 5333013905, "lat": 39.7687498, "lon": 45.3138184}, {"type": "node", "id": 5333013906, "lat": 39.7691126, "lon": 45.3139043}, {"type": "node", "id": 5333013907, "lat": 39.7696074, "lon": 45.3139043}, {"type": "node", "id": 5333013909, "lat": 39.7701187, "lon": 45.3119302}, {"type": "node", "id": 5333013910, "lat": 39.7700198, "lon": 45.3112006}, {"type": "node", "id": 5333013911, "lat": 39.7698713, "lon": 45.3102779}, {"type": "node", "id": 5333013912, "lat": 39.7702506, "lon": 45.3098917}, {"type": "node", "id": 5333013913, "lat": 39.7713062, "lon": 45.3097415}, {"type": "node", "id": 5333013915, "lat": 39.7744726, "lon": 45.3085506}, {"type": "node", "id": 5333013916, "lat": 39.7745963, "lon": 45.3083038}, {"type": "node", "id": 5333013917, "lat": 39.7746376, "lon": 45.3080141}, {"type": "node", "id": 5333013918, "lat": 39.7745262, "lon": 45.3078049}, {"type": "node", "id": 5333013919, "lat": 39.7744355, "lon": 45.3075582}, {"type": "node", "id": 5333013920, "lat": 39.7741222, "lon": 45.3070485}, {"type": "node", "id": 5333014621, "lat": 39.7739037, "lon": 45.3063458}, {"type": "node", "id": 5333014622, "lat": 39.7741098, "lon": 45.3054714}, {"type": "node", "id": 5333014623, "lat": 39.7743448, "lon": 45.3052568}, {"type": "node", "id": 5333014624, "lat": 39.7744355, "lon": 45.3047848}, {"type": "node", "id": 5333014625, "lat": 39.7743242, "lon": 45.3045916}, {"type": "node", "id": 5333014626, "lat": 39.7740521, "lon": 45.3041839}, {"type": "node", "id": 5333014627, "lat": 39.773846, "lon": 45.3038192}, {"type": "node", "id": 5333014628, "lat": 39.7739119, "lon": 45.3032505}, {"type": "node", "id": 5333014629, "lat": 39.7741263, "lon": 45.3020811}, {"type": "node", "id": 5333014630, "lat": 39.7739861, "lon": 45.3016198}, {"type": "node", "id": 5333014631, "lat": 39.7735903, "lon": 45.301094}, {"type": "node", "id": 5333014632, "lat": 39.7732522, "lon": 45.301094}, {"type": "node", "id": 5333014633, "lat": 39.7727987, "lon": 45.301373}, {"type": "node", "id": 5333014634, "lat": 39.7726668, "lon": 45.3018236}, {"type": "node", "id": 5333014635, "lat": 39.7725843, "lon": 45.3024459}, {"type": "node", "id": 5333014636, "lat": 39.7725019, "lon": 45.3029287}, {"type": "node", "id": 5333014637, "lat": 39.7723617, "lon": 45.30339}, {"type": "node", "id": 5333014638, "lat": 39.7717597, "lon": 45.3038084}, {"type": "node", "id": 5333014639, "lat": 39.771636, "lon": 45.3039372}, {"type": "node", "id": 5333014640, "lat": 39.7713969, "lon": 45.3041625}, {"type": "node", "id": 5333014641, "lat": 39.7712319, "lon": 45.3042483}, {"type": "node", "id": 5333014642, "lat": 39.7710011, "lon": 45.3042269}, {"type": "node", "id": 5333014643, "lat": 39.7708031, "lon": 45.3040123}, {"type": "node", "id": 5333014644, "lat": 39.77063, "lon": 45.3038943}, {"type": "node", "id": 5333014645, "lat": 39.7702177, "lon": 45.3038192}, {"type": "node", "id": 5333014646, "lat": 39.7699455, "lon": 45.304023}, {"type": "node", "id": 5333014647, "lat": 39.7696157, "lon": 45.3044844}, {"type": "node", "id": 5333014648, "lat": 39.7692363, "lon": 45.3045273}, {"type": "node", "id": 5333014649, "lat": 39.7689312, "lon": 45.3044951}, {"type": "node", "id": 5333014650, "lat": 39.7686426, "lon": 45.3043771}, {"type": "node", "id": 5333014651, "lat": 39.7684199, "lon": 45.304141}, {"type": "node", "id": 5333014652, "lat": 39.768288, "lon": 45.3038406}, {"type": "node", "id": 5333014653, "lat": 39.7680488, "lon": 45.3034437}, {"type": "node", "id": 5333014654, "lat": 39.7679746, "lon": 45.3027892}, {"type": "node", "id": 5333014655, "lat": 39.7682632, "lon": 45.3024244}, {"type": "node", "id": 5333014656, "lat": 39.7684612, "lon": 45.3019845}, {"type": "node", "id": 5333014657, "lat": 39.7686921, "lon": 45.3017378}, {"type": "node", "id": 5333014658, "lat": 39.768923, "lon": 45.301727}, {"type": "node", "id": 5333014659, "lat": 39.769327, "lon": 45.3018021}, {"type": "node", "id": 5333014660, "lat": 39.7696404, "lon": 45.3014481}, {"type": "node", "id": 5333014661, "lat": 39.7694425, "lon": 45.300858}, {"type": "node", "id": 5333014662, "lat": 39.7692281, "lon": 45.3001606}, {"type": "node", "id": 5333014663, "lat": 39.7692858, "lon": 45.2996135}, {"type": "node", "id": 5333014664, "lat": 39.7696487, "lon": 45.2990448}, {"type": "node", "id": 5333014665, "lat": 39.7697064, "lon": 45.2983475}, {"type": "node", "id": 5333014666, "lat": 39.7695992, "lon": 45.2978861}, {"type": "node", "id": 5333014667, "lat": 39.7692611, "lon": 45.2974999}, {"type": "node", "id": 5333014668, "lat": 39.7686261, "lon": 45.2976501}, {"type": "node", "id": 5333014669, "lat": 39.7682385, "lon": 45.2979183}, {"type": "node", "id": 5333014670, "lat": 39.7679169, "lon": 45.2979827}, {"type": "node", "id": 5333014671, "lat": 39.767653, "lon": 45.2979183}, {"type": "node", "id": 5333014672, "lat": 39.7674138, "lon": 45.297457}, {"type": "node", "id": 5333014673, "lat": 39.7676365, "lon": 45.2968776}, {"type": "node", "id": 5333014674, "lat": 39.7678014, "lon": 45.2965665}, {"type": "node", "id": 5333014675, "lat": 39.7679169, "lon": 45.2961159}, {"type": "node", "id": 5333014676, "lat": 39.7680406, "lon": 45.2957833}, {"type": "node", "id": 5333014677, "lat": 39.7681725, "lon": 45.2953327}, {"type": "node", "id": 5333014678, "lat": 39.7680406, "lon": 45.294882}, {"type": "node", "id": 5333014679, "lat": 39.7677767, "lon": 45.2948177}, {"type": "node", "id": 5333014680, "lat": 39.7673891, "lon": 45.2949786}, {"type": "node", "id": 5333014681, "lat": 39.7672159, "lon": 45.2951395}, {"type": "node", "id": 5333014682, "lat": 39.7666964, "lon": 45.2964592}, {"type": "node", "id": 5333014683, "lat": 39.7660201, "lon": 45.296309}, {"type": "node", "id": 5333014684, "lat": 39.7656738, "lon": 45.2959442}, {"type": "node", "id": 5333014685, "lat": 39.7654923, "lon": 45.2959013}, {"type": "node", "id": 5333014686, "lat": 39.7653109, "lon": 45.2961481}, {"type": "node", "id": 5333014687, "lat": 39.7655253, "lon": 45.2966416}, {"type": "node", "id": 5333014688, "lat": 39.7656573, "lon": 45.2970707}, {"type": "node", "id": 5333014689, "lat": 39.7657232, "lon": 45.2976501}, {"type": "node", "id": 5333014690, "lat": 39.7654346, "lon": 45.2981758}, {"type": "node", "id": 5333014691, "lat": 39.7652449, "lon": 45.298723}, {"type": "node", "id": 5333014692, "lat": 39.7651954, "lon": 45.2993667}, {"type": "node", "id": 5333014693, "lat": 39.7650965, "lon": 45.2997851}, {"type": "node", "id": 5333014694, "lat": 39.7650882, "lon": 45.3002572}, {"type": "node", "id": 5333014695, "lat": 39.7649068, "lon": 45.3004718}, {"type": "node", "id": 5333014696, "lat": 39.7647006, "lon": 45.3006756}, {"type": "node", "id": 5333014697, "lat": 39.7644532, "lon": 45.300858}, {"type": "node", "id": 5333014698, "lat": 39.7641646, "lon": 45.3008044}, {"type": "node", "id": 5333014699, "lat": 39.7638594, "lon": 45.300622}, {"type": "node", "id": 5333014700, "lat": 39.7636203, "lon": 45.3003859}, {"type": "node", "id": 5333014701, "lat": 39.7632821, "lon": 45.3002572}, {"type": "node", "id": 5333014702, "lat": 39.7630759, "lon": 45.300461}, {"type": "node", "id": 5333014703, "lat": 39.7629522, "lon": 45.3008044}, {"type": "node", "id": 5333014704, "lat": 39.7628368, "lon": 45.3011799}, {"type": "node", "id": 5333014705, "lat": 39.7626801, "lon": 45.3014266}, {"type": "node", "id": 5333014706, "lat": 39.7623502, "lon": 45.3014588}, {"type": "node", "id": 5333014707, "lat": 39.762012, "lon": 45.3016841}, {"type": "node", "id": 5333014708, "lat": 39.7620038, "lon": 45.3020596}, {"type": "node", "id": 5333014709, "lat": 39.7619213, "lon": 45.3026175}, {"type": "node", "id": 5333014710, "lat": 39.7617729, "lon": 45.3029823}, {"type": "node", "id": 5333014711, "lat": 39.7618471, "lon": 45.3034437}, {"type": "node", "id": 5333014712, "lat": 39.7617976, "lon": 45.3038084}, {"type": "node", "id": 5333014713, "lat": 39.7615172, "lon": 45.3039372}, {"type": "node", "id": 5333014714, "lat": 39.7612615, "lon": 45.3039157}, {"type": "node", "id": 5333014715, "lat": 39.7608821, "lon": 45.3037333}, {"type": "node", "id": 5333014716, "lat": 39.7606182, "lon": 45.3038084}, {"type": "node", "id": 5333014717, "lat": 39.760445, "lon": 45.3044093}, {"type": "node", "id": 5333014718, "lat": 39.760445, "lon": 45.3048384}, {"type": "node", "id": 5333014719, "lat": 39.7601069, "lon": 45.304935}, {"type": "node", "id": 5333014720, "lat": 39.759645, "lon": 45.3051817}, {"type": "node", "id": 5333014721, "lat": 39.7593151, "lon": 45.3056002}, {"type": "node", "id": 5333014722, "lat": 39.7590347, "lon": 45.305804}, {"type": "node", "id": 5333014723, "lat": 39.7588038, "lon": 45.3059113}, {"type": "node", "id": 5333014724, "lat": 39.7585316, "lon": 45.3059649}, {"type": "node", "id": 5333014725, "lat": 39.7582512, "lon": 45.305922}, {"type": "node", "id": 5333014726, "lat": 39.758012, "lon": 45.3056002}, {"type": "node", "id": 5333014727, "lat": 39.7578058, "lon": 45.3053856}, {"type": "node", "id": 5333014728, "lat": 39.7573109, "lon": 45.3053963}, {"type": "node", "id": 5333014729, "lat": 39.7569892, "lon": 45.3056216}, {"type": "node", "id": 5333014730, "lat": 39.7568655, "lon": 45.3059006}, {"type": "node", "id": 5333014731, "lat": 39.7566841, "lon": 45.3059864}, {"type": "node", "id": 5333014732, "lat": 39.7564944, "lon": 45.3059435}, {"type": "node", "id": 5333014733, "lat": 39.7563129, "lon": 45.3058255}, {"type": "node", "id": 5333014734, "lat": 39.7560655, "lon": 45.3056753}, {"type": "node", "id": 5333014735, "lat": 39.7557273, "lon": 45.3057718}, {"type": "node", "id": 5333014736, "lat": 39.7554798, "lon": 45.3059435}, {"type": "node", "id": 5333014737, "lat": 39.7552159, "lon": 45.3060615}, {"type": "node", "id": 5333014738, "lat": 39.7550344, "lon": 45.3059327}, {"type": "node", "id": 5333014739, "lat": 39.7547952, "lon": 45.3056216}, {"type": "node", "id": 5333014740, "lat": 39.754556, "lon": 45.3054392}, {"type": "node", "id": 5333014741, "lat": 39.7543333, "lon": 45.3056002}, {"type": "node", "id": 5333014742, "lat": 39.7541601, "lon": 45.3058576}, {"type": "node", "id": 5333014743, "lat": 39.7539952, "lon": 45.3062653}, {"type": "node", "id": 5333014744, "lat": 39.7539374, "lon": 45.3064692}, {"type": "node", "id": 5333014745, "lat": 39.7539539, "lon": 45.3073919}, {"type": "node", "id": 5333037845, "lat": 39.7293283, "lon": 45.4804695}, {"type": "node", "id": 5333037846, "lat": 39.7306485, "lon": 45.4843533}, {"type": "node", "id": 5333037847, "lat": 39.7314984, "lon": 45.4873037}, {"type": "node", "id": 5333037848, "lat": 39.7316056, "lon": 45.4892456}, {"type": "node", "id": 5333037849, "lat": 39.7311023, "lon": 45.489943}, {"type": "node", "id": 5333037850, "lat": 39.730566, "lon": 45.4905546}, {"type": "node", "id": 5333037851, "lat": 39.7299142, "lon": 45.490694}, {"type": "node", "id": 5333037852, "lat": 39.7295346, "lon": 45.4912197}, {"type": "node", "id": 5333037853, "lat": 39.7291963, "lon": 45.4912841}, {"type": "node", "id": 5333037854, "lat": 39.7284537, "lon": 45.4916382}, {"type": "node", "id": 5333037855, "lat": 39.728726, "lon": 45.492636}, {"type": "node", "id": 5333037856, "lat": 39.7293366, "lon": 45.4927862}, {"type": "node", "id": 5333037857, "lat": 39.7295511, "lon": 45.492872}, {"type": "node", "id": 5333037858, "lat": 39.7295759, "lon": 45.4934513}, {"type": "node", "id": 5333037859, "lat": 39.7289983, "lon": 45.4935157}, {"type": "node", "id": 5333037860, "lat": 39.728561, "lon": 45.4936659}, {"type": "node", "id": 5333037861, "lat": 39.7287177, "lon": 45.4945671}, {"type": "node", "id": 5333037862, "lat": 39.7284289, "lon": 45.4952538}, {"type": "node", "id": 5333037863, "lat": 39.7281236, "lon": 45.4949534}, {"type": "node", "id": 5333037864, "lat": 39.7278266, "lon": 45.4946315}, {"type": "node", "id": 5333037865, "lat": 39.7274883, "lon": 45.4948997}, {"type": "node", "id": 5333037866, "lat": 39.727183, "lon": 45.4951358}, {"type": "node", "id": 5333037867, "lat": 39.7266466, "lon": 45.4950178}, {"type": "node", "id": 5333037868, "lat": 39.7263826, "lon": 45.4945886}, {"type": "node", "id": 5333037869, "lat": 39.7265394, "lon": 45.4941809}, {"type": "node", "id": 5333037870, "lat": 39.7267704, "lon": 45.4937732}, {"type": "node", "id": 5333037871, "lat": 39.7268364, "lon": 45.4935157}, {"type": "node", "id": 5333037872, "lat": 39.7263661, "lon": 45.4931724}, {"type": "node", "id": 5333037873, "lat": 39.7264486, "lon": 45.4922604}, {"type": "node", "id": 5333037874, "lat": 39.7260608, "lon": 45.4915845}, {"type": "node", "id": 5333037875, "lat": 39.7262836, "lon": 45.490576}, {"type": "node", "id": 5333037876, "lat": 39.726234, "lon": 45.4896212}, {"type": "node", "id": 5333037877, "lat": 39.7259617, "lon": 45.4896104}, {"type": "node", "id": 5333037878, "lat": 39.7256482, "lon": 45.4894066}, {"type": "node", "id": 5333037879, "lat": 39.7253676, "lon": 45.4884839}, {"type": "node", "id": 5333037880, "lat": 39.7253676, "lon": 45.4877329}, {"type": "node", "id": 5333037881, "lat": 39.7255987, "lon": 45.4871428}, {"type": "node", "id": 5333037882, "lat": 39.7257307, "lon": 45.4868209}, {"type": "node", "id": 5333037883, "lat": 39.7255822, "lon": 45.4866385}, {"type": "node", "id": 5333037884, "lat": 39.7252026, "lon": 45.4866922}, {"type": "node", "id": 5333037885, "lat": 39.7250706, "lon": 45.486381}, {"type": "node", "id": 5333037886, "lat": 39.7251448, "lon": 45.4861021}, {"type": "node", "id": 5333037887, "lat": 39.7257802, "lon": 45.4854154}, {"type": "node", "id": 5333037888, "lat": 39.7257637, "lon": 45.4844606}, {"type": "node", "id": 5333037889, "lat": 39.727216, "lon": 45.4830766}, {"type": "node", "id": 5333037890, "lat": 39.7279504, "lon": 45.4817998}, {"type": "node", "id": 5333037891, "lat": 39.7283134, "lon": 45.4810595}, {"type": "node", "id": 5333037892, "lat": 39.7287672, "lon": 45.4806411}, {"type": "node", "id": 5333082480, "lat": 39.6686343, "lon": 45.3433496}, {"type": "node", "id": 5333082481, "lat": 39.6686384, "lon": 45.3436232}, {"type": "node", "id": 5333082482, "lat": 39.6686591, "lon": 45.3439397}, {"type": "node", "id": 5333082483, "lat": 39.6687169, "lon": 45.3441596}, {"type": "node", "id": 5333082484, "lat": 39.6688738, "lon": 45.3443313}, {"type": "node", "id": 5333082485, "lat": 39.668944, "lon": 45.3444278}, {"type": "node", "id": 5333082486, "lat": 39.6689275, "lon": 45.3446907}, {"type": "node", "id": 5333082487, "lat": 39.6687747, "lon": 45.3448248}, {"type": "node", "id": 5333082488, "lat": 39.6686715, "lon": 45.3449053}, {"type": "node", "id": 5333082489, "lat": 39.668465, "lon": 45.3448731}, {"type": "node", "id": 5333082490, "lat": 39.6683494, "lon": 45.3448838}, {"type": "node", "id": 5333082491, "lat": 39.6682214, "lon": 45.3447711}, {"type": "node", "id": 5333082492, "lat": 39.6681016, "lon": 45.3448194}, {"type": "node", "id": 5333082493, "lat": 39.6679943, "lon": 45.3450715}, {"type": "node", "id": 5333082494, "lat": 39.667891, "lon": 45.34527}, {"type": "node", "id": 5333082495, "lat": 39.6678456, "lon": 45.3455329}, {"type": "node", "id": 5333082496, "lat": 39.6678043, "lon": 45.3457475}, {"type": "node", "id": 5333082497, "lat": 39.6678456, "lon": 45.3459459}, {"type": "node", "id": 5333082498, "lat": 39.668114, "lon": 45.3460586}, {"type": "node", "id": 5333082499, "lat": 39.668337, "lon": 45.3461015}, {"type": "node", "id": 5333082500, "lat": 39.6685269, "lon": 45.3462464}, {"type": "node", "id": 5333082501, "lat": 39.6687251, "lon": 45.3462571}, {"type": "node", "id": 5333082502, "lat": 39.6687788, "lon": 45.345962}, {"type": "node", "id": 5333082503, "lat": 39.6689812, "lon": 45.3458011}, {"type": "node", "id": 5333082504, "lat": 39.6693321, "lon": 45.3457528}, {"type": "node", "id": 5333082505, "lat": 39.6694932, "lon": 45.3458762}, {"type": "node", "id": 5333082506, "lat": 39.6695634, "lon": 45.3462356}, {"type": "node", "id": 5333082507, "lat": 39.6698111, "lon": 45.3462464}, {"type": "node", "id": 5333082508, "lat": 39.6699474, "lon": 45.3462464}, {"type": "node", "id": 5333082509, "lat": 39.6701539, "lon": 45.3460962}, {"type": "node", "id": 5333082510, "lat": 39.6702901, "lon": 45.3461069}, {"type": "node", "id": 5333082511, "lat": 39.6704842, "lon": 45.3461283}, {"type": "node", "id": 5333082512, "lat": 39.6707443, "lon": 45.3461552}, {"type": "node", "id": 5333082513, "lat": 39.6710416, "lon": 45.3462464}, {"type": "node", "id": 5333082514, "lat": 39.6712646, "lon": 45.3460693}, {"type": "node", "id": 5333082515, "lat": 39.6713678, "lon": 45.3456616}, {"type": "node", "id": 5333082516, "lat": 39.6711614, "lon": 45.345372}, {"type": "node", "id": 5333082517, "lat": 39.6709095, "lon": 45.3454524}, {"type": "node", "id": 5333082518, "lat": 39.6707567, "lon": 45.3454471}, {"type": "node", "id": 5333082519, "lat": 39.6705874, "lon": 45.34527}, {"type": "node", "id": 5333082520, "lat": 39.670414, "lon": 45.3450501}, {"type": "node", "id": 5333082521, "lat": 39.6703397, "lon": 45.3448194}, {"type": "node", "id": 5333082522, "lat": 39.6703108, "lon": 45.3445405}, {"type": "node", "id": 5333082523, "lat": 39.6701786, "lon": 45.3442991}, {"type": "node", "id": 5333082524, "lat": 39.6701208, "lon": 45.3439289}, {"type": "node", "id": 5333082525, "lat": 39.6700382, "lon": 45.3437036}, {"type": "node", "id": 5333082526, "lat": 39.6699763, "lon": 45.3433388}, {"type": "node", "id": 5333082527, "lat": 39.6698978, "lon": 45.3431135}, {"type": "node", "id": 5333082528, "lat": 39.6697079, "lon": 45.3430867}, {"type": "node", "id": 5333082529, "lat": 39.6694973, "lon": 45.3430867}, {"type": "node", "id": 5333082530, "lat": 39.6694312, "lon": 45.3428078}, {"type": "node", "id": 5333082531, "lat": 39.6692743, "lon": 45.3427005}, {"type": "node", "id": 5333082532, "lat": 39.6691505, "lon": 45.3424859}, {"type": "node", "id": 5333082533, "lat": 39.6689399, "lon": 45.3425395}, {"type": "node", "id": 5333082534, "lat": 39.6688903, "lon": 45.3427005}, {"type": "node", "id": 5333082535, "lat": 39.6687912, "lon": 45.3429365}, {"type": "node", "id": 5333082536, "lat": 39.6686549, "lon": 45.3431457}, {"type": "node", "id": 5432181466, "lat": 39.7764928, "lon": 45.533663}, {"type": "node", "id": 5432181467, "lat": 39.7745754, "lon": 45.533212}, {"type": "node", "id": 5491426538, "lat": 39.7350297, "lon": 45.3048438}, {"type": "node", "id": 5658241288, "lat": 39.7272242, "lon": 45.1883125, "tags": {"is_in:country": "Armenia", "is_in:country_code": "AM", "is_in:municipality": "\u0531\u0580\u0565\u0576\u056b\u056b \u0570\u0561\u0574\u0561\u0575\u0576\u0584", "is_in:region": "\u054e\u0561\u0575\u0578\u0581 \u0571\u0578\u0580\u056b \u0574\u0561\u0580\u0566", "name": "\u0531\u0580\u0565\u0576\u056b", "name:ckb": "\u0626\u0627\u0631\u06ce\u0646\u06cc", "name:en": "Areni", "name:hy": "\u0531\u0580\u0565\u0576\u056b", "name:ku": "Ar\u00ean\u00ee", "name:ml": "\u0d05\u0d30\u0d47\u0d28\u0d3f", "name:pl": "Areni", "name:ru": "\u0410\u0440\u0435\u043d\u0438", "place": "village", "population": "1964", "population:date": "2022-01-01", "source:population": "Armstat", "wikidata": "Q207291", "wikipedia": "hy:\u0531\u0580\u0565\u0576\u056b"}}, {"type": "node", "id": 5658241289, "lat": 39.7350462, "lon": 45.348773, "tags": {"is_in:country": "Armenia", "is_in:country_code": "AM", "is_in:municipality": "\u0531\u0580\u0565\u0576\u056b\u056b \u0570\u0561\u0574\u0561\u0575\u0576\u0584", "is_in:region": "\u054e\u0561\u0575\u0578\u0581 \u0571\u0578\u0580\u056b \u0574\u0561\u0580\u0566", "name": "\u0531\u0563\u0561\u0580\u0561\u056f\u0561\u0571\u0578\u0580", "name:en": "Agarakadzor", "name:hy": "\u0531\u0563\u0561\u0580\u0561\u056f\u0561\u0571\u0578\u0580", "name:ru": "\u0410\u0433\u0430\u0440\u0430\u043a\u0430\u0434\u0437\u043e\u0440", "place": "village", "population": "1339", "population:date": "2022-01-01", "source:population": "Armstat", "wikidata": "Q1955941", "wikipedia": "en:Agarakadzor"}}, {"type": "node", "id": 5658999087, "lat": 39.7790524, "lon": 45.3454757, "tags": {"is_in:country": "Armenia", "is_in:country_code": "AM", "is_in:municipality": "\u0535\u0572\u0565\u0563\u0576\u0561\u0571\u0578\u0580\u056b \u0570\u0561\u0574\u0561\u0575\u0576\u0584", "is_in:region": "\u054e\u0561\u0575\u0578\u0581 \u0571\u0578\u0580\u056b \u0574\u0561\u0580\u0566", "name": "\u0533\u056c\u0561\u0571\u0578\u0580", "name:ckb": "\u06af\u0644\u0627\u062f\u0632\u06c6\u0631", "name:en": "Gladzor", "name:hy": "\u0533\u056c\u0561\u0571\u0578\u0580", "name:pl": "Gladzor", "name:ru": "\u0413\u043b\u0430\u0434\u0437\u043e\u0440", "place": "village", "population": "2441", "population:date": "2022-01-01", "source:population": "Armstat", "wikidata": "Q2536608", "wikipedia": "en:Gladzor"}}, {"type": "node", "id": 5658999088, "lat": 39.7629525, "lon": 45.3083973, "tags": {"is_in:country": "Armenia", "is_in:country_code": "AM", "is_in:municipality": "\u0535\u0572\u0565\u0563\u0576\u0561\u0571\u0578\u0580\u056b \u0570\u0561\u0574\u0561\u0575\u0576\u0584", "is_in:region": "\u054e\u0561\u0575\u0578\u0581 \u0571\u0578\u0580\u056b \u0574\u0561\u0580\u0566", "name": "\u0533\u0565\u057f\u0561\u0583", "name:en": "Getap", "name:hy": "\u0533\u0565\u057f\u0561\u0583", "name:ru": "\u0413\u0435\u0442\u0430\u043f", "place": "village", "population": "2239", "population:date": "2022-01-01", "source:population": "Armstat", "wikidata": "Q2536601", "wikipedia": "en:Getap, Vayots Dzor"}}, {"type": "node", "id": 5658999089, "lat": 39.7389601, "lon": 45.2669547, "tags": {"is_in:country": "Armenia", "is_in:country_code": "AM", "is_in:municipality": "\u0531\u0580\u0565\u0576\u056b\u056b \u0570\u0561\u0574\u0561\u0575\u0576\u0584", "is_in:region": "\u054e\u0561\u0575\u0578\u0581 \u0571\u0578\u0580\u056b \u0574\u0561\u0580\u0566", "name": "\u0531\u0580\u0583\u056b", "name:en": "Arpi", "name:hy": "\u0531\u0580\u0583\u056b", "name:ru": "\u0410\u0440\u043f\u0438", "place": "village", "population": "1101", "population:date": "2022-01-01", "source:population": "Armstat", "wikidata": "Q2710153", "wikipedia": "en:Arpi, Armenia"}}, {"type": "node", "id": 5659042505, "lat": 39.7753797, "lon": 45.5383515, "tags": {"is_in:country": "Armenia", "is_in:country_code": "AM", "is_in:municipality": "\u054e\u0561\u0575\u0584\u056b \u0570\u0561\u0574\u0561\u0575\u0576\u0584", "is_in:region": "\u054e\u0561\u0575\u0578\u0581 \u0571\u0578\u0580\u056b \u0574\u0561\u0580\u0566", "name": "\u0540\u0565\u0580\u0570\u0565\u0580", "name:en": "Herher", "name:hy": "\u0540\u0565\u0580\u0570\u0565\u0580", "name:ru": "\u0413\u0435\u0440\u0433\u0435\u0440", "place": "village", "population": "610", "population:date": "2022-01-01", "source:population": "Armstat", "wikidata": "Q2536473", "wikipedia": "en:Herher"}}, {"type": "node", "id": 5659042507, "lat": 39.6954487, "lon": 45.4551172, "tags": {"is_in:country": "Armenia", "is_in:country_code": "AM", "is_in:municipality": "\u054e\u0561\u0575\u0584\u056b \u0570\u0561\u0574\u0561\u0575\u0576\u0584", "is_in:region": "\u054e\u0561\u0575\u0578\u0581 \u0571\u0578\u0580\u056b \u0574\u0561\u0580\u0566", "name": "\u054e\u0561\u0575\u0584", "name:ar": "\u0648\u0627\u064a\u0643", "name:az": "Vayk", "name:be": "\u0412\u0430\u0439\u043a", "name:bg": "\u0412\u0430\u0439\u043a", "name:ca": "Vaik", "name:ce": "\u0412\u0430\u0439\u043a", "name:ckb": "\u06a4\u0627\u06cc\u06a9", "name:de": "Wajk", "name:el": "\u0392\u03ac\u03b9\u03ba", "name:en": "Vayk", "name:eo": "Vajk", "name:es": "Vayk", "name:fa": "\u0648\u0627\u06cc\u06a9", "name:fr": "Vayk", "name:gl": "Vaik", "name:hr": "Vajk", "name:hu": "Vajk", "name:hy": "\u054e\u0561\u0575\u0584", "name:id": "Vayk", "name:it": "Vajk", "name:ka": "\u10d5\u10d0\u10d8\u10e5\u10d8", "name:lt": "Vaikas", "name:ml": "\u0d35\u0d3e\u0d2f\u0d4d\u0d15\u0d4d", "name:ms": "Vayk", "name:nb": "Vajk", "name:nl": "Vajk", "name:pl": "Wajk", "name:ro": "Vaik", "name:ru": "\u0412\u0430\u0439\u043a", "name:sr": "\u0412\u0430\u0458\u043a", "name:sv": "Vayk'", "name:tr": "Vayk", "name:uk": "\u0412\u0430\u0439\u043a", "name:uz": "Vayk", "name:vi": "Vayk", "place": "town", "population": "5349", "population:date": "2022-01-01", "source:population": "Armstat", "wikidata": "Q1253628", "wikipedia": "en:Vayk"}}, {"type": "node", "id": 5660223526, "lat": 39.7603082, "lon": 45.178388, "tags": {"is_in:country": "Armenia", "is_in:country_code": "AM", "is_in:municipality": "\u0531\u0580\u0565\u0576\u056b\u056b \u0570\u0561\u0574\u0561\u0575\u0576\u0584", "is_in:region": "\u054e\u0561\u0575\u0578\u0581 \u0571\u0578\u0580\u056b \u0574\u0561\u0580\u0566", "name": "\u054c\u056b\u0576\u0564", "name:en": "Rind", "name:hy": "\u054c\u056b\u0576\u0564", "name:ru": "\u0420\u0438\u043d\u0434", "place": "village", "population": "1480", "population:date": "2022-01-01", "source:population": "Armstat", "wikidata": "Q2710126", "wikipedia": "en:Rind, Armenia"}}, {"type": "node", "id": 5660223527, "lat": 39.7383027, "lon": 45.390763, "tags": {"is_in:country": "Armenia", "is_in:country_code": "AM", "is_in:municipality": "\u0535\u0572\u0565\u0563\u0576\u0561\u0571\u0578\u0580\u056b \u0570\u0561\u0574\u0561\u0575\u0576\u0584", "is_in:region": "\u054e\u0561\u0575\u0578\u0581 \u0571\u0578\u0580\u056b \u0574\u0561\u0580\u0566", "name": "\u0544\u0561\u056c\u056b\u0577\u056f\u0561", "name:az": "Mal\u0131\u015fka", "name:ce": "\u041c\u0430\u043b\u0438\u0448\u043a\u0430", "name:ckb": "\u0645\u0627\u06b5\u06cc\u0634\u06a9\u0627", "name:en": "Malishka", "name:es": "Malishka", "name:fa": "\u0645\u0627\u0644\u06cc\u0634\u06a9\u0627", "name:fr": "Malichka", "name:hy": "\u0544\u0561\u056c\u056b\u0577\u056f\u0561", "name:it": "Malishka", "name:ka": "\u10db\u10d0\u10da\u10d8\u10e8\u10d9\u10d0", "name:ku": "Mall\u00ee\u015fka", "name:lv": "Mali\u0161ka", "name:ms": "Malishka", "name:pl": "Maliszka", "name:ru": "\u041c\u0430\u043b\u0438\u0448\u043a\u0430", "name:sv": "Malishka", "name:uk": "\u041c\u0430\u043b\u0456\u0448\u043a\u0430", "name:uz": "Malishka", "name:vi": "Malishka", "place": "village", "population": "5005", "population:date": "2022-01-01", "source:population": "Armstat", "wikidata": "Q949136", "wikipedia": "en:Malishka"}}, {"type": "node", "id": 5660269277, "lat": 39.7857642, "lon": 45.3556083, "tags": {"is_in:country": "Armenia", "is_in:country_code": "AM", "is_in:municipality": "\u0535\u0572\u0565\u0563\u0576\u0561\u0571\u0578\u0580\u056b \u0570\u0561\u0574\u0561\u0575\u0576\u0584", "is_in:region": "\u054e\u0561\u0575\u0578\u0581 \u0571\u0578\u0580\u056b \u0574\u0561\u0580\u0566", "name": "\u054e\u0565\u0580\u0576\u0561\u0577\u0565\u0576", "name:en": "Vernashen", "name:hy": "\u054e\u0565\u0580\u0576\u0561\u0577\u0565\u0576", "name:ru": "\u0412\u0435\u0440\u043d\u0430\u0448\u0435\u043d", "place": "village", "population": "1102", "population:date": "2022-01-01", "source:population": "Armstat", "wikidata": "Q2536525", "wikipedia": "en:Vernashen"}}, {"type": "node", "id": 5660399751, "lat": 39.704793, "lon": 45.2897107, "tags": {"is_in:country": "Armenia", "is_in:country_code": "AM", "is_in:municipality": "\u0531\u0580\u0565\u0576\u056b\u056b \u0570\u0561\u0574\u0561\u0575\u0576\u0584", "is_in:region": "\u054e\u0561\u0575\u0578\u0581 \u0571\u0578\u0580\u056b \u0574\u0561\u0580\u0566", "name": "\u0544\u0578\u0566\u0580\u0578\u057e", "name:en": "Mozrov", "name:hy": "\u0544\u0578\u0566\u0580\u0578\u057e", "name:ru": "\u041c\u043e\u0437\u0440\u043e\u0432", "place": "village", "population": "90", "population:date": "2022-01-01", "source:population": "Armstat", "wikidata": "Q6928014", "wikipedia": "hy:\u0544\u0578\u0566\u0580\u0578\u057e"}}, {"type": "node", "id": 5660580451, "lat": 39.7282928, "lon": 45.4878455, "tags": {"ele": "1630", "is_in:country": "Armenia", "is_in:country_code": "AM", "is_in:municipality": "\u054e\u0561\u0575\u0584\u056b \u0570\u0561\u0574\u0561\u0575\u0576\u0584", "is_in:region": "\u054e\u0561\u0575\u0578\u0581 \u0571\u0578\u0580\u056b \u0574\u0561\u0580\u0566", "name": "\u0531\u0580\u056b\u0576", "name:en": "Arin", "name:hy": "\u0531\u0580\u056b\u0576", "name:ru": "\u0410\u0440\u0438\u043d", "place": "village", "population": "273", "population:date": "2022-01-01", "source:population": "Armstat", "wikidata": "Q669434", "wikipedia": "hy:\u0531\u0580\u056b\u0576"}}, {"type": "node", "id": 5661326557, "lat": 39.6830398, "lon": 45.394156, "tags": {"is_in:country": "Armenia", "is_in:country_code": "AM", "is_in:municipality": "\u054e\u0561\u0575\u0584\u056b \u0570\u0561\u0574\u0561\u0575\u0576\u0584", "is_in:region": "\u054e\u0561\u0575\u0578\u0581 \u0571\u0578\u0580\u056b \u0574\u0561\u0580\u0566", "name": "\u0536\u0565\u0564\u0565\u0561", "name:en": "Zedea", "name:hy": "\u0536\u0565\u0564\u0565\u0561", "name:ru": "\u0417\u0435\u0434\u0435\u0430", "place": "village", "population": "136", "population:date": "2022-01-01", "source:population": "Armstat", "wikidata": "Q554372", "wikipedia": "en:Zedea"}}, {"type": "node", "id": 5706372506, "lat": 39.6948756, "lon": 45.4755564}, {"type": "node", "id": 5706372507, "lat": 39.6952473, "lon": 45.4745111}, {"type": "node", "id": 6009431370, "lat": 39.7332161, "lon": 45.2973026}, {"type": "node", "id": 6009431371, "lat": 39.7336273, "lon": 45.2956889}, {"type": "node", "id": 6009431372, "lat": 39.7331782, "lon": 45.2982943}, {"type": "node", "id": 6009431373, "lat": 39.7338355, "lon": 45.2995908}, {"type": "node", "id": 6009431374, "lat": 39.7339363, "lon": 45.2998871}, {"type": "node", "id": 6009431375, "lat": 39.7340635, "lon": 45.3005771}, {"type": "node", "id": 6009431376, "lat": 39.7338742, "lon": 45.3021728}, {"type": "node", "id": 6009431377, "lat": 39.7338962, "lon": 45.3035862}, {"type": "node", "id": 6009431378, "lat": 39.7340176, "lon": 45.3038801}, {"type": "node", "id": 6009431379, "lat": 39.7341435, "lon": 45.3041297}, {"type": "node", "id": 6009431380, "lat": 39.7342624, "lon": 45.3042523}, {"type": "node", "id": 6039717641, "lat": 39.7019012, "lon": 45.4610849}, {"type": "node", "id": 6039717642, "lat": 39.7024244, "lon": 45.4582538}, {"type": "node", "id": 6039717643, "lat": 39.7010215, "lon": 45.4634755}, {"type": "node", "id": 6039717644, "lat": 39.7024682, "lon": 45.4626866}, {"type": "node", "id": 6039717645, "lat": 39.6849159, "lon": 45.4788244}, {"type": "node", "id": 6039717646, "lat": 39.6844418, "lon": 45.4795259}, {"type": "node", "id": 6039717647, "lat": 39.6850546, "lon": 45.4807452}, {"type": "node", "id": 6697831515, "lat": 39.7652157, "lon": 45.3140614}, {"type": "node", "id": 6697831516, "lat": 39.7634698, "lon": 45.3150484}, {"type": "node", "id": 6776632479, "lat": 39.7445543, "lon": 45.3197998}, {"type": "node", "id": 6776632480, "lat": 39.7443605, "lon": 45.3193545}, {"type": "node", "id": 6776632481, "lat": 39.7441089, "lon": 45.3190756}, {"type": "node", "id": 6776632482, "lat": 39.7438902, "lon": 45.3189093}, {"type": "node", "id": 6776632483, "lat": 39.7436263, "lon": 45.3188395}, {"type": "node", "id": 6776632484, "lat": 39.7423847, "lon": 45.3174877}, {"type": "node", "id": 6776632485, "lat": 39.7421083, "lon": 45.3173751}, {"type": "node", "id": 6776632486, "lat": 39.7417082, "lon": 45.3171658}, {"type": "node", "id": 7001098685, "lat": 39.6931469, "lon": 45.4483905}, {"type": "node", "id": 8064908905, "lat": 39.8963332, "lon": 45.2545849}, {"type": "node", "id": 8064908906, "lat": 39.895045, "lon": 45.2519856}, {"type": "node", "id": 8064908907, "lat": 39.8952683, "lon": 45.254409}, {"type": "node", "id": 8064908908, "lat": 39.8946537, "lon": 45.2535986}, {"type": "node", "id": 8100334532, "lat": 39.8101597, "lon": 45.1069665}, {"type": "node", "id": 8100334533, "lat": 39.8017115, "lon": 45.1098633}, {"type": "node", "id": 8100334534, "lat": 39.7972192, "lon": 45.1119232}, {"type": "node", "id": 8100334535, "lat": 39.8101133, "lon": 45.1138289}, {"type": "node", "id": 8100334543, "lat": 39.8058832, "lon": 45.1151459}, {"type": "node", "id": 8100334544, "lat": 39.8058615, "lon": 45.1150587}, {"type": "node", "id": 8100334545, "lat": 39.8058028, "lon": 45.1150359}, {"type": "node", "id": 8100334546, "lat": 39.8062077, "lon": 45.115504}, {"type": "node", "id": 8100334547, "lat": 39.8064179, "lon": 45.1155496}, {"type": "node", "id": 8100334550, "lat": 39.8044006, "lon": 45.114702}, {"type": "node", "id": 8100334551, "lat": 39.8049961, "lon": 45.1146537}, {"type": "node", "id": 8110397789, "lat": 40.0839836, "lon": 45.2619417}, {"type": "node", "id": 8110397790, "lat": 40.0861709, "lon": 45.2615109}, {"type": "node", "id": 8110397791, "lat": 40.0872346, "lon": 45.2605514}, {"type": "node", "id": 8110397792, "lat": 40.0878638, "lon": 45.258182}, {"type": "node", "id": 8110397793, "lat": 40.0859762, "lon": 45.2565959}, {"type": "node", "id": 8110397794, "lat": 40.0848825, "lon": 45.2560281}, {"type": "node", "id": 8110397795, "lat": 40.081991, "lon": 45.2553036}, {"type": "node", "id": 8110397796, "lat": 40.0805869, "lon": 45.2539524}, {"type": "node", "id": 8110397797, "lat": 40.0780099, "lon": 45.2501145}, {"type": "node", "id": 8110397798, "lat": 40.0763617, "lon": 45.2490375}, {"type": "node", "id": 8110397799, "lat": 40.0748034, "lon": 45.2494095}, {"type": "node", "id": 8110397800, "lat": 40.0731756, "lon": 45.249155}, {"type": "node", "id": 8110397801, "lat": 40.0721417, "lon": 45.249292}, {"type": "node", "id": 8110397802, "lat": 40.070898, "lon": 45.2499774}, {"type": "node", "id": 8110397803, "lat": 40.0696392, "lon": 45.252288}, {"type": "node", "id": 8110397804, "lat": 40.0691747, "lon": 45.2536783}, {"type": "node", "id": 8110397805, "lat": 40.0689649, "lon": 45.2569288}, {"type": "node", "id": 8110397806, "lat": 40.0701787, "lon": 45.256498}, {"type": "node", "id": 8110397807, "lat": 40.070838, "lon": 45.2570659}, {"type": "node", "id": 8110397808, "lat": 40.0723215, "lon": 45.2569876}, {"type": "node", "id": 8110397809, "lat": 40.07373, "lon": 45.2561847}, {"type": "node", "id": 8110397810, "lat": 40.0744942, "lon": 45.2562631}, {"type": "node", "id": 8110397811, "lat": 40.0750936, "lon": 45.2569092}, {"type": "node", "id": 8110397812, "lat": 40.0751535, "lon": 45.2586716}, {"type": "node", "id": 8110397813, "lat": 40.0762469, "lon": 45.2603948}, {"type": "node", "id": 8110397814, "lat": 40.0763218, "lon": 45.2613151}, {"type": "node", "id": 8110397815, "lat": 40.0784045, "lon": 45.2633124}, {"type": "node", "id": 8110397816, "lat": 40.0795432, "lon": 45.2629404}, {"type": "node", "id": 8110415017, "lat": 40.0804257, "lon": 45.2636257}, {"type": "node", "id": 8110415018, "lat": 40.0811899, "lon": 45.2631753}, {"type": "node", "id": 8110415019, "lat": 40.0820289, "lon": 45.2633124}, {"type": "node", "id": 8110415020, "lat": 40.0828529, "lon": 45.2629404}, {"type": "node", "id": 8110415021, "lat": 40.0833323, "lon": 45.2623529}, {"type": "node", "id": 8110415022, "lat": 40.0762794, "lon": 45.2651649}, {"type": "node", "id": 8110415023, "lat": 40.0763993, "lon": 45.2624235}, {"type": "node", "id": 8110415024, "lat": 40.07574, "lon": 45.261699}, {"type": "node", "id": 8110415025, "lat": 40.075725, "lon": 45.2607395}, {"type": "node", "id": 8110415026, "lat": 40.0746762, "lon": 45.2589184}, {"type": "node", "id": 8110415027, "lat": 40.0743615, "lon": 45.2568819}, {"type": "node", "id": 8110415028, "lat": 40.0740019, "lon": 45.2567057}, {"type": "node", "id": 8110415029, "lat": 40.0730129, "lon": 45.2573127}, {"type": "node", "id": 8110415030, "lat": 40.0706603, "lon": 45.2574106}, {"type": "node", "id": 8110415031, "lat": 40.0701509, "lon": 45.2570778}, {"type": "node", "id": 8110415032, "lat": 40.0678197, "lon": 45.2575477}, {"type": "node", "id": 8110415033, "lat": 40.065347, "lon": 45.2597408}, {"type": "node", "id": 8110415034, "lat": 40.0653021, "lon": 45.2604066}, {"type": "node", "id": 8110415035, "lat": 40.0657367, "lon": 45.2619731}, {"type": "node", "id": 8110415036, "lat": 40.0665009, "lon": 45.2630501}, {"type": "node", "id": 8110415037, "lat": 40.06743, "lon": 45.2636571}, {"type": "node", "id": 8110415038, "lat": 40.0687488, "lon": 45.2636767}, {"type": "node", "id": 8110415039, "lat": 40.0703522, "lon": 45.2646166}, {"type": "node", "id": 8110415040, "lat": 40.0750675, "lon": 45.2660269}, {"type": "node", "id": 8212008441, "lat": 39.7297057, "lon": 45.2954689}, {"type": "node", "id": 8212008443, "lat": 39.7259336, "lon": 45.2971895}, {"type": "node", "id": 8212008444, "lat": 39.7243097, "lon": 45.2944086}, {"type": "node", "id": 8212008445, "lat": 39.7218539, "lon": 45.2915762}, {"type": "node", "id": 8212008446, "lat": 39.7199526, "lon": 45.2895163}, {"type": "node", "id": 8212008447, "lat": 39.7181304, "lon": 45.2911642}, {"type": "node", "id": 8212008448, "lat": 39.7175362, "lon": 45.2931726}, {"type": "node", "id": 8212008449, "lat": 39.7160705, "lon": 45.2998159}, {"type": "node", "id": 8212008450, "lat": 39.7149217, "lon": 45.3039873}, {"type": "node", "id": 8212008451, "lat": 39.7126637, "lon": 45.3073347}, {"type": "node", "id": 8212008452, "lat": 39.7098905, "lon": 45.3097551}, {"type": "node", "id": 8212008453, "lat": 39.7081077, "lon": 45.31542}, {"type": "node", "id": 8212008454, "lat": 39.7098905, "lon": 45.314493}, {"type": "node", "id": 8212008455, "lat": 39.7137333, "lon": 45.3204153}, {"type": "node", "id": 8212008456, "lat": 39.7164271, "lon": 45.3222692}, {"type": "node", "id": 8212008457, "lat": 39.7207844, "lon": 45.3254107}, {"type": "node", "id": 8212008458, "lat": 39.7225273, "lon": 45.3302515}, {"type": "node", "id": 8212008459, "lat": 39.7272011, "lon": 45.329685}, {"type": "node", "id": 8212008460, "lat": 39.7312409, "lon": 45.3287065}, {"type": "node", "id": 8212008461, "lat": 39.7336171, "lon": 45.331436}, {"type": "node", "id": 8212008462, "lat": 39.7375652, "lon": 45.3350316}, {"type": "node", "id": 8933285147, "lat": 39.9014168, "lon": 45.4812815}, {"type": "node", "id": 8933285148, "lat": 39.9022098, "lon": 45.4814968}, {"type": "node", "id": 9168390704, "lat": 39.8730799, "lon": 45.3654563}, {"type": "node", "id": 9168390705, "lat": 39.8729441, "lon": 45.3650379}, {"type": "node", "id": 9168390706, "lat": 39.8727218, "lon": 45.3646731}, {"type": "node", "id": 9168390707, "lat": 39.8725036, "lon": 45.3645819}, {"type": "node", "id": 9168390708, "lat": 39.8723512, "lon": 45.3646088}, {"type": "node", "id": 9168390709, "lat": 39.8720424, "lon": 45.3651935}, {"type": "node", "id": 9168390710, "lat": 39.8716184, "lon": 45.3644371}, {"type": "node", "id": 9168390711, "lat": 39.8716678, "lon": 45.3635734}, {"type": "node", "id": 9168390712, "lat": 39.8706385, "lon": 45.3625864}, {"type": "node", "id": 9168390713, "lat": 39.8705562, "lon": 45.3630853}, {"type": "node", "id": 9822691781, "lat": 39.7372651, "lon": 45.3105501}, {"type": "node", "id": 9824307601, "lat": 39.7882879, "lon": 45.3495759}, {"type": "node", "id": 9837570909, "lat": 39.7418855, "lon": 45.2666937}, {"type": "node", "id": 9852563529, "lat": 39.8561694, "lon": 45.313573}, {"type": "node", "id": 9852563530, "lat": 39.8544401, "lon": 45.3147126}, {"type": "node", "id": 9852563531, "lat": 39.8544649, "lon": 45.3165376}, {"type": "node", "id": 9852563532, "lat": 39.8483805, "lon": 45.3194322}, {"type": "node", "id": 9852563533, "lat": 39.8496102, "lon": 45.3211966}, {"type": "node", "id": 9852563534, "lat": 39.8515265, "lon": 45.32239}, {"type": "node", "id": 9852563535, "lat": 39.8534235, "lon": 45.3266452}, {"type": "node", "id": 9852563536, "lat": 39.8530382, "lon": 45.3214166}, {"type": "node", "id": 9852563537, "lat": 39.8537666, "lon": 45.31977}, {"type": "node", "id": 9852563538, "lat": 39.8901404, "lon": 45.3345821}, {"type": "node", "id": 9852563540, "lat": 39.8985303, "lon": 45.3345549}, {"type": "node", "id": 9852563541, "lat": 39.8189865, "lon": 45.5288229}, {"type": "node", "id": 9852563542, "lat": 39.7655946, "lon": 45.5383696}, {"type": "node", "id": 9852563543, "lat": 39.7641677, "lon": 45.5394352}, {"type": "node", "id": 9852563544, "lat": 39.7647816, "lon": 45.5411375}, {"type": "node", "id": 9852563545, "lat": 39.767026, "lon": 45.5409468}, {"type": "node", "id": 9852563546, "lat": 39.7653474, "lon": 45.5414578}, {"type": "node", "id": 9852563547, "lat": 39.7702688, "lon": 45.5447472}, {"type": "node", "id": 9852563548, "lat": 39.7707347, "lon": 45.5443518}, {"type": "node", "id": 9852563549, "lat": 39.7713532, "lon": 45.5442498}, {"type": "node", "id": 9852563550, "lat": 39.7714686, "lon": 45.5435613}, {"type": "node", "id": 9852563551, "lat": 39.7718343, "lon": 45.5428718}, {"type": "node", "id": 9852563552, "lat": 39.7739671, "lon": 45.5426744}, {"type": "node", "id": 9852563553, "lat": 39.7749022, "lon": 45.5421265}, {"type": "node", "id": 9913692702, "lat": 39.8711999, "lon": 45.3536826}, {"type": "node", "id": 10624630780, "lat": 39.7522844, "lon": 45.1787197}, {"type": "node", "id": 10624630781, "lat": 39.7541207, "lon": 45.1748655}, {"type": "node", "id": 10690797198, "lat": 39.8759353, "lon": 45.4270828}, {"type": "node", "id": 10690797199, "lat": 39.8772783, "lon": 45.4241907}, {"type": "node", "id": 10690797200, "lat": 39.879296, "lon": 45.4261215}, {"type": "node", "id": 10690797201, "lat": 39.8825682, "lon": 45.4264173}, {"type": "node", "id": 10690797202, "lat": 39.8824547, "lon": 45.4278962}, {"type": "node", "id": 10690797203, "lat": 39.8809163, "lon": 45.4285453}, {"type": "node", "id": 10690797204, "lat": 39.8813766, "lon": 45.4333106}, {"type": "node", "id": 10690798805, "lat": 39.8839237, "lon": 45.4353975}, {"type": "node", "id": 10690798806, "lat": 39.8824295, "lon": 45.4392673}, {"type": "node", "id": 10690798807, "lat": 39.8815178, "lon": 45.4390374}, {"type": "node", "id": 10690798808, "lat": 39.8804235, "lon": 45.4345569}, {"type": "node", "id": 10690798809, "lat": 39.8785073, "lon": 45.4315553}, {"type": "node", "id": 10690798810, "lat": 39.876446, "lon": 45.430057}, {"type": "node", "id": 10690798812, "lat": 39.7004703, "lon": 45.4388919}, {"type": "node", "id": 10690798813, "lat": 39.7035256, "lon": 45.4422053}, {"type": "node", "id": 10690798814, "lat": 39.7011733, "lon": 45.4520113}, {"type": "node", "id": 10690798815, "lat": 39.6985865, "lon": 45.455215}, {"type": "node", "id": 10690798816, "lat": 39.701595, "lon": 45.4596733}, {"type": "node", "id": 10690798817, "lat": 39.7000017, "lon": 45.4619634}, {"type": "node", "id": 10690798818, "lat": 39.6949311, "lon": 45.4649357}, {"type": "node", "id": 10690798819, "lat": 39.692316, "lon": 45.4710629}, {"type": "node", "id": 10690798820, "lat": 39.6942844, "lon": 45.4737063}, {"type": "node", "id": 10690798821, "lat": 39.6937876, "lon": 45.4752533}, {"type": "node", "id": 10690798822, "lat": 39.6900288, "lon": 45.4746199}, {"type": "node", "id": 10690798823, "lat": 39.6884915, "lon": 45.478457}, {"type": "node", "id": 10690798824, "lat": 39.6857074, "lon": 45.4773363}, {"type": "node", "id": 10690798825, "lat": 39.6871886, "lon": 45.4701493}, {"type": "node", "id": 10690798826, "lat": 39.6880228, "lon": 45.4643875}, {"type": "node", "id": 10690798827, "lat": 39.6911349, "lon": 45.4562504}, {"type": "node", "id": 10690798828, "lat": 39.6947997, "lon": 45.4469499}, {"type": "node", "id": 11556629445, "lat": 39.7435924, "lon": 45.3544034}, {"type": "node", "id": 11556629450, "lat": 39.7275009, "lon": 45.2998236}, {"type": "node", "id": 11556629451, "lat": 39.7272578, "lon": 45.2999645}, {"type": "node", "id": 11556629452, "lat": 39.7274157, "lon": 45.299945}, {"type": "node", "id": 11556629453, "lat": 39.7271037, "lon": 45.2997859}, {"type": "node", "id": 11556629454, "lat": 39.7269221, "lon": 45.2994716}, {"type": "node", "id": 11556629455, "lat": 39.7276391, "lon": 45.2996074}, {"type": "node", "id": 11576957987, "lat": 39.7338301, "lon": 45.3032891}, {"type": "node", "id": 12043270722, "lat": 39.733548, "lon": 45.294178}, {"type": "node", "id": 12043270723, "lat": 39.7448614, "lon": 45.3205803}, {"type": "node", "id": 12043270724, "lat": 39.7450546, "lon": 45.3205927}, {"type": "node", "id": 12043270725, "lat": 39.7452954, "lon": 45.3206634}, {"type": "node", "id": 12043270726, "lat": 39.7456677, "lon": 45.3205656}, {"type": "node", "id": 12043270727, "lat": 39.7464505, "lon": 45.3193141}, {"type": "node", "id": 12043270728, "lat": 39.7474487, "lon": 45.3189592}, {"type": "node", "id": 12043270729, "lat": 39.7484181, "lon": 45.3190432}, {"type": "node", "id": 12043270730, "lat": 39.7494809, "lon": 45.3181186}, {"type": "node", "id": 12043270731, "lat": 39.7502277, "lon": 45.3178384}, {"type": "node", "id": 12043270732, "lat": 39.751269, "lon": 45.3174554}, {"type": "node", "id": 12043270733, "lat": 39.7523461, "lon": 45.3169044}, {"type": "node", "id": 12043270734, "lat": 39.7532437, "lon": 45.3161665}, {"type": "node", "id": 12043270735, "lat": 39.7546439, "lon": 45.3156995}, {"type": "node", "id": 12043270736, "lat": 39.7556276, "lon": 45.3153726}, {"type": "node", "id": 12043270737, "lat": 39.7563169, "lon": 45.315877}, {"type": "node", "id": 12043270738, "lat": 39.7568842, "lon": 45.3167362}, {"type": "node", "id": 12043270739, "lat": 39.757796, "lon": 45.317306}, {"type": "node", "id": 12043270740, "lat": 39.7587223, "lon": 45.3171939}, {"type": "node", "id": 12043270741, "lat": 39.7595264, "lon": 45.3185482}, {"type": "node", "id": 12043270742, "lat": 39.7610055, "lon": 45.3195009}, {"type": "node", "id": 12043270743, "lat": 39.7626497, "lon": 45.3191273}, {"type": "node", "id": 12043270744, "lat": 39.7652343, "lon": 45.3187724}, {"type": "node", "id": 12043270745, "lat": 39.7684003, "lon": 45.3190245}, {"type": "node", "id": 12043270746, "lat": 39.770353, "lon": 45.3195663}, {"type": "node", "id": 12043270747, "lat": 39.7715734, "lon": 45.3225457}, {"type": "node", "id": 12043270748, "lat": 39.7734829, "lon": 45.3230314}, {"type": "node", "id": 12043270749, "lat": 39.7747679, "lon": 45.3236945}, {"type": "node", "id": 12043270750, "lat": 39.7763902, "lon": 45.3248901}, {"type": "node", "id": 12043270756, "lat": 39.7705837, "lon": 45.3473254}, {"type": "node", "id": 12043270757, "lat": 39.7772337, "lon": 45.3272379}, {"type": "node", "id": 12043270758, "lat": 39.7782035, "lon": 45.3281738}, {"type": "node", "id": 12043270759, "lat": 39.7780551, "lon": 45.3301908}, {"type": "node", "id": 12043270760, "lat": 39.7777583, "lon": 45.3321756}, {"type": "node", "id": 12043270761, "lat": 39.7764802, "lon": 45.3335704}, {"type": "node", "id": 12043270762, "lat": 39.7747898, "lon": 45.3346111}, {"type": "node", "id": 12043270763, "lat": 39.7698257, "lon": 45.3491165}, {"type": "node", "id": 12043270764, "lat": 39.7683083, "lon": 45.3504683}, {"type": "node", "id": 12043270765, "lat": 39.7669247, "lon": 45.3528986}, {"type": "node", "id": 12043270766, "lat": 39.7655309, "lon": 45.3533934}, {"type": "node", "id": 12043270767, "lat": 39.7605804, "lon": 45.3535567}, {"type": "node", "id": 12043270768, "lat": 39.7577926, "lon": 45.3557942}, {"type": "node", "id": 12043289669, "lat": 39.757142, "lon": 45.3613587}, {"type": "node", "id": 12043289670, "lat": 39.7581989, "lon": 45.3633788}, {"type": "node", "id": 12043289671, "lat": 39.7607253, "lon": 45.3653741}, {"type": "node", "id": 12043289672, "lat": 39.760952, "lon": 45.3664654}, {"type": "node", "id": 12043289673, "lat": 39.7587911, "lon": 45.3698128}, {"type": "node", "id": 12043289674, "lat": 39.7596983, "lon": 45.3729671}, {"type": "node", "id": 12043289675, "lat": 39.7565154, "lon": 45.3730908}, {"type": "node", "id": 12043289676, "lat": 39.7545191, "lon": 45.3752467}, {"type": "node", "id": 12043289677, "lat": 39.7507738, "lon": 45.3744477}, {"type": "node", "id": 12043289678, "lat": 39.7490134, "lon": 45.3724946}, {"type": "node", "id": 12043289679, "lat": 39.7451655, "lon": 45.3675452}, {"type": "node", "id": 12043289680, "lat": 39.7422033, "lon": 45.366528}, {"type": "node", "id": 12043289681, "lat": 39.7564451, "lon": 45.3584673}, {"type": "node", "id": 12043289682, "lat": 39.7572649, "lon": 45.3599693}, {"type": "node", "id": 12043289683, "lat": 39.758232, "lon": 45.3745243}, {"type": "node", "id": 12043289684, "lat": 39.7548339, "lon": 45.3731958}, {"type": "node", "id": 12043289685, "lat": 39.752634, "lon": 45.3762783}, {"type": "node", "id": 12043289686, "lat": 39.7435366, "lon": 45.3546392}, {"type": "node", "id": 12043289687, "lat": 39.7777633, "lon": 45.3321419}, {"type": "node", "id": 13299257293, "lat": 39.881275, "lon": 45.4355159}, {"type": "node", "id": 13299257294, "lat": 39.881099, "lon": 45.4351486}, {"type": "node", "id": 13299257295, "lat": 39.8776408, "lon": 45.4312966}, {"type": "way", "id": 128751431, "nodes": [1421936605, 1421936586, 7001098685, 1421936588, 3413342146, 1421936603, 6039717645, 6039717646, 6039717647, 1421936598, 3413339194, 4971085543, 4971085542, 5706372506, 5706372507, 1421936613, 1421936618, 4971085547, 1421936615, 6039717643, 6039717644, 6039717641, 1421936601, 6039717642, 4971085546, 4971085545, 4971085544, 1421936609, 1421936605], "tags": {"boundary": "administrative"}}, {"type": "way", "id": 133782529, "nodes": [1472419477, 9913692702, 1472419565, 1472419593, 1472419713, 1472419768, 4768049547, 4768049548, 1472419774, 1986989286, 1472419816, 1472419700, 1472419645, 1472419613, 1472419628, 1472419570, 9168390704, 9168390705, 9168390706, 9168390707, 9168390708, 9168390709, 1472419511, 9168390710, 9168390711, 1472419486, 9168390712, 9168390713, 1472419449, 3559959435, 1472419438, 1472419442, 1472419477], "tags": {"alt_name": "\u0546\u0578\u0580 \u0565\u0572\u0565\u0563\u056b\u057d", "name": "\u0535\u0572\u0565\u0563\u056b\u057d", "name:en": "Yeghegis", "name:hy": "\u0535\u0572\u0565\u0563\u056b\u057d", "name:ru": "\u0415\u0445\u0435\u0433\u0438\u0441", "place": "village", "wikidata": "Q610325", "wikipedia": "en:Yeghegis"}}, {"type": "way", "id": 133782531, "nodes": [1472420463, 1472420468, 1472420474, 1472420476, 1472420480, 8933285147, 8933285148, 1472420492, 1472420483, 1472420495, 1472420494, 1472420482, 1472420478, 1472420471, 1472420460, 1472420463], "tags": {"name": "\u054e\u0561\u0580\u0564\u0561\u0570\u0578\u057e\u056b\u057f", "name:en": "Vardahovit", "name:hy": "\u054e\u0561\u0580\u0564\u0561\u0570\u0578\u057e\u056b\u057f", "name:ru": "\u0412\u0430\u0440\u0434\u0430\u043e\u0432\u0438\u0442", "place": "village", "wikidata": "Q2672588", "wikipedia": "hy:\u054e\u0561\u0580\u0564\u0561\u0570\u0578\u057e\u056b\u057f"}}, {"type": "way", "id": 133782532, "nodes": [1472420512, 1472420519, 1472420517, 1472420525, 1472420527, 1472420522, 1472420514, 1472420490, 1472420484, 1472420497, 1472420496, 1472420500, 1472420506, 1472420503, 1472420512], "tags": {"name": "\u0531\u0580\u0561\u057f\u0565\u057d", "name:en": "Arates", "name:hy": "\u0531\u0580\u0561\u057f\u0565\u057d", "name:ru": "\u0410\u0440\u0430\u0442\u0435\u0441", "place": "village", "wikidata": "Q4784419", "wikipedia": "en:Arates"}}, {"type": "way", "id": 133782533, "nodes": [1472418948, 1472418972, 5432181467, 1472418999, 5432181466, 1472419009, 1472419022, 1472419058, 1472419074, 1472419073, 1472419059, 1472419007, 1472418997, 9852563553, 9852563552, 1472418970, 9852563551, 9852563550, 9852563549, 9852563548, 9852563547, 1472418964, 1472418942, 9852563545, 9852563546, 9852563544, 1472418920, 9852563543, 9852563542, 1472418932, 1472418944, 1472418954, 1472418948], "tags": {"landuse": "residential", "name": "\u0540\u0565\u0580\u0570\u0565\u0580", "name:en": "Herher", "name:hy": "\u0540\u0565\u0580\u0570\u0565\u0580", "name:ru": "\u0413\u0435\u0440\u0433\u0435\u0440", "place": "village", "wikidata": "Q2536473", "wikipedia": "en:Herher"}}, {"type": "way", "id": 133782538, "nodes": [1472419581, 1472419614, 1472419626, 1472419661, 1472419664, 1472419797, 1472419857, 1472419859, 1472419834, 1472419809, 1472419841, 1472419794, 1472419742, 1472419671, 1472419627, 1472419591, 1472419538, 1472419507, 1472419498, 1472419482, 1472419554, 1472419581], "tags": {"landuse": "residential", "name": "\u0533\u0578\u0572\u0569\u0561\u0576\u056b\u056f", "name:en": "Goghtanik", "name:hy": "\u0533\u0578\u0572\u0569\u0561\u0576\u056b\u056f", "name:ru": "\u0413\u043e\u0445\u0442\u0430\u043d\u0438\u043a", "place": "village", "wikidata": "Q2536579", "wikipedia": "en:Goghtanik"}}, {"type": "way", "id": 133782539, "nodes": [1472419198, 1472419210, 1472419218, 1472419228, 9852563541, 1472419233, 1472419236, 4460163032, 1472419231, 1472419220, 1472419211, 1472419202, 1472419184, 1472419175, 1472419178, 1472419191, 1472419194, 1472419200, 1472419196, 1472419198], "tags": {"landuse": "residential", "name": "\u053f\u0561\u0580\u0574\u0580\u0561\u0577\u0565\u0576", "name:en": "Karmrashen", "name:hy": "\u053f\u0561\u0580\u0574\u0580\u0561\u0577\u0565\u0576", "name:ru": "\u041a\u0430\u0440\u043c\u0440\u0430\u0448\u0435\u043d", "place": "village", "wikidata": "Q2536621", "wikipedia": "en:Karmrashen, Vayots Dzor"}}, {"type": "way", "id": 267094398, "nodes": [2725688117, 2725688183, 2725688215, 2725688191, 2725688154, 2725688088, 2725688003, 2725687940, 2725687988, 2725688096, 2725688117], "tags": {"alt_name": "\u0545\u0561\u0576\u0568\u0572", "landuse": "residential", "name": "\u0546\u0577\u056d\u0561\u0580\u0584", "name:en": "Nshkharq", "name:hy": "\u0546\u0577\u056d\u0561\u0580\u0584", "name:ru": "\u041d\u0448\u0445\u0430\u0440\u043a", "place": "village", "wikidata": "Q12134523", "wikipedia": "en:Nshkhark"}}, {"type": "way", "id": 267094400, "nodes": [2725685677, 2725685623, 2725685632, 2725685618, 2725685604, 2725685601, 2725685613, 3984267604, 2725685673, 2725685709, 2725685734, 2725685742, 2725685708, 2725685689, 2725685690, 2725685677], "tags": {"landuse": "residential", "name": "\u0539\u0561\u057c\u0561\u0569\u0578\u0582\u0574\u0562", "name:en": "Taratumb", "name:hy": "\u0539\u0561\u057c\u0561\u0569\u0578\u0582\u0574\u0562", "name:ru": "\u0422\u0430\u0440\u0430\u0442\u0443\u043c\u0431", "place": "village", "wikidata": "Q2536540", "wikipedia": "en:Taratumb"}}, {"type": "way", "id": 350193649, "nodes": [2469427256, 3559430149, 3559430151, 3559430150, 3559430148, 3559430147, 3559430146, 3559430145, 3559430142, 3559430141, 3559430143, 3559430144, 2469427229, 2469427256], "tags": {"landuse": "residential", "name": "\u054d\u0561\u056c\u056c\u056b", "name:en": "Salli", "name:hy": "\u054d\u0561\u056c\u056c\u056b", "name:ru": "\u0421\u0430\u043b\u043b\u0438", "place": "village", "wikidata": "Q2672563", "wikipedia": "en:Salli, Armenia"}}, {"type": "way", "id": 350193654, "nodes": [3559432406, 3559432399, 8064908905, 8064908907, 8064908908, 8064908906, 3559432394, 3559432398, 3559432408, 3559432413, 5273479959, 3984267980, 3559432428, 5273479962, 3559432436, 3559432434, 3559432426, 3559432421, 3559432414, 3559432416, 3559432418, 3559432410, 3559432406], "tags": {"landuse": "residential", "name": "\u0531\u0572\u0576\u057b\u0561\u0571\u0578\u0580", "name:en": "Aghnjadzor", "name:hy": "\u0531\u0572\u0576\u057b\u0561\u0571\u0578\u0580", "name:ru": "\u0410\u0433\u043d\u0434\u0436\u0430\u0434\u0437\u043e\u0440", "place": "village", "wikidata": "Q2673049", "wikipedia": "en:Aghnjadzor"}}, {"type": "way", "id": 350193664, "nodes": [3559430191, 3559430174, 3559430155, 3559430154, 3559430152, 3559430153, 3559430177, 3559432400, 3559432403, 3559432405, 3559432407, 3559432409, 3559432404, 3559432402, 3559432401, 3559432397, 3559432396, 3559432395, 3559432393, 3559430192, 3559430191], "tags": {"landuse": "residential", "name": "\u0554\u0561\u0580\u0561\u0563\u056c\u0578\u0582\u056d", "name:en": "Karaglukh", "name:hy": "\u0554\u0561\u0580\u0561\u0563\u056c\u0578\u0582\u056d", "name:ru": "\u041a\u0430\u0440\u0430\u0433\u043b\u0443\u0445", "place": "village", "wikidata": "Q2642319", "wikipedia": "en:Karaglukh"}}, {"type": "way", "id": 352202421, "nodes": [3579609003, 3579609010, 3579609025, 3579609031, 3579609047, 3579609053, 3579609038, 3579609035, 3579609022, 3579609008, 3579608997, 3579609002, 3579608991, 3579608981, 3579608974, 3579608971, 3579608968, 3579608969, 3579608978, 3579608996, 3579609003], "tags": {"name": "\u0540\u0578\u0580\u057d", "name:en": "Hors", "name:hy": "\u0540\u0578\u0580\u057d", "name:ru": "\u0413\u043e\u0440\u0441", "place": "village", "wikidata": "Q2396024", "wikipedia": "en:Hors, Armenia"}}, {"type": "way", "id": 352202423, "nodes": [3579167475, 3579167482, 3579167597, 3579167605, 3579167625, 3579167644, 3579167694, 3579167727, 3579167763, 3579167751, 3579608585, 3579608670, 3579608767, 3579608815, 3579608875, 3579608895, 3579608925, 3579608929, 9852563532, 9852563533, 9852563534, 9852563535, 3579608930, 9852563536, 9852563537, 3648441912, 3648441911, 3648441910, 3579608932, 3579608928, 3579608923, 3579608927, 3579608926, 3579608892, 3579608889, 3579608869, 3579608873, 3579608872, 3579608838, 3579608783, 3579608665, 3579608667, 3579608659, 3579608703, 3579608746, 3579608828, 3579608866, 3579608781, 3579608685, 3579608662, 3579608635, 3579608564, 3579608531, 3579167475], "tags": {"name": "\u0547\u0561\u057f\u056b\u0576", "name:en": "Shatin", "name:hy": "\u0547\u0561\u057f\u056b\u0576", "name:ru": "\u0428\u0430\u0442\u0438\u043d", "place": "village", "wikidata": "Q2536626", "wikipedia": "en:Shatin, Armenia"}}, {"type": "way", "id": 355797073, "nodes": [2247265361, 8100334547, 8100334546, 2247265359, 8100334543, 8100334544, 8100334545, 2247265358, 2247265356, 8100334551, 2247265355, 8100334550, 3613370235, 8100334533, 8100334534, 3613370233, 3613370234, 3613370236, 3613370238, 3613370237, 8100334532, 3613370245, 3613370246, 3613370248, 3613370247, 3613370240, 8100334535, 3613370239, 2247265361], "tags": {"landuse": "residential", "name": "\u0535\u056c\u0583\u056b\u0576", "name:en": "Yelpin", "name:hy": "\u0535\u056c\u0583\u056b\u0576", "name:ru": "\u0415\u043b\u043f\u0438\u043d", "place": "village", "wikidata": "Q2536444", "wikipedia": "en:Yelpin"}}, {"type": "way", "id": 360262993, "nodes": [3648441914, 9852563529, 9852563530, 9852563531, 3648441911, 3648441912, 3648441913, 3648441915, 3648441918, 3648441919, 3648441920, 3648441923, 3648443627, 3648443631, 3648443632, 3648443636, 3648443638, 3648443641, 3648443642, 3648443643, 3648443640, 3648443637, 3648443639, 3648443635, 3648443634, 3648443633, 3648443630, 3648443628, 3648443625, 3648443629, 3648443626, 3648441924, 3648441922, 3648441921, 3648441917, 3648441916, 3648441914], "tags": {"landuse": "residential", "name": "\u0531\u0580\u057f\u0561\u0562\u0578\u0582\u0575\u0576\u0584", "name:en": "Artabuynk", "name:hy": "\u0531\u0580\u057f\u0561\u0562\u0578\u0582\u0575\u0576\u0584", "name:ru": "\u0410\u0440\u0442\u0430\u0431\u0443\u0439\u043d\u043a", "old_name": "\u0540\u056b\u0576 \u0535\u0572\u0565\u0563\u056b\u057d", "place": "village", "wikidata": "Q2536530", "wikipedia": "en:Artabuynk"}}, {"type": "way", "id": 360824499, "nodes": [3653769985, 3653769997, 3653769999, 3653770001, 3653770021, 3653770059, 3653770058, 3653770019, 3653770000, 3653769998, 3653769986, 3653769980, 3653769974, 3653769967, 3653769960, 3653769962, 3653769944, 3653769939, 3653769913, 3653769897, 3653769909, 3653769874, 3653769870, 3653769862, 3653769878, 3653769898, 3653769921, 3653769929, 3653769936, 3653769950, 3653769966, 3653769977, 3653769981, 3653769985], "tags": {"landuse": "residential", "name": "\u0531\u0572\u0561\u057e\u0576\u0561\u0571\u0578\u0580", "name:en": "Aghavnadzor", "name:hy": "\u0531\u0572\u0561\u057e\u0576\u0561\u0571\u0578\u0580", "name:ru": "\u0410\u0433\u0430\u0432\u043d\u0430\u0434\u0437\u043e\u0440", "place": "village", "wikidata": "Q2422770", "wikipedia": "en:Aghavnadzor, Vayots Dzor"}}, {"type": "way", "id": 361504962, "nodes": [3659683622, 9852563540, 3659683610, 3659683560, 3659683554, 9852563538, 3659683540, 3659683538, 3659683541, 3659683545, 3659683552, 3659683558, 3659683566, 3659683606, 3659683622], "tags": {"landuse": "residential", "name": "\u0540\u0578\u0580\u0562\u0561\u057f\u0565\u0572", "name:en": "Horbategh", "name:hy": "\u0540\u0578\u0580\u0562\u0561\u057f\u0565\u0572", "name:ru": "\u041e\u0440\u0431\u0430\u0442\u0435\u0445", "place": "village", "wikidata": "Q2672584", "wikipedia": "en:Horbategh"}}, {"type": "way", "id": 361504963, "nodes": [3659683929, 3659683820, 3659683819, 3659683821, 3659683823, 3659683822, 3659683925, 3659683930, 3659683933, 3659683938, 3659683936, 3659683934, 3659683929], "tags": {"landuse": "residential", "name": "\u054d\u0587\u0561\u056a\u0561\u0575\u057c", "name:en": "Sevazhayr", "name:hy": "\u054d\u0587\u0561\u056a\u0561\u0575\u057c", "name:ru": "\u0421\u0435\u0432\u0430\u0436\u0430\u0439\u0440", "place": "village", "wikidata": "Q2592964", "wikipedia": "en:Sevazhayr"}}, {"type": "way", "id": 361504966, "nodes": [3579608373, 3579608372, 3659683155, 3659683153, 3579608369, 3659683152, 3659683149, 3659683147, 3579608368, 3579608370, 3579608371, 3579608375, 3579608376, 3579608379, 3579608385, 3579166495, 3579608416, 3579608417, 3579608412, 3579608388, 3579608378, 3579608377, 3579608374, 3659683156, 3659683157, 5271990867, 3659683158, 3659683154, 3659683150, 9824307601, 3659683148, 3659683144, 4271333658, 4271333657, 3659683024, 3659683131, 3659683135, 3659683138, 3659683143, 3659683151, 3579608373], "tags": {"landuse": "residential", "name": "\u054e\u0565\u0580\u0576\u0561\u0577\u0565\u0576", "name:en": "Vernashen", "name:hy": "\u054e\u0565\u0580\u0576\u0561\u0577\u0565\u0576", "name:ru": "\u0412\u0435\u0440\u043d\u0430\u0448\u0435\u043d", "place": "village", "wikidata": "Q2536525", "wikipedia": "en:Vernashen"}}, {"type": "way", "id": 371573380, "nodes": [4745732373, 2235775611, 4745732375, 4745732376, 4745732377, 4745732378, 4745732379, 3751334339, 3751334340, 2464171263, 3751334341, 3751334342, 3751334343, 3751334344, 4745732196, 4745732197, 4745732195, 4745732194, 4745732193, 4745732192, 3751334347, 4745732191, 4745732190, 4745732189, 4745732188, 4745732187, 3751334350, 3751334351, 3751334352, 3751334353, 3751334354, 3751334355, 3751334356, 3751334357, 3751334358, 3751334359, 4745732186, 3751334360, 3751334361, 3751334362, 3751334363, 4745732373], "tags": {"abandoned:place": "locality", "historic": "ruins", "name": "\u0531\u0574\u0561\u0572\u0578\u0582", "name:en": "Amaghu", "name:hy": "\u0531\u0574\u0561\u0572\u0578\u0582", "name:ru": "\u0410\u043c\u0430\u0433\u0443", "place": "village", "population": "0", "wikidata": "Q4739129", "wikipedia": "en:Amaghu"}}, {"type": "way", "id": 389022166, "nodes": [3921828872, 3921828873, 3921828874, 3921828875, 3921828876, 3921828877, 3921828878, 3921828879, 3921828880, 3921828881, 3921828882, 3921828883, 3921828884, 3921828885, 3921828886, 3921828887, 3921828888, 3921828889, 3921828890, 3921828891, 3921828892, 3921828893, 3921828894, 3921828895, 3921828896, 3921828897, 3921828898, 3921828899, 3921828900, 3921828901, 3921828902, 3921828903, 3921828904, 3921828905, 3921828906, 3921828907, 3921828908, 3921828909, 3921828910, 3921828911, 3921828912, 3921828913, 3921828914, 3921828915, 3921828916, 3921828917, 3921828918, 3921828919, 3921828920, 3921828921, 3921828922, 3921828923, 3921828924, 3921828925, 3921828926, 3921828927, 3921828928, 10624630780, 3921828929, 3921828930, 3921828931, 10624630781, 3921828932, 3921828933, 3921828934, 3921828935, 3921828936, 3921828937, 3921828938, 3921828939, 3921828872], "tags": {"landuse": "residential", "name": "\u054c\u056b\u0576\u0564", "name:en": "Rind", "name:hy": "\u054c\u056b\u0576\u0564", "name:ru": "\u0420\u0438\u043d\u0434", "place": "village", "wikidata": "Q2710126", "wikipedia": "en:Rind, Armenia"}}, {"type": "way", "id": 427975450, "nodes": [1876490239, 3659682996, 4271333657, 4271333658, 3659683136, 3659683127, 3659683011]}, {"type": "way", "id": 450611500, "nodes": [4475309133, 4475309134, 4475309135, 4475309136, 4475309137, 4475309138, 4475309139, 4475309140, 4475309141, 4475309142, 4475309143, 4475309144, 4475309145, 4475309146, 4475309147, 4475309148, 4475309149, 4475309150, 4475309151, 4475309152, 4475309153, 4475309154, 4475309155, 4475309156, 4475309157, 4475309158, 4475309159, 4475309160, 4475309161, 4475309162, 4475309163, 4475309164, 4475309165, 4475309166, 4475309167, 4475309168, 4475309169, 4475309170, 4475309171, 4475309172, 4475309173, 4475309174, 4475309175, 4475309176, 4475309177, 4475309178, 4475309179, 4475309180, 4475309181, 4475309182, 4475309183, 4475309184, 4475309185, 4475309186, 4475309187, 4475309188, 4475309289, 4475309290, 4475309291, 4475309292, 4475309293, 4475309294, 4475309295, 4475309296, 4475309297, 4475309298, 4475309299, 4475309300, 4475309301, 4475309302, 4475309303, 4475309304, 4475309305, 4475309306, 4475309307, 4475309308, 4475309309, 4475309310, 4475309311, 4475309312, 4475309313, 4475309314, 4475309315, 4475309316, 4475309317, 4475309318, 4475309319, 4475309320, 4475309321, 4475309322, 4475309323, 4475309324, 4475309325, 4475309326, 4475309327, 4475309328, 4475309329, 4475309330, 4475309331, 4475309332, 4475309333, 4475309334, 4475309335, 4475309336, 4475309337, 4475309338, 4475309339, 4475309340, 4475309341, 4475309342, 4475309343, 4475309344, 4475309345, 4475309346, 4475309347, 4475309348, 4475309349, 4475309350, 4475309351, 4475309352, 4475309353, 4475309354, 4475309355, 4475309356, 4475309357, 4475309358, 4475309359, 4475309360, 4475309361, 4475309362, 4475309363, 4475309364, 4475309365, 4475309366, 4475309367, 4475309368, 4475309369, 4475309370, 4475309371, 4475309372, 4475309373, 4475309374, 4475309375, 4475309376, 4475309377, 4475309378, 4475309379, 4475309380, 4475309381, 4475309382, 4475309383, 4475309384, 4475309385, 4475309386, 4475309387, 4475309388, 4475309489, 4475309490, 4475309491, 4475309133], "tags": {"landuse": "residential", "name": "\u0544\u0561\u056c\u056b\u0577\u056f\u0561", "name:en": "Malishka", "name:hy": "\u0544\u0561\u056c\u056b\u0577\u056f\u0561", "name:ru": "\u041c\u0430\u043b\u0438\u0448\u043a\u0430", "place": "village", "wikidata": "Q949136", "wikipedia": "en:Malishka"}}, {"type": "way", "id": 451411561, "nodes": [4482439964, 4482439965, 4482439966, 4482439967, 4482439968, 4482439969, 4482439970, 4482439971, 4482439972, 4482439973, 4482439974, 4482439975, 4482439976, 4482439977, 4482439978, 4482439979, 4482439980, 4482439981, 4482439982, 4482439983, 4482439984, 4482439985, 4482439986, 4482439987, 4482439988, 4482442289, 4482442290, 4482442291, 4482442292, 4482442293, 4482442294, 4482442295, 9837570909, 4482442296, 4482442297, 4482442298, 4482442299, 4482442300, 4482442301, 4482442302, 4482442303, 4482442304, 4482442305, 4482442306, 4482442307, 4482442308, 4482442309, 4482442310, 4482442311, 4482442312, 4482442313, 4482442314, 4482442315, 4482442316, 4482442317, 4482442318, 4482442319, 4482442320, 4482442321, 4482442322, 4482442323, 4482442324, 4482442325, 4482442326, 4482442327, 4482442328, 4482442329, 4482442330, 4482442331, 4482442332, 4482442333, 4482442334, 4482442335, 4482442336, 4482442337, 4482442338, 4482442339, 4482442340, 4482442341, 4482442342, 4482442343, 4482442344, 4482442345, 4482442346, 4482442347, 4482442348, 4482442349, 4482442350, 4482442351, 4482439964], "tags": {"landuse": "residential", "name": "\u0531\u0580\u0583\u056b", "name:en": "Arpi", "name:hy": "\u0531\u0580\u0583\u056b", "name:ru": "\u0410\u0440\u043f\u0438", "place": "village", "wikidata": "Q2710153", "wikipedia": "en:Arpi, Armenia"}}, {"type": "way", "id": 455659023, "nodes": [4520201622, 4520201623, 4520201624, 4520201625, 4520201626, 4520201627, 4520201628, 4520201629, 4520201630, 4520201631, 4520201632, 4520201633, 4520201634, 4520201635, 4520201636, 4520201637, 4520201638, 4520201639, 4520201640, 4520201641, 4520201642, 4520201643, 4520201644, 4520201645, 4520201646, 4520201647, 4520201648, 4520201649, 4520201650, 4520201651, 4520201652, 4520201653, 4520201654, 4520201655, 4520201656, 4520201657, 4520201658, 4520201659, 4520201660, 4520201661, 4520201662, 4520201663, 4520201664, 4520201665, 4520201666, 4520201667, 4520201668, 4520201669, 4520201670, 4520201671, 4520201672, 4520201673, 4520201674, 4520201675, 4520201676, 4520201677, 4520201678, 4520201679, 4520201680, 4520201681, 4520201682, 4520201683, 4520201684, 4520201685, 4520201686, 4520201687, 4520201688, 4520201989, 4520201990, 4520201991, 4520201992, 4520201993, 4520201994, 4520201995, 4520201996, 4520201997, 4520201998, 4520201999, 4520202000, 4520202001, 4520202002, 4520202003, 4520201622], "tags": {"landuse": "residential", "name": "\u0549\u056b\u057e\u0561", "name:en": "Chiva", "name:hy": "\u0549\u056b\u057e\u0561", "name:ru": "\u0427\u0438\u0432\u0430", "place": "village", "wikidata": "Q2536560", "wikipedia": "en:Chiva, Armenia"}}, {"type": "way", "id": 455660532, "nodes": [4520212776, 4520212777, 4520212778, 4520212779, 4520212780, 4520212781, 4520212782, 4520212783, 4520212784, 4520212785, 4520212786, 4520212787, 4520212788, 4520212789, 4520212790, 4520212791, 4520212792, 4520212793, 4520212794, 4520212795, 4520212796, 4520212797, 4520212798, 4520212799, 4520212800, 4520212801, 4520212802, 4520212803, 4520212804, 4520212805, 4520212806, 4520212807, 4520212808, 4520212809, 4520212810, 4520212811, 4520212812, 4520212813, 4520212814, 4520212815, 4520212816, 4520212817, 4520212818, 4520212819, 4520212820, 4520212821, 4520212822, 4520212823, 4520212824, 4520212825, 4520212826, 4520212827, 4520212828, 4520212829, 4520212830, 4520212831, 4520212832, 4520212833, 5237247974, 4520212834, 4520212835, 4520212836, 4745729977, 4520212838, 4520212839, 4520212840, 4520212841, 4520212842, 4520212843, 4520212844, 4520212845, 4520212846, 4520212847, 4520212848, 4520212849, 4520212850, 4520212851, 4520212852, 4520212853, 4520212854, 4520212855, 4520212856, 4520212857, 4520212858, 4520212859, 4520212860, 4520212861, 4520212862, 4520212776], "tags": {"landuse": "residential", "name": "\u0531\u0580\u0565\u0576\u056b", "name:en": "Areni", "name:hy": "\u0531\u0580\u0565\u0576\u056b", "name:ru": "\u0410\u0440\u0435\u043d\u0438", "place": "village", "wikidata": "Q207291", "wikipedia": "en:Areni"}}, {"type": "way", "id": 458128280, "nodes": [4541737872, 4541737873, 4541737874, 4541737875, 4541737876, 4541737877, 4541737878, 4541737879, 4541737880, 4541737881, 4541737882, 4541737883, 4541737884, 4541737885, 4541737886, 4541737887, 4541737888, 4541738489, 4541738490, 4541738491, 4541738492, 4541738493, 4541738494, 4541738495, 4541738496, 4541738497, 4541738498, 4541738499, 4541738500, 4541738501, 4541738502, 4541738503, 4541738504, 4541738505, 4541738506, 4541738507, 4541738508, 4541738509, 4541738510, 4541738511, 4541738512, 4541738513, 4541738514, 4541738515, 4541738516, 4541738517, 4541738518, 4541738519, 4541738520, 4541738521, 4541738522, 4541738523, 4541738524, 4541738525, 4541738526, 4541738527, 4541738528, 4541738529, 4541738530, 4541738531, 4541738532, 4541738533, 4541738534, 4541738535, 4541738536, 4541738537, 4541738538, 4541738539, 4541738540, 4541738541, 4541738542, 4541738543, 4541738544, 4541738545, 4541738546, 4541738547, 4541738548, 4541738549, 4541738550, 4541738551, 4541738552, 4541738553, 4541738554, 4541738555, 4541738556, 4541738557, 4541738558, 4541738559, 4541738560, 4541738561, 4541738562, 4541738563, 4541738564, 4541738565, 4541738566, 4541738567, 4541738568, 4541738569, 4541738570, 4541738571, 4541737872], "tags": {"landuse": "residential", "name": "\u0531\u0563\u0561\u0580\u0561\u056f\u0561\u0571\u0578\u0580", "name:en": "Agarakadzor", "name:hy": "\u0531\u0563\u0561\u0580\u0561\u056f\u0561\u0571\u0578\u0580", "name:ru": "\u0410\u0433\u0430\u0440\u0430\u043a\u0430\u0434\u0437\u043e\u0440", "place": "village", "wikidata": "Q1955941", "wikipedia": "en:Agarakadzor"}}, {"type": "way", "id": 481661849, "nodes": [4745732185, 4745732184, 4745732183, 4745732182, 4745732181, 4745732180, 4745732179, 4745732178, 4745732177, 4745732176, 4745732175, 4745732174, 4745732173, 4745732172, 4745732171, 5224841169, 4745732185], "tags": {"landuse": "residential", "name": "\u0544\u0578\u0566\u0580\u0578\u057e", "name:en": "Mozrov", "name:hy": "\u0544\u0578\u0566\u0580\u0578\u057e", "name:ru": "\u041c\u043e\u0437\u0440\u043e\u0432", "place": "village", "wikidata": "Q6928014", "wikipedia": "en:Mozrov"}}, {"type": "way", "id": 541326721, "nodes": [5234661050, 5234661049, 5234661048, 5234661047, 5234661046, 5234661045, 5234661044, 5234661043, 5234661042, 5234661041, 5234661040, 5234661039, 5234661038, 5234661037, 5234661036, 5234661035, 5234661034, 5234661033, 5234661032, 5234661031, 5234661030, 5234661029, 5234661028, 5234661027, 5234661026, 5234661025, 5234661024, 5234661023, 5234661022, 5234661021, 5234661020, 5234661019, 5234661018, 5234661017, 5234661016, 5234661015, 5234661014, 5234661013, 5234661012, 5234661011, 5234661010, 5234661009, 5234661008, 5234661007, 5234661006, 5234661005, 5234661004, 5234661003, 5234661002, 5234661001, 5234661000, 5234660999, 5234660998, 5234660997, 5234660996, 5234660995, 5234660994, 5234660993, 5234660992, 5234660991, 5234660990, 5234660989, 5234660988, 5234660987, 5234660986, 5234661050], "tags": {"landuse": "residential", "name": "\u0536\u0565\u0564\u0565\u0561", "name:en": "Zedea", "name:hy": "\u0536\u0565\u0564\u0565\u0561", "name:ru": "\u0417\u0435\u0434\u0435\u0430", "place": "village", "wikidata": "Q554372", "wikipedia": "en:Zedea"}}, {"type": "way", "id": 552357188, "nodes": [5333014745, 5333014744, 5333014743, 5333014742, 5333014741, 5333014740, 5333014739, 5333014738, 5333014737, 5333014736, 5333014735, 5333014734, 5333014733, 5333014732, 5333014731, 5333014730, 5333014729, 5333014728, 5333014727, 5333014726, 5333014725, 5333014724, 5333014723, 5333014722, 5333014721, 5333014720, 5333014719, 5333014718, 5333014717, 5333014716, 5333014715, 5333014714, 5333014713, 5333014712, 5333014711, 5333014710, 5333014709, 5333014708, 5333014707, 5333014706, 5333014705, 5333014704, 5333014703, 5333014702, 5333014701, 5333014700, 5333014699, 5333014698, 5333014697, 5333014696, 5333014695, 5333014694, 5333014693, 5333014692, 5333014691, 5333014690, 5333014689, 5333014688, 5333014687, 5333014686, 5333014685, 5333014684, 5333014683, 5333014682, 5333014681, 5333014680, 5333014679, 5333014678, 5333014677, 5333014676, 5333014675, 5333014674, 5333014673, 5333014672, 5333014671, 5333014670, 5333014669, 5333014668, 5333014667, 5333014666, 5333014665, 5333014664, 5333014663, 5333014662, 5333014661, 5333014660, 5333014659, 5333014658, 5333014657, 5333014656, 5333014655, 5333014654, 5333014653, 5333014652, 5333014651, 5333014650, 5333014649, 5333014648, 5333014647, 5333014646, 5333014645, 5333014644, 5333014643, 5333014642, 5333014641, 5333014640, 5333014639, 5333014638, 5333014637, 5333014636, 5333014635, 5333014634, 5333014633, 5333014632, 5333014631, 5333014630, 5333014629, 5333014628, 5333014627, 5333014626, 5333014625, 5333014624, 5333014623, 5333014622, 5333014621, 5333013920, 5333013919, 5333013918, 5333013917, 5333013916, 5333013915, 5333013852, 5333013913, 5333013912, 5333013911, 5333013910, 5333013909, 5333013850, 5333013907, 5333013906, 5333013905, 5333013904, 5333013903, 5333013902, 5333013901, 5333013900, 5333013899, 5333013898, 5333013897, 6697831515, 5333013896, 5333013851, 6697831516, 5333013894, 5333013854, 5333013892, 5333013891, 5333013890, 5333013889, 5333013888, 5333013887, 5333013886, 5333013885, 5333013884, 5333013883, 5333013882, 5333013881, 5333013880, 5333013879, 5333013853, 5333013877, 5333013876, 5333013875, 5333013874, 5333013873, 5333013872, 5333013871, 5333013870, 5333013869, 5333013868, 5333013867, 5333013866, 5333013865, 5333013864, 5333013863, 5333013862, 5333013861, 5333013860, 5333013859, 5333013858, 5333013857, 5333013856, 5333013855, 5333014745], "tags": {"landuse": "residential", "name": "\u0533\u0565\u057f\u0561\u0583", "name:en": "Getap", "name:hy": "\u0533\u0565\u057f\u0561\u0583", "name:ru": "\u0413\u0435\u0442\u0430\u043f", "place": "village", "wikidata": "Q2536601", "wikipedia": "en:Getap, Vayots Dzor"}}, {"type": "way", "id": 552360123, "nodes": [5333037892, 5333037891, 5333037890, 5333037889, 5333037888, 5333037887, 5333037886, 5333037885, 5333037884, 5333037883, 5333037882, 5333037881, 5333037880, 5333037879, 5333037878, 5333037877, 5333037876, 5333037875, 5333037874, 5333037873, 5333037872, 5333037871, 5333037870, 5333037869, 5333037868, 5333037867, 5333037866, 5333037865, 5333037864, 5333037863, 5333037862, 5333037861, 5333037860, 5333037859, 5333037858, 5333037857, 5333037856, 5333037855, 5333037854, 5333037853, 5333037852, 5333037851, 5333037850, 5333037849, 5333037848, 5333037847, 5333037846, 5333037845, 5333037892], "tags": {"name": "\u0531\u0580\u056b\u0576", "name:en": "Arin", "name:hy": "\u0531\u0580\u056b\u0576", "name:ru": "\u0410\u0440\u0438\u043d", "place": "village", "wikidata": "Q669434", "wikipedia": "en:Arin, Armenia"}}, {"type": "way", "id": 552366362, "nodes": [5333082536, 5333082535, 5333082534, 5333082533, 5333082532, 5333082531, 5333082530, 5333082529, 5333082528, 5333082527, 5333082526, 5333082525, 5333082524, 5333082523, 5333082522, 5333082521, 5333082520, 5333082519, 5333082518, 5333082517, 5333082516, 5333082515, 5333082514, 5333082513, 5333082512, 5333082511, 5333082510, 5333082509, 5333082508, 5333082507, 5333082506, 5333082505, 5333082504, 5333082503, 5333082502, 5333082501, 5333082500, 5333082499, 5333082498, 5333082497, 5333082496, 5333082495, 5333082494, 5333082493, 5333082492, 5333082491, 5333082490, 5333082489, 5333082488, 5333082487, 5333082486, 5333082485, 5333082484, 5333082483, 5333082482, 5333082481, 5333082480, 5333082536], "tags": {"abandoned:place": "village", "historic": "ruins", "name": "\u0532\u0578\u056c\u0578\u0580\u0561\u0562\u0565\u0580\u0564", "name:en": "Boloraberd", "name:hy": "\u0532\u0578\u056c\u0578\u0580\u0561\u0562\u0565\u0580\u0564", "name:ru": "\u0411\u043e\u043b\u043e\u0440\u0430\u0431\u0435\u0440\u0434", "place": "village", "wikidata": "Q4939995"}}, {"type": "way", "id": 870645438, "nodes": [8110397789, 8110397790, 8110397791, 8110397792, 8110397793, 8110397794, 8110397795, 8110397796, 8110397797, 8110397798, 8110397799, 8110397800, 8110397801, 8110397802, 8110397803, 8110397804, 8110397805, 8110397806, 8110397807, 8110397808, 8110397809, 8110397810, 8110397811, 8110397812, 8110397813, 8110397814, 8110397815, 8110397816, 8110415017, 8110415018, 8110415019, 8110415020, 8110415021, 8110397789], "tags": {"landuse": "residential", "name": "\u0544\u0561\u0564\u056b\u0576\u0561", "name:en": "Madina", "name:hy": "\u0544\u0561\u0564\u056b\u0576\u0561", "name:ru": "\u041c\u0430\u0434\u0438\u043d\u0430", "place": "village", "wikidata": "Q2392033", "wikipedia": "en:Madina, Armenia"}}, {"type": "way", "id": 870645439, "nodes": [8110415022, 8110415023, 8110415024, 8110415025, 8110415026, 8110415027, 8110415028, 8110415029, 8110415030, 8110415031, 8110415032, 8110415033, 8110415034, 8110415035, 8110415036, 8110415037, 8110415038, 8110415039, 8110415040, 8110415022], "tags": {"landuse": "residential", "name": "\u053c\u0565\u057c\u0576\u0561\u056f\u0565\u0580\u057f", "name:en": "Lernakert", "name:hy": "\u053c\u0565\u057c\u0576\u0561\u056f\u0565\u0580\u057f", "name:ru": "\u041b\u0435\u0440\u043d\u0430\u043a\u0435\u0440\u0442", "old_name": "\u053c\u0565\u057c\u0576\u0561\u0570\u0578\u057e\u056b\u057f", "old_name:en": "Lernahovit", "old_name:hy": "\u053c\u0565\u057c\u0576\u0561\u0570\u0578\u057e\u056b\u057f", "old_name:ru": "\u041b\u0435\u0440\u043d\u0430\u043e\u0432\u0438\u0442", "place": "village", "wikidata": "Q6528841", "wikipedia": "en:Lernahovit, Gegharkunik"}}, {"type": "way", "id": 883076002, "nodes": [11556629451, 11556629453, 11556629454, 8212008443, 8212008444, 8212008445, 8212008446, 8212008447, 8212008448, 8212008449, 8212008450, 8212008451, 8212008452, 2726028190, 8212008453, 8212008454, 8212008455, 8212008456, 8212008457, 8212008458, 8212008459, 8212008460, 8212008461, 8212008462], "tags": {"admin_level": "5", "boundary": "administrative"}}, {"type": "way", "id": 883298357, "nodes": [5245900206, 210207232, 6776632479, 6776632480, 6776632481, 6776632482, 6776632483, 210207234, 210207235, 6776632484, 6776632485, 6776632486, 210207236, 210207238, 210207239, 210207242, 210207245, 4057711377, 210207249, 9822691781, 210207250, 210207251, 2464171673, 4057711376, 210207252, 210207253, 5491426538, 6009431380, 6009431379, 6009431378, 6009431377, 11576957987], "tags": {"boat": "no", "name": "\u0531\u0580\u0583\u0561", "name:az": "Arpa\u00e7ay", "name:en": "Arpa", "name:hy": "\u0531\u0580\u0583\u0561", "name:ru": "\u0410\u0440\u043f\u0430", "waterway": "river"}}, {"type": "way", "id": 883298363, "nodes": [11556629445, 993560141, 993559698, 993560090, 993560012, 993559571, 993559919, 993560295, 210207192, 210207193, 4460162085, 210207194, 5325784966, 1882772527, 210207195, 210207196, 5325784967, 1882772525, 5325784968, 210207198, 5325784969, 210207201, 5325784970, 5325784971, 5325784972, 8212008462], "tags": {"boat": "no", "name": "\u0531\u0580\u0583\u0561", "name:az": "Arpa\u00e7ay", "name:en": "Arpa", "name:hy": "\u0531\u0580\u0583\u0561", "name:ru": "\u0410\u0440\u043f\u0430", "waterway": "river"}}, {"type": "way", "id": 1083951709, "nodes": [1876490239, 12043270756, 12043270763, 12043270764, 12043270765, 12043270766, 12043270767, 12043270768, 12043289681, 12043289682, 12043289669, 12043289670, 12043289671, 12043289672, 12043289673, 12043289674, 12043289683], "tags": {"boundary": "administrative"}}, {"type": "way", "id": 1149150244, "nodes": [10690797198, 10690797199, 10690797200, 10690797201, 10690797202, 10690797203, 10690797204, 10690798805, 10690798806, 10690798807, 13299257293, 13299257294, 10690798808, 10690798809, 13299257295, 10690798810, 10690797198], "tags": {"name": "\u0540\u0565\u0580\u0574\u0578\u0576", "name:en": "Hermon", "name:hy": "\u0540\u0565\u0580\u0574\u0578\u0576", "name:ru": "\u042d\u0440\u043c\u043e\u043d", "place": "village", "wikidata": "Q2710084", "wikipedia": "hy:\u0540\u0565\u0580\u0574\u0578\u0576"}}, {"type": "way", "id": 1149150245, "nodes": [10690798812, 10690798813, 10690798814, 10690798815, 10690798816, 10690798817, 10690798818, 10690798819, 10690798820, 10690798821, 10690798822, 10690798823, 10690798824, 10690798825, 10690798826, 10690798827, 10690798828, 10690798812], "tags": {"landuse": "residential", "name": "\u054e\u0561\u0575\u0584", "name:en": "Vayk", "name:hy": "\u054e\u0561\u0575\u0584", "name:ru": "\u0412\u0430\u0439\u043a", "place": "town", "wikidata": "Q1253628", "wikipedia": "en:Vayk"}}, {"type": "way", "id": 1300203750, "nodes": [11576957987, 210207258, 6009431376, 2464171660, 6009431375, 6009431374, 2464171658, 6009431373, 6009431372, 210207260, 6009431370, 210207263, 210207264, 6009431371, 2832387016, 12043270722], "tags": {"boat": "no", "name": "\u0531\u0580\u0583\u0561", "name:az": "Arpa\u00e7ay", "name:en": "Arpa", "name:hy": "\u0531\u0580\u0583\u0561", "name:ru": "\u0410\u0440\u043f\u0430", "waterway": "river"}}, {"type": "way", "id": 1300203751, "nodes": [12043270722, 8212008441, 11556629455, 11556629450, 11556629452, 11556629451], "tags": {"admin_level": "5", "boundary": "administrative"}}, {"type": "way", "id": 1300203752, "nodes": [5245900206, 12043270723, 12043270724, 12043270725, 12043270726, 12043270727, 12043270728, 12043270729, 12043270730, 12043270731, 12043270732, 12043270733, 12043270734, 12043270735, 12043270736, 12043270737, 12043270738, 12043270739, 12043270740, 12043270741, 12043270742, 12043270743, 12043270744, 12043270745, 12043270746, 12043270747, 12043270748, 12043270749, 12043270750], "tags": {"admin_level": "7", "boundary": "administrative", "name": "\u0533\u0565\u057f\u0561\u0583-\u0535\u0572\u0565\u0563\u0576\u0561\u0571\u0578\u0580 \u0562\u0576\u0561\u056f\u0561\u057e\u0561\u0575\u0580\u0565\u0580\u056b \u057d\u0561\u0570\u0574\u0561\u0576"}}, {"type": "way", "id": 1300203754, "nodes": [3659683011, 3659683015, 3659683008, 4271333656, 1876490241, 1876490239]}, {"type": "way", "id": 1300203756, "nodes": [12043270750, 12043270757, 12043270758, 12043270759, 12043289687, 12043270760, 12043270761, 12043270762, 1876490241, 1876490239], "tags": {"admin_level": "7", "boundary": "administrative", "name": "\u0535\u0572\u0565\u0563\u0576\u0561\u0571\u0578\u0580-\u0533\u056c\u0561\u0571\u0578\u0580 \u057d\u0561\u0570\u0574\u0561\u0576"}}, {"type": "way", "id": 1300203757, "nodes": [993560066, 993559624, 993559514, 993559846, 993560217, 1962506528, 993559726, 993559642, 993560036, 993559594, 993559982, 993559767, 4084595470, 12043289686, 11556629445], "tags": {"boat": "no", "name": "\u0531\u0580\u0583\u0561", "name:az": "Arpa\u00e7ay", "name:en": "Arpa", "name:hy": "\u0531\u0580\u0583\u0561", "name:ru": "\u0410\u0440\u043f\u0430", "waterway": "river"}}, {"type": "way", "id": 1300203759, "nodes": [12043289683, 12043289675, 12043289684, 12043289676, 12043289685, 12043289677, 12043289678, 12043289679, 12043289680, 993560066], "tags": {"boundary": "administrative"}}, {"type": "relation", "id": 10255503, "members": [{"type": "node", "ref": 5659042507, "role": "admin_centre"}, {"type": "way", "ref": 128751431, "role": "outer"}], "tags": {"admin_level": "8", "boundary": "administrative", "is_in": "Armenia, Vayots Dzor", "name": "\u054e\u0561\u0575\u0584", "name:en": "Vayk", "name:hy": "\u054e\u0561\u0575\u0584", "name:ru": "\u0412\u0430\u0439\u043a", "place": "town", "population": "5877", "type": "boundary", "wikidata": "Q1253628", "wikipedia": "en:Vayk"}}, {"type": "relation", "id": 10255555, "members": [{"type": "node", "ref": 210178763, "role": "admin_centre"}, {"type": "way", "ref": 1300203751, "role": "outer"}, {"type": "way", "ref": 883076002, "role": "outer"}, {"type": "way", "ref": 883298363, "role": "outer"}, {"type": "way", "ref": 1300203757, "role": "outer"}, {"type": "way", "ref": 1300203759, "role": "outer"}, {"type": "way", "ref": 1083951709, "role": "outer"}, {"type": "way", "ref": 1300203756, "role": "outer"}, {"type": "way", "ref": 1300203752, "role": "outer"}, {"type": "way", "ref": 883298357, "role": "outer"}, {"type": "way", "ref": 1300203750, "role": "outer"}], "tags": {"admin_level": "6", "boundary": "administrative", "name": "\u0535\u0572\u0565\u0563\u0576\u0561\u0571\u0578\u0580", "name:de": "Jeghegnadsor", "name:en": "Yeghegnadzor", "name:hy": "\u0535\u0572\u0565\u0563\u0576\u0561\u0571\u0578\u0580", "name:it": "Jeghegnadzoras", "name:ja": "\u30a4\u30a7\u30b2\u30b0\u30ca\u30be\u30eb", "name:pl": "Jeghegnadzor", "name:ru": "\u0415\u0445\u0435\u0433\u043d\u0430\u0434\u0437\u043e\u0440", "name:uk": "\u0404\u0433\u0435\u0491\u043d\u0430\u0434\u0437\u043e\u0440", "place": "town", "population": "7944", "type": "boundary", "wikidata": "Q39538", "wikipedia": "hy:\u0535\u0572\u0565\u0563\u0576\u0561\u0571\u0578\u0580"}}, {"type": "relation", "id": 17819127, "members": [{"type": "way", "ref": 427975450, "role": "outer"}, {"type": "way", "ref": 1300203754, "role": "outer"}], "tags": {"landuse": "residential", "name": "\u0533\u056c\u0561\u0571\u0578\u0580", "name:en": "Gladzor", "name:hy": "\u0533\u056c\u0561\u0571\u0578\u0580", "name:pl": "Gladzor", "name:ru": "\u0413\u043b\u0430\u0434\u0437\u043e\u0440", "place": "village", "type": "multipolygon", "wikidata": "Q2536608", "wikipedia": "en:Gladzor"}}]}