{"version": 0.6, "generator": "Overpass API 0.7.62.8 e802775f", "osm3s": {"timestamp_osm_base": "2025-12-01T14:36:05Z", "copyright": "The data included in this document is from www.openstreetmap.org. The data is made available under ODbL."}, "elements": [{"type": "node", "id": 210231290, "lat": 39.2075659, "lon": 46.4049281, "tags": {"capital": "4", "is_in:country": "Armenia", "is_in:country_code": "AM", "is_in:municipality": "\u053f\u0561\u057a\u0561\u0576\u056b \u0570\u0561\u0574\u0561\u0575\u0576\u0584", "is_in:region": "\u054d\u0575\u0578\u0582\u0576\u056b\u0584\u056b \u0574\u0561\u0580\u0566", "name": "\u053f\u0561\u057a\u0561\u0576", "name:ar": "\u0643\u0627\u0628\u0627\u0646", "name:az": "Qafan", "name:be": "\u041a\u0430\u043f\u0430\u043d", "name:bg": "\u041a\u0430\u043f\u0430\u043d", "name:ca": "Kapan", "name:ce": "\u041a\u0430\u043f\u0430\u043d", "name:ckb": "\u06a9\u0627\u067e\u0627\u0646", "name:cs": "Kapan", "name:de": "Kapan", "name:el": "\u039a\u03b1\u03c0\u03ac\u03bd", "name:en": "Kapan", "name:eo": "Kapan", "name:es": "Kapan", "name:et": "Kapan", "name:fa": "\u06a9\u0627\u067e\u0627\u0646", "name:fi": "Kapan", "name:fr": "Kapan", "name:fy": "Kapan", "name:he": "\u05e7\u05e4\u05d0\u05df", "name:hi": "\u0915\u093e\u092a\u093e\u0928", "name:hr": "Kapan", "name:hy": "\u053f\u0561\u057a\u0561\u0576", "name:id": "Kapan", "name:it": "Kapan", "name:ja": "\u30ab\u30d1\u30f3", "name:ka": "\u10d9\u10d0\u10de\u10d0\u10dc\u10d8", "name:kk": "\u041a\u0430\u043f\u0430\u043d", "name:ko": "\uce74\ud310", "name:ku": "Kapan", "name:lt": "Kapanas", "name:lv": "Kapana", "name:ml": "\u0d15\u0d3e\u0d2a\u0d4d\u0d2a\u0d3e\u0d7b", "name:ms": "Kapan", "name:nb": "Kapan", "name:nl": "Kapan", "name:os": "\u041a\u0430\u043f\u0430\u043d", "name:pa": "\u0a15\u0a2a\u0a3e\u0a28", "name:pl": "Kapan", "name:pt": "Cap\u00e3", "name:ro": "Kapan", "name:ru": "\u041a\u0430\u043f\u0430\u043d", "name:sk": "Kapan", "name:sr": "\u041a\u0430\u043f\u0430\u043d", "name:sv": "Kapan", "name:sw": "Kapan", "name:tr": "Kapan", "name:uk": "\u041a\u0430\u043f\u0430\u043d", "name:ur": "\u06a9\u0627\u067e\u0627\u0646", "name:uz": "Kapan", "name:vi": "Kapan", "name:zh": "\u5361\u6f58", "nat_name": "\u053f\u0561\u057a\u0561\u0576", "place": "town", "population": "41512", "population:date": "2022-01-01", "source:population": "Armstat", "wikipedia": "en:Kapan"}}, {"type": "node", "id": 210260007, "lat": 38.8654085, "lon": 46.195697, "tags": {"ele": "660", "is_in:country": "Armenia", "is_in:country_code": "AM", "is_in:municipality": "\u0544\u0565\u0572\u0580\u0578\u0582 \u0570\u0561\u0574\u0561\u0575\u0576\u0584", "is_in:region": "\u054d\u0575\u0578\u0582\u0576\u056b\u0584\u056b \u0574\u0561\u0580\u0566", "name": "\u0531\u0563\u0561\u0580\u0561\u056f", "name:ar": "\u0622\u063a\u0627\u0631\u0627\u0643", "name:az": "\u018fk\u0259r\u0259k", "name:be": "\u0410\u0433\u0430\u0440\u0430\u043a", "name:ca": "Agarak", "name:ce": "\u0410\u0433\u0430\u0440\u0430\u043a", "name:ckb": "\u0626\u0627\u06af\u0627\u0631\u0627\u06a9", "name:de": "Agarak", "name:el": "\u0391\u03b3\u03ba\u03b1\u03c1\u03ac\u03ba", "name:en": "Agarak", "name:eo": "Agarak", "name:es": "Agarak", "name:et": "Agarak", "name:fa": "\u0622\u06af\u0627\u0631\u0627\u06a9", "name:fr": "Agarak", "name:hr": "Agarak", "name:hy": "\u0531\u0563\u0561\u0580\u0561\u056f", "name:id": "Agarak", "name:it": "Agarak", "name:ja": "\u30a2\u30ac\u30e9\u30af", "name:ka": "\u10d0\u10d2\u10d0\u10e0\u10d0\u10d9\u10d8", "name:kk": "\u0410\u0433\u0430\u0440\u0430\u043a", "name:ku": "Agarak", "name:lt": "Agarakas", "name:ml": "\u0d06\u0d17\u0d3e\u0d31\u0d3e\u0d15\u0d4d\u0d15\u0d4d", "name:ms": "Agarak", "name:nb": "Agarak", "name:nl": "Agarak", "name:pl": "Agarak", "name:ro": "Agarak", "name:ru": "\u0410\u0433\u0430\u0440\u0430\u043a", "name:sr": "\u0410\u0433\u0430\u0440\u0430\u043a", "name:sw": "Agarak", "name:uk": "\u0410\u0491\u0430\u0440\u0430\u043a", "name:uz": "Agarak", "name:vi": "Agarak", "nat_name": "\u0531\u0563\u0561\u0580\u0561\u056f", "place": "town", "population": "3952", "population:date": "2022-01-01", "source:population": "Armstat", "wikidata": "Q1647453", "wikipedia": "en:Agarak, Meghri"}}, {"type": "node", "id": 210261629, "lat": 38.9013004, "lon": 46.2459121, "tags": {"int_name": "Meghri", "is_in:country": "Armenia", "is_in:country_code": "AM", "is_in:municipality": "\u0544\u0565\u0572\u0580\u0578\u0582 \u0570\u0561\u0574\u0561\u0575\u0576\u0584", "is_in:region": "\u054d\u0575\u0578\u0582\u0576\u056b\u0584\u056b \u0574\u0561\u0580\u0566", "name": "\u0544\u0565\u0572\u0580\u056b", "name:az": "Me\u011fri / M\u0131\u011fr\u0131", "name:be": "\u041c\u0435\u0433\u0440\u044b", "name:bg": "\u041c\u0435\u0433\u0440\u0438", "name:ca": "Meghr\u00ed", "name:ce": "\u041c\u0435\u0433\u0440\u0438", "name:ckb": "\u0645\u06ce\u063a\u0631\u06cc", "name:cs": "Meghri", "name:de": "Meghri", "name:el": "\u039c\u03b5\u03b3\u03c1\u03af", "name:en": "Meghri", "name:eo": "Meghri", "name:es": "Meghri", "name:fa": "\u0645\u063a\u0631\u06cc", "name:fi": "Meghri", "name:fr": "Meghri", "name:hr": "Megri", "name:hu": "Megri", "name:hy": "\u0544\u0565\u0572\u0580\u056b", "name:id": "Meghri", "name:it": "Meghri", "name:ja": "\u30e1\u30b0\u30ea", "name:ka": "\u10db\u10d4\u10e6\u10e0\u10d8", "name:ku": "M\u00eaxr\u00ee", "name:lt": "Megris", "name:ml": "\u0d2e\u0d46\u0d17\u0d4d\u0d30\u0d3f", "name:ms": "Meghri", "name:nb": "Meghri", "name:nl": "Megri", "name:os": "\u041c\u0435\u0433\u044a\u0440\u0438", "name:pl": "Meghri", "name:ro": "Meghri", "name:ru": "\u041c\u0435\u0433\u0440\u0438", "name:sr": "\u041c\u0435\u0433\u0440\u0438", "name:sv": "Meghri", "name:sw": "Meghri", "name:tr": "Me\u011fri", "name:uk": "\u041c\u0435\u0433\u0440\u0456", "name:uz": "Meghri", "name:vi": "Meghri", "name:zh": "\u6885\u683c\u91cc", "nat_name": "\u0544\u0565\u0572\u0580\u056b", "place": "town", "population": "4193", "population:date": "2022-01-01", "source:population": "Armstat", "wikidata": "Q39549", "wikipedia": "en:Meghri"}}, {"type": "node", "id": 210281886, "lat": 39.1510126, "lon": 46.1554005, "tags": {"alt_name": "Kajaran;K\u2019ajaran;Qacaran;Kadjaran;Kadzharan;Gajaran", "int_name": "Kajaran", "is_in:country": "Armenia", "is_in:country_code": "AM", "is_in:municipality": "\u0554\u0561\u057b\u0561\u0580\u0561\u0576\u056b \u0570\u0561\u0574\u0561\u0575\u0576\u0584", "is_in:region": "\u054d\u0575\u0578\u0582\u0576\u056b\u0584\u056b \u0574\u0561\u0580\u0566", "name": "\u0554\u0561\u057b\u0561\u0580\u0561\u0576", "name:ar": "\u0643\u0627\u062c\u0627\u0631\u0627\u0646", "name:az": "Qacaran k\u0259ndi", "name:be": "\u041a\u0430\u0434\u0436\u0430\u0440\u0430\u043d", "name:bg": "\u041a\u0430\u0434\u0436\u0430\u0440\u0430\u043d", "name:ce": "\u041a\u0430\u0434\u0436\u0430\u0440\u0430\u043d", "name:ckb": "\u06a9\u0627\u062c\u0627\u0631\u0627\u0646", "name:cs": "Kad\u017earan", "name:de": "Kadscharan", "name:el": "\u039a\u03b1\u03c4\u03b6\u03b1\u03c1\u03ac\u03bd", "name:en": "Kajaran", "name:eo": "Ka\u011darano", "name:es": "Kajaran", "name:et": "Khad\u017earan", "name:fa": "\u06a9\u0627\u062c\u0627\u0631\u0627\u0646", "name:fr": "Kajaran", "name:hr": "Kad\u017earan", "name:hy": "\u0554\u0561\u057b\u0561\u0580\u0561\u0576", "name:id": "Kajaran", "name:it": "Kadjaran", "name:ja": "\u30ab\u30b8\u30e3\u30e9\u30f3", "name:ka": "\u10e5\u10d0\u10ef\u10d0\u10e0\u10d0\u10dc\u10d8", "name:ku": "Kacaran", "name:lt": "Kad\u017earanas", "name:ml": "\u0d15\u0d3e\u0d1c\u0d31\u0d3e\u0d7b", "name:ms": "Kajaran", "name:nb": "Kajaran", "name:nl": "Kadzjaran", "name:pl": "Kad\u017caran", "name:ro": "Kajaran", "name:ru": "\u041a\u0430\u0434\u0436\u0430\u0440\u0430\u043d", "name:sr": "\u041a\u0430\u045f\u0430\u0440\u0430\u043d", "name:sw": "Kajaran", "name:tr": "Kacaran", "name:uk": "\u041a\u0430\u0434\u0436\u0430\u0440\u0430\u043d", "name:uz": "Kajaran", "name:vi": "Kajaran", "name:zh": "\u5361\u8d3e\u5170", "nat_name": "\u0554\u0561\u057b\u0561\u0580\u0561\u0576", "place": "town", "population": "6810", "population:date": "2022-01-01", "source:population": "Armstat", "wikidata": "Q842844", "wikipedia": "en:Kajaran"}}, {"type": "node", "id": 925959056, "lat": 38.9361873, "lon": 46.3481031, "tags": {"is_in:country": "Armenia", "is_in:country_code": "AM", "is_in:municipality": "\u0544\u0565\u0572\u0580\u0578\u0582 \u0570\u0561\u0574\u0561\u0575\u0576\u0584", "is_in:region": "\u054d\u0575\u0578\u0582\u0576\u056b\u0584\u056b \u0574\u0561\u0580\u0566", "name": "\u0531\u056c\u057e\u0561\u0576\u0584", "name:az": "\u018fld\u0259r\u0259 k\u0259ndi", "name:en": "Alvank", "name:hy": "\u0531\u056c\u057e\u0561\u0576\u0584", "name:ru": "\u0410\u043b\u0432\u0430\u043d\u043a", "place": "village", "population": "223", "population:date": "2022-01-01", "source:population": "Armstat", "wikidata": "Q2464626", "wikipedia": "en:Alvank"}}, {"type": "node", "id": 925959128, "lat": 38.9368608, "lon": 46.3711981, "tags": {"is_in:country": "Armenia", "is_in:country_code": "AM", "is_in:municipality": "\u0544\u0565\u0572\u0580\u0578\u0582 \u0570\u0561\u0574\u0561\u0575\u0576\u0584", "is_in:region": "\u054d\u0575\u0578\u0582\u0576\u056b\u0584\u056b \u0574\u0561\u0580\u0566", "name": "\u0547\u057e\u0561\u0576\u056b\u0571\u0578\u0580", "name:az": "Astazur k\u0259ndi", "name:en": "Shvanidzor", "name:hy": "\u0547\u057e\u0561\u0576\u056b\u0571\u0578\u0580", "name:ru": "\u0428\u0432\u0430\u043d\u0438\u0434\u0437\u043e\u0440", "place": "village", "population": "254", "population:date": "2022-01-01", "source:population": "Armstat", "wikidata": "Q2224155", "wikipedia": "en:Shvanidzor"}}, {"type": "node", "id": 928504618, "lat": 39.2364974, "lon": 46.4304294, "tags": {"is_in:country": "Armenia", "is_in:country_code": "AM", "is_in:municipality": "\u053f\u0561\u057a\u0561\u0576\u056b \u0570\u0561\u0574\u0561\u0575\u0576\u0584", "is_in:region": "\u054d\u0575\u0578\u0582\u0576\u056b\u0584\u056b \u0574\u0561\u0580\u0566", "name": "\u0531\u0573\u0561\u0576\u0561\u0576", "name:en": "Atchanan", "name:hy": "\u0531\u0573\u0561\u0576\u0561\u0576", "name:ru": "\u0410\u0447\u0430\u043d\u0430\u043d", "place": "village", "population": "177", "population:date": "2022-01-01", "source:population": "Armstat", "wikidata": "Q2224164", "wikipedia": "en:Achanan"}}, {"type": "node", "id": 928504637, "lat": 39.22384, "lon": 46.528927, "tags": {"is_in:country": "Armenia", "is_in:country_code": "AM", "is_in:municipality": "\u053f\u0561\u057a\u0561\u0576\u056b \u0570\u0561\u0574\u0561\u0575\u0576\u0584", "is_in:region": "\u054d\u0575\u0578\u0582\u0576\u056b\u0584\u056b \u0574\u0561\u0580\u0566", "name": "\u053d\u0564\u0580\u0561\u0576\u0581", "name:en": "Khdrants", "name:hy": "\u053d\u0564\u0580\u0561\u0576\u0581", "name:ru": "\u0425\u0434\u0440\u0430\u043d\u0446", "place": "village", "population": "51", "population:date": "2022-01-01", "source:population": "Armstat", "wikidata": "Q2224308", "wikipedia": "en:Khdrants"}}, {"type": "node", "id": 928504667, "lat": 39.2357301, "lon": 46.5408823, "tags": {"is_in:country": "Armenia", "is_in:country_code": "AM", "is_in:municipality": "\u053f\u0561\u057a\u0561\u0576\u056b \u0570\u0561\u0574\u0561\u0575\u0576\u0584", "is_in:region": "\u054d\u0575\u0578\u0582\u0576\u056b\u0584\u056b \u0574\u0561\u0580\u0566", "name": "\u0548\u0582\u056a\u0561\u0576\u056b\u057d", "name:en": "Ujanis", "name:hy": "\u0548\u0582\u056a\u0561\u0576\u056b\u057d", "name:ru": "\u0423\u0436\u0430\u043d\u0438\u0441", "place": "village", "population": "94", "population:date": "2022-01-01", "source:population": "Armstat", "wikidata": "Q2074308", "wikipedia": "en:Uzhanis"}}, {"type": "node", "id": 928504686, "lat": 39.2413151, "lon": 46.500783, "tags": {"is_in:country": "Armenia", "is_in:country_code": "AM", "is_in:municipality": "\u053f\u0561\u057a\u0561\u0576\u056b \u0570\u0561\u0574\u0561\u0575\u0576\u0584", "is_in:region": "\u054d\u0575\u0578\u0582\u0576\u056b\u0584\u056b \u0574\u0561\u0580\u0566", "name": "\u054e\u0561\u0580\u0564\u0561\u057e\u0561\u0576\u0584", "name:en": "Vardavank", "name:hy": "\u054e\u0561\u0580\u0564\u0561\u057e\u0561\u0576\u0584", "name:ru": "\u0412\u0430\u0440\u0434\u0430\u0432\u0430\u043d\u043a", "place": "village", "population": "91", "population:date": "2022-01-01", "source:population": "Armstat", "wikidata": "Q378924", "wikipedia": "en:Vardavank"}}, {"type": "node", "id": 928504702, "lat": 39.2303957, "lon": 46.4762783, "tags": {"is_in:country": "Armenia", "is_in:country_code": "AM", "is_in:municipality": "\u053f\u0561\u057a\u0561\u0576\u056b \u0570\u0561\u0574\u0561\u0575\u0576\u0584", "is_in:region": "\u054d\u0575\u0578\u0582\u0576\u056b\u0584\u056b \u0574\u0561\u0580\u0566", "name": "\u0532\u0561\u0580\u0563\u0578\u0582\u0577\u0561\u057f", "name:en": "Bargushat", "name:hy": "\u0532\u0561\u0580\u0563\u0578\u0582\u0577\u0561\u057f", "name:ru": "\u0411\u0430\u0440\u0433\u0443\u0448\u0430\u0442", "place": "village", "population": "50", "population:date": "2022-01-01", "source:population": "Armstat", "wikidata": "Q4860614", "wikipedia": "en:Bargushat"}}, {"type": "node", "id": 928504712, "lat": 39.2049077, "lon": 46.4665076, "tags": {"is_in:country": "Armenia", "is_in:country_code": "AM", "is_in:municipality": "\u053f\u0561\u057a\u0561\u0576\u056b \u0570\u0561\u0574\u0561\u0575\u0576\u0584", "is_in:region": "\u054d\u0575\u0578\u0582\u0576\u056b\u0584\u056b \u0574\u0561\u0580\u0566", "name": "\u054d\u0575\u0578\u0582\u0576\u056b\u0584", "name:en": "Syunik", "name:hy": "\u054d\u0575\u0578\u0582\u0576\u056b\u0584", "name:ru": "\u0421\u044e\u043d\u0438\u043a", "name:tr": "S\u00fcnik", "place": "village", "population": "587", "population:date": "2022-01-01", "source:population": "Armstat", "wikidata": "Q2074319", "wikipedia": "en:Syunik (village)"}}, {"type": "node", "id": 928516991, "lat": 39.06579, "lon": 46.168551, "tags": {"is_in:country": "Armenia", "is_in:country_code": "AM", "is_in:municipality": "\u0544\u0565\u0572\u0580\u0578\u0582 \u0570\u0561\u0574\u0561\u0575\u0576\u0584", "is_in:region": "\u054d\u0575\u0578\u0582\u0576\u056b\u0584\u056b \u0574\u0561\u0580\u0566", "name": "\u054f\u0561\u0577\u057f\u0578\u0582\u0576", "name:en": "Tashtun", "name:hy": "\u054f\u0561\u0577\u057f\u0578\u0582\u0576", "name:ru": "\u0422\u0430\u0448\u0442\u0443\u043d", "place": "village", "population": "104", "population:date": "2022-01-01", "source:population": "Armstat", "wikidata": "Q2223993", "wikipedia": "en:Tashtun"}}, {"type": "node", "id": 928516992, "lat": 38.9879955, "lon": 46.2091252, "tags": {"is_in:country": "Armenia", "is_in:country_code": "AM", "is_in:municipality": "\u0544\u0565\u0572\u0580\u0578\u0582 \u0570\u0561\u0574\u0561\u0575\u0576\u0584", "is_in:region": "\u054d\u0575\u0578\u0582\u0576\u056b\u0584\u056b \u0574\u0561\u0580\u0566", "name": "\u0539\u056d\u056f\u0578\u0582\u057f", "name:en": "Tkhkut", "name:hy": "\u0539\u056d\u056f\u0578\u0582\u057f", "name:ru": "\u0422\u0445\u043a\u0443\u0442", "place": "village", "population": "32", "population:date": "2022-01-01", "source:population": "Armstat", "wikidata": "Q7810672", "wikipedia": "en:Tkhkut"}}, {"type": "node", "id": 928516993, "lat": 38.951043, "lon": 46.17516, "tags": {"is_in:country": "Armenia", "is_in:country_code": "AM", "is_in:municipality": "\u0544\u0565\u0572\u0580\u0578\u0582 \u0570\u0561\u0574\u0561\u0575\u0576\u0584", "is_in:region": "\u054d\u0575\u0578\u0582\u0576\u056b\u0584\u056b \u0574\u0561\u0580\u0566", "name": "\u054e\u0561\u0570\u0580\u0561\u057e\u0561\u0580", "name:en": "Vahravar", "name:hy": "\u054e\u0561\u0570\u0580\u0561\u057e\u0561\u0580", "name:ru": "\u0412\u0430\u0433\u0440\u0430\u0432\u0430\u0440", "place": "village", "population": "17", "population:date": "2022-01-01", "source:population": "Armstat", "wikidata": "Q2224223", "wikipedia": "en:Vahravar"}}, {"type": "node", "id": 928516996, "lat": 38.9784803, "lon": 46.2079196, "tags": {"is_in:country": "Armenia", "is_in:country_code": "AM", "is_in:municipality": "\u0544\u0565\u0572\u0580\u0578\u0582 \u0570\u0561\u0574\u0561\u0575\u0576\u0584", "is_in:region": "\u054d\u0575\u0578\u0582\u0576\u056b\u0584\u056b \u0574\u0561\u0580\u0566", "name": "\u0531\u0575\u0563\u0565\u0571\u0578\u0580", "name:en": "Aygedzor", "name:hy": "\u0531\u0575\u0563\u0565\u0571\u0578\u0580", "name:ru": "\u0410\u0439\u0433\u0435\u0434\u0437\u043e\u0440", "place": "village", "population": "0", "population:date": "2022-01-01", "source:population": "Armstat", "wikidata": "Q4831227", "wikipedia": "en:Aygedzor, Syunik"}}, {"type": "node", "id": 928516998, "lat": 38.932959, "lon": 46.17907, "tags": {"is_in:country": "Armenia", "is_in:country_code": "AM", "is_in:municipality": "\u0544\u0565\u0572\u0580\u0578\u0582 \u0570\u0561\u0574\u0561\u0575\u0576\u0584", "is_in:region": "\u054d\u0575\u0578\u0582\u0576\u056b\u0584\u056b \u0574\u0561\u0580\u0566", "name": "\u053f\u0578\u0582\u0580\u056b\u057d", "name:en": "Kuris", "name:hy": "\u053f\u0578\u0582\u0580\u056b\u057d", "name:ru": "\u041a\u0443\u0440\u0438\u0441", "place": "village", "population": "29", "population:date": "2022-01-01", "source:population": "Armstat", "wikidata": "Q2224237", "wikipedia": "en:Kuris, Armenia"}}, {"type": "node", "id": 928516999, "lat": 39.055809, "lon": 46.173837, "tags": {"is_in:country": "Armenia", "is_in:country_code": "AM", "is_in:municipality": "\u0544\u0565\u0572\u0580\u0578\u0582 \u0570\u0561\u0574\u0561\u0575\u0576\u0584", "is_in:region": "\u054d\u0575\u0578\u0582\u0576\u056b\u0584\u056b \u0574\u0561\u0580\u0566", "name": "\u053c\u056b\u0573\u0584", "name:en": "Lichk", "name:hy": "\u053c\u056b\u0579\u0584", "name:ru": "\u041b\u0438\u0447\u043a", "place": "village", "population": "94", "population:date": "2022-01-01", "source:population": "Armstat", "wikidata": "Q2640083", "wikipedia": "en:Lichk, Syunik"}}, {"type": "node", "id": 928517001, "lat": 38.9704649, "lon": 46.2154877, "tags": {"is_in:country": "Armenia", "is_in:country_code": "AM", "is_in:municipality": "\u0544\u0565\u0572\u0580\u0578\u0582 \u0570\u0561\u0574\u0561\u0575\u0576\u0584", "is_in:region": "\u054d\u0575\u0578\u0582\u0576\u056b\u0584\u056b \u0574\u0561\u0580\u0566", "name": "\u054e\u0561\u0580\u0564\u0561\u0576\u056b\u0571\u0578\u0580", "name:en": "Vardanidzor", "name:hy": "\u054e\u0561\u0580\u0564\u0561\u0576\u056b\u0571\u0578\u0580", "name:ru": "\u0412\u0430\u0440\u0434\u0430\u043d\u0438\u0434\u0437\u043e\u0440", "place": "village", "population": "192", "population:date": "2022-01-01", "source:population": "Armstat", "wikidata": "Q2224213", "wikipedia": "en:Vardanidzor"}}, {"type": "node", "id": 928517006, "lat": 38.93959, "lon": 46.21508, "tags": {"is_in:country": "Armenia", "is_in:country_code": "AM", "is_in:municipality": "\u0544\u0565\u0572\u0580\u0578\u0582 \u0570\u0561\u0574\u0561\u0575\u0576\u0584", "is_in:region": "\u054d\u0575\u0578\u0582\u0576\u056b\u0584\u056b \u0574\u0561\u0580\u0566", "name": "\u053c\u0565\u0570\u057e\u0561\u0566", "name:en": "Lehvaz", "name:hy": "\u053c\u0565\u0570\u057e\u0561\u0566", "name:ru": "\u041b\u0435\u0433\u0432\u0430\u0437", "place": "village", "population": "523", "population:date": "2022-01-01", "source:population": "Armstat", "wikidata": "Q2701464", "wikipedia": "en:Lehvaz"}}, {"type": "node", "id": 928517009, "lat": 38.896143, "lon": 46.18423, "tags": {"is_in:country": "Armenia", "is_in:country_code": "AM", "is_in:municipality": "\u0544\u0565\u0572\u0580\u0578\u0582 \u0570\u0561\u0574\u0561\u0575\u0576\u0584", "is_in:region": "\u054d\u0575\u0578\u0582\u0576\u056b\u0584\u056b \u0574\u0561\u0580\u0566", "name": "\u053f\u0561\u0580\u0573\u0587\u0561\u0576", "name:az": "K\u0259r\u00e7ivan", "name:en": "Karchevan", "name:hy": "\u053f\u0561\u0580\u0573\u0587\u0561\u0576", "name:ru": "\u041a\u0430\u0440\u0447\u0435\u0432\u0430\u043d", "place": "village", "population": "217", "population:date": "2022-01-01", "source:population": "Armstat", "wikidata": "Q2224094", "wikipedia": "en:Karchevan"}}, {"type": "node", "id": 928517012, "lat": 38.939796, "lon": 46.177889, "tags": {"is_in:country": "Armenia", "is_in:country_code": "AM", "is_in:municipality": "\u0544\u0565\u0572\u0580\u0578\u0582 \u0570\u0561\u0574\u0561\u0575\u0576\u0584", "is_in:region": "\u054d\u0575\u0578\u0582\u0576\u056b\u0584\u056b \u0574\u0561\u0580\u0566", "name": "\u0533\u0578\u0582\u0564\u0565\u0574\u0576\u056b\u057d", "name:en": "Gudemnis", "name:hy": "\u0533\u0578\u0582\u0564\u0565\u0574\u0576\u056b\u057d", "name:ru": "\u0413\u0443\u0434\u0435\u043c\u043d\u0438\u0441", "place": "village", "population": "14", "population:date": "2022-01-01", "source:population": "Armstat", "wikidata": "Q957261", "wikipedia": "en:Gudemnis"}}, {"type": "node", "id": 1369344220, "lat": 38.9159414, "lon": 46.4410633, "tags": {"is_in:country": "Armenia", "is_in:country_code": "AM", "is_in:municipality": "\u0544\u0565\u0572\u0580\u0578\u0582 \u0570\u0561\u0574\u0561\u0575\u0576\u0584", "is_in:region": "\u054d\u0575\u0578\u0582\u0576\u056b\u0584\u056b \u0574\u0561\u0580\u0566", "name": "\u0546\u057c\u0576\u0561\u0571\u0578\u0580", "name:en": "Nrnadzor", "name:hy": "\u0546\u057c\u0576\u0561\u0571\u0578\u0580", "name:ru": "\u041d\u0440\u043d\u0430\u0434\u0437\u043e\u0440", "place": "village", "population": "120", "population:date": "2022-01-01", "source:population": "Armstat", "wikidata": "Q2702255", "wikipedia": "en:Nrnadzor"}}, {"type": "node", "id": 1369421093, "lat": 39.0576947, "lon": 46.522368, "tags": {"is_in:country": "Armenia", "is_in:country_code": "AM", "is_in:municipality": "\u053f\u0561\u057a\u0561\u0576\u056b \u0570\u0561\u0574\u0561\u0575\u0576\u0584", "is_in:region": "\u054d\u0575\u0578\u0582\u0576\u056b\u0584\u056b \u0574\u0561\u0580\u0566", "name": "\u0546\u0565\u0580\u0584\u056b\u0576 \u0540\u0561\u0576\u0564", "name:en": "Nerqin Hand", "name:hy": "\u0546\u0565\u0580\u0584\u056b\u0576 \u0540\u0561\u0576\u0564", "name:ru": "\u041d\u0435\u0440\u043a\u0438\u043d \u0410\u043d\u0434", "place": "village", "population": "94", "population:date": "2022-01-01", "source:population": "Armstat", "wikidata": "Q2224081", "wikipedia": "en:Nerkin Hand"}}, {"type": "node", "id": 1369421094, "lat": 39.1474199, "lon": 46.4401078, "tags": {"is_in:country": "Armenia", "is_in:country_code": "AM", "is_in:municipality": "\u053f\u0561\u057a\u0561\u0576\u056b \u0570\u0561\u0574\u0561\u0575\u0576\u0584", "is_in:region": "\u054d\u0575\u0578\u0582\u0576\u056b\u0584\u056b \u0574\u0561\u0580\u0566", "name": "\u0543\u0561\u056f\u0561\u057f\u0565\u0576", "name:en": "Chakaten", "name:hy": "\u0543\u0561\u056f\u0561\u057f\u0565\u0576", "name:ru": "\u0427\u0430\u043a\u0430\u0442\u0435\u043d", "place": "village", "population": "167", "population:date": "2022-01-01", "source:population": "Armstat", "wikidata": "Q2224263", "wikipedia": "en:Chakaten"}}, {"type": "node", "id": 1369421096, "lat": 39.183369, "lon": 46.4122436, "tags": {"is_in:country": "Armenia", "is_in:country_code": "AM", "is_in:municipality": "\u053f\u0561\u057a\u0561\u0576\u056b \u0570\u0561\u0574\u0561\u0575\u0576\u0584", "is_in:region": "\u054d\u0575\u0578\u0582\u0576\u056b\u0584\u056b \u0574\u0561\u0580\u0566", "name": "\u0533\u0578\u0574\u0561\u0580\u0561\u0576", "name:en": "Gomaran", "name:hy": "\u0533\u0578\u0574\u0561\u0580\u0561\u0576", "name:ru": "\u0413\u043e\u043c\u0430\u0440\u0430\u043d", "place": "village", "population": "42", "population:date": "2022-01-01", "source:population": "Armstat", "wikidata": "Q5581093", "wikipedia": "en:Gomaran"}}, {"type": "node", "id": 1369421097, "lat": 39.0523363, "lon": 46.4580556, "tags": {"is_in:country": "Armenia", "is_in:country_code": "AM", "is_in:municipality": "\u053f\u0561\u057a\u0561\u0576\u056b \u0570\u0561\u0574\u0561\u0575\u0576\u0584", "is_in:region": "\u054d\u0575\u0578\u0582\u0576\u056b\u0584\u056b \u0574\u0561\u0580\u0566", "name": "\u053e\u0561\u057e", "name:en": "Tsav", "name:hy": "\u053e\u0561\u057e", "name:ru": "\u0426\u0430\u0432", "place": "village", "population": "311", "population:date": "2022-01-01", "source:population": "Armstat", "wikidata": "Q2224114", "wikipedia": "en:Tsav, Armenia"}}, {"type": "node", "id": 1369421098, "lat": 39.0723517, "lon": 46.3487233, "tags": {"is_in:country": "Armenia", "is_in:country_code": "AM", "is_in:municipality": "\u053f\u0561\u057a\u0561\u0576\u056b \u0570\u0561\u0574\u0561\u0575\u0576\u0584", "is_in:region": "\u054d\u0575\u0578\u0582\u0576\u056b\u0584\u056b \u0574\u0561\u0580\u0566", "name": "\u0547\u056b\u0577\u056f\u0565\u0580\u057f", "name:en": "Shishkert", "name:hy": "\u0547\u056b\u0577\u056f\u0565\u0580\u057f", "name:ru": "\u0428\u0438\u0448\u043a\u0435\u0440\u0442", "place": "village", "population": "37", "population:date": "2022-01-01", "source:population": "Armstat", "wikidata": "Q7499089", "wikipedia": "en:Shishkert"}}, {"type": "node", "id": 1369421101, "lat": 39.0786466, "lon": 46.4995408, "tags": {"is_in:country": "Armenia", "is_in:country_code": "AM", "is_in:municipality": "\u053f\u0561\u057a\u0561\u0576\u056b \u0570\u0561\u0574\u0561\u0575\u0576\u0584", "is_in:region": "\u054d\u0575\u0578\u0582\u0576\u056b\u0584\u056b \u0574\u0561\u0580\u0566", "name": "\u054d\u0580\u0561\u0577\u0565\u0576", "name:en": "Srashen", "name:hy": "\u054d\u0580\u0561\u0577\u0565\u0576", "name:ru": "\u0421\u0440\u0430\u0448\u0435\u043d", "place": "village", "population": "88", "population:date": "2022-01-01", "source:population": "Armstat", "wikidata": "Q768260", "wikipedia": "en:Srashen"}}, {"type": "node", "id": 1369421103, "lat": 39.1718355, "lon": 46.419083, "tags": {"is_in:country": "Armenia", "is_in:country_code": "AM", "is_in:municipality": "\u053f\u0561\u057a\u0561\u0576\u056b \u0570\u0561\u0574\u0561\u0575\u0576\u0584", "is_in:region": "\u054d\u0575\u0578\u0582\u0576\u056b\u0584\u056b \u0574\u0561\u0580\u0566", "name": "\u0533\u0565\u0572\u0561\u0576\u0578\u0582\u0577", "name:en": "Geghanush", "name:hy": "\u0533\u0565\u0572\u0561\u0576\u0578\u0582\u0577", "name:ru": "\u0413\u0435\u0445\u0430\u043d\u0443\u0448", "place": "village", "population": "280", "population:date": "2022-01-01", "source:population": "Armstat", "wikidata": "Q2224063", "wikipedia": "en:Geghanush"}}, {"type": "node", "id": 1369421106, "lat": 39.0965598, "lon": 46.4736453, "tags": {"is_in:country": "Armenia", "is_in:country_code": "AM", "is_in:municipality": "\u053f\u0561\u057a\u0561\u0576\u056b \u0570\u0561\u0574\u0561\u0575\u0576\u0584", "is_in:region": "\u054d\u0575\u0578\u0582\u0576\u056b\u0584\u056b \u0574\u0561\u0580\u0566", "name": "\u0547\u056b\u056f\u0561\u0570\u0578\u0572", "name:en": "Shikahogh", "name:hy": "\u0547\u056b\u056f\u0561\u0570\u0578\u0572", "name:ru": "\u0428\u0438\u043a\u0430\u043e\u0445", "place": "village", "population": "213", "population:date": "2022-01-01", "source:population": "Armstat", "wikidata": "Q2223978", "wikipedia": "en:Shikahogh"}}, {"type": "node", "id": 1370377931, "lat": 39.208345, "lon": 46.5399695, "tags": {"is_in:country": "Armenia", "is_in:country_code": "AM", "is_in:municipality": "\u053f\u0561\u057a\u0561\u0576\u056b \u0570\u0561\u0574\u0561\u0575\u0576\u0584", "is_in:region": "\u054d\u0575\u0578\u0582\u0576\u056b\u0584\u056b \u0574\u0561\u0580\u0566", "name": "\u0531\u0563\u0561\u0580\u0561\u056f", "name:en": "Agarak", "name:hy": "\u0531\u0563\u0561\u0580\u0561\u056f", "name:ru": "\u0410\u0433\u0430\u0440\u0430\u043a", "place": "village", "population": "168", "population:date": "2022-01-01", "source:population": "Armstat", "wikidata": "Q2059513", "wikipedia": "en:Agarak, Kapan"}}, {"type": "node", "id": 1370377955, "lat": 39.2038693, "lon": 46.4802925, "tags": {"is_in:country": "Armenia", "is_in:country_code": "AM", "is_in:municipality": "\u053f\u0561\u057a\u0561\u0576\u056b \u0570\u0561\u0574\u0561\u0575\u0576\u0584", "is_in:region": "\u054d\u0575\u0578\u0582\u0576\u056b\u0584\u056b \u0574\u0561\u0580\u0566", "name": "\u054d\u0566\u0576\u0561\u056f", "name:en": "Sznak", "name:hy": "\u054d\u0566\u0576\u0561\u056f", "name:ru": "\u0421\u0437\u043d\u0430\u043a", "place": "village", "population": "99", "population:date": "2022-01-01", "source:population": "Armstat", "wikidata": "Q7664781", "wikipedia": "en:Sznak"}}, {"type": "node", "id": 1370377965, "lat": 39.2062334, "lon": 46.4969998, "tags": {"is_in:country": "Armenia", "is_in:country_code": "AM", "is_in:municipality": "\u053f\u0561\u057a\u0561\u0576\u056b \u0570\u0561\u0574\u0561\u0575\u0576\u0584", "is_in:region": "\u054d\u0575\u0578\u0582\u0576\u056b\u0584\u056b \u0574\u0561\u0580\u0566", "name": "\u0534\u056b\u0581\u0574\u0561\u0575\u0580\u056b", "name:en": "Ditsmayri", "name:hy": "\u0534\u056b\u0581\u0574\u0561\u0575\u0580\u056b", "name:ru": "\u0414\u0438\u0446\u043c\u0430\u0439\u0440\u0438", "place": "village", "population": "45", "population:date": "2022-01-01", "source:population": "Armstat", "wikidata": "Q5283707", "wikipedia": "en:Ditsmayri"}}, {"type": "node", "id": 1370377968, "lat": 39.2260357, "lon": 46.559099, "tags": {"is_in:country": "Armenia", "is_in:country_code": "AM", "is_in:municipality": "\u053f\u0561\u057a\u0561\u0576\u056b \u0570\u0561\u0574\u0561\u0575\u0576\u0584", "is_in:region": "\u054d\u0575\u0578\u0582\u0576\u056b\u0584\u056b \u0574\u0561\u0580\u0566", "name": "\u0535\u0572\u057e\u0561\u0580\u0564", "name:en": "Yeghvard", "name:hy": "\u0535\u0572\u057e\u0561\u0580\u0564", "name:ru": "\u0415\u0433\u0432\u0430\u0440\u0434", "place": "village", "population": "261", "population:date": "2022-01-01", "source:population": "Armstat", "wikidata": "Q3049186", "wikipedia": "en:Yeghvard, Syunik"}}, {"type": "node", "id": 1376930293, "lat": 39.1270123, "lon": 46.2258017, "tags": {"is_in:country": "Armenia", "is_in:country_code": "AM", "is_in:municipality": "\u0554\u0561\u057b\u0561\u0580\u0561\u0576\u056b \u0570\u0561\u0574\u0561\u0575\u0576\u0584", "is_in:region": "\u054d\u0575\u0578\u0582\u0576\u056b\u0584\u056b \u0574\u0561\u0580\u0566", "name": "\u0553\u0578\u0582\u056d\u0580\u0578\u0582\u057f", "name:en": "Pukhrut", "name:hy": "\u0553\u0578\u0582\u056d\u0580\u0578\u0582\u057f", "name:ru": "\u041f\u0443\u0445\u0440\u0443\u0442", "place": "village", "population": "12", "population:date": "2022-01-01", "source:population": "Armstat", "wikidata": "Q7200187", "wikipedia": "en:Pukhrut"}}, {"type": "node", "id": 1376930303, "lat": 39.2213689, "lon": 46.1549951, "tags": {"is_in:country": "Armenia", "is_in:country_code": "AM", "is_in:municipality": "\u0554\u0561\u057b\u0561\u0580\u0561\u0576\u056b \u0570\u0561\u0574\u0561\u0575\u0576\u0584", "is_in:region": "\u054d\u0575\u0578\u0582\u0576\u056b\u0584\u056b \u0574\u0561\u0580\u0566", "name": "\u0533\u0565\u0572\u056b", "name:en": "Geghi", "name:hy": "\u0533\u0565\u0572\u056b", "name:ru": "\u0413\u0435\u0445\u0438", "place": "village", "population": "119", "population:date": "2022-01-01", "source:population": "Armstat", "wikidata": "Q2762765", "wikipedia": "en:Geghi"}}, {"type": "node", "id": 1376930349, "lat": 39.2096187, "lon": 46.2736012, "tags": {"is_in:country": "Armenia", "is_in:country_code": "AM", "is_in:municipality": "\u0554\u0561\u057b\u0561\u0580\u0561\u0576\u056b \u0570\u0561\u0574\u0561\u0575\u0576\u0584", "is_in:region": "\u054d\u0575\u0578\u0582\u0576\u056b\u0584\u056b \u0574\u0561\u0580\u0566", "name": "\u0531\u0576\u0564\u0578\u056f\u0561\u057e\u0561\u0576", "name:en": "Andokavan", "name:hy": "\u0531\u0576\u0564\u0578\u056f\u0561\u057e\u0561\u0576", "name:ru": "\u0410\u043d\u0434\u043e\u043a\u0430\u0432\u0430\u043d", "place": "village", "population": "91", "population:date": "2022-01-01", "source:population": "Armstat", "wikidata": "Q48861645", "wikipedia": "en:Andokavan"}}, {"type": "node", "id": 1376930355, "lat": 39.1572394, "lon": 46.2017117, "tags": {"is_in:country": "Armenia", "is_in:country_code": "AM", "is_in:municipality": "\u0554\u0561\u057b\u0561\u0580\u0561\u0576\u056b \u0570\u0561\u0574\u0561\u0575\u0576\u0584", "is_in:region": "\u054d\u0575\u0578\u0582\u0576\u056b\u0584\u056b \u0574\u0561\u0580\u0566", "name": "\u053c\u0565\u057c\u0576\u0561\u0571\u0578\u0580", "name:en": "Lernadzor", "name:hy": "\u053c\u0565\u057c\u0576\u0561\u0571\u0578\u0580", "name:ru": "\u041b\u0435\u0440\u043d\u0430\u0434\u0437\u043e\u0440", "place": "village", "population": "333", "population:date": "2022-01-01", "source:population": "Armstat", "wikidata": "Q2224194", "wikipedia": "en:Lernadzor"}}, {"type": "node", "id": 1376930363, "lat": 39.2259896, "lon": 46.1285947, "tags": {"is_in:country": "Armenia", "is_in:country_code": "AM", "is_in:municipality": "\u0554\u0561\u057b\u0561\u0580\u0561\u0576\u056b \u0570\u0561\u0574\u0561\u0575\u0576\u0584", "is_in:region": "\u054d\u0575\u0578\u0582\u0576\u056b\u0584\u056b \u0574\u0561\u0580\u0566", "name": "\u0533\u0565\u057f\u056b\u0577\u0565\u0576", "name:en": "Getishen", "name:hy": "\u0533\u0565\u057f\u056b\u0577\u0565\u0576", "name:ru": "\u0413\u0435\u0442\u0438\u0448\u0435\u043d", "place": "village", "population": "60", "population:date": "2022-01-01", "source:population": "Armstat", "wikidata": "Q5554482", "wikipedia": "en:Getishen"}}, {"type": "node", "id": 1376930368, "lat": 39.2117106, "lon": 46.2415596, "tags": {"is_in:country": "Armenia", "is_in:country_code": "AM", "is_in:municipality": "\u0554\u0561\u057b\u0561\u0580\u0561\u0576\u056b \u0570\u0561\u0574\u0561\u0575\u0576\u0584", "is_in:region": "\u054d\u0575\u0578\u0582\u0576\u056b\u0584\u056b \u0574\u0561\u0580\u0566", "name": "\u053f\u0561\u057e\u0573\u0578\u0582\u057f", "name:en": "Kavtchut", "name:hy": "\u053f\u0561\u057e\u0573\u0578\u0582\u057f", "name:ru": "\u041a\u0430\u0432\u0447\u0443\u0442", "place": "village", "population": "55", "population:date": "2022-01-01", "source:population": "Armstat", "wikidata": "Q6379156", "wikipedia": "en:Kavchut"}}, {"type": "node", "id": 1376930382, "lat": 39.2228851, "lon": 46.1838978, "tags": {"is_in:country": "Armenia", "is_in:country_code": "AM", "is_in:municipality": "\u0554\u0561\u057b\u0561\u0580\u0561\u0576\u056b \u0570\u0561\u0574\u0561\u0575\u0576\u0584", "is_in:region": "\u054d\u0575\u0578\u0582\u0576\u056b\u0584\u056b \u0574\u0561\u0580\u0566", "name": "\u054e\u0565\u0580\u056b\u0576 \u0533\u0565\u0572\u0561\u057e\u0561\u0576\u0584", "name:en": "Verin Geghavanq", "name:hy": "\u054e\u0565\u0580\u056b\u0576 \u0533\u0565\u0572\u0561\u057e\u0561\u0576\u0584", "name:ru": "\u0412\u0435\u0440\u0438\u043d \u0413\u0435\u0445\u0430\u0432\u0430\u043d\u043a", "place": "village", "population": "0", "population:date": "2022-01-01", "source:population": "Armstat", "wikidata": "Q7198046", "wikipedia": "en:Verin Geghavank"}}, {"type": "node", "id": 1376930400, "lat": 39.136623, "lon": 46.2065207, "tags": {"is_in:country": "Armenia", "is_in:country_code": "AM", "is_in:municipality": "\u0554\u0561\u057b\u0561\u0580\u0561\u0576\u056b \u0570\u0561\u0574\u0561\u0575\u0576\u0584", "is_in:region": "\u054d\u0575\u0578\u0582\u0576\u056b\u0584\u056b \u0574\u0561\u0580\u0566", "name": "\u053f\u0561\u0569\u0576\u0561\u057c\u0561\u057f", "name:en": "Katnarat", "name:hy": "\u053f\u0561\u0569\u0576\u0561\u057c\u0561\u057f", "name:ru": "\u041a\u0430\u0442\u043d\u0430\u0440\u0430\u0442", "place": "village", "population": "19", "population:date": "2022-01-01", "source:population": "Armstat", "wikidata": "Q6377710", "wikipedia": "en:Katnarat, Syunik"}}, {"type": "node", "id": 1376930407, "lat": 39.2397253, "lon": 46.2648885, "tags": {"is_in:country": "Armenia", "is_in:country_code": "AM", "is_in:municipality": "\u0554\u0561\u057b\u0561\u0580\u0561\u0576\u056b \u0570\u0561\u0574\u0561\u0575\u0576\u0584", "is_in:region": "\u054d\u0575\u0578\u0582\u0576\u056b\u0584\u056b \u0574\u0561\u0580\u0566", "name": "\u054e\u0565\u0580\u056b\u0576 \u0533\u056b\u0580\u0561\u0569\u0561\u0572", "name:en": "Verin Giratagh", "name:hy": "\u054e\u0565\u0580\u056b\u0576 \u0533\u056b\u0580\u0561\u0569\u0561\u0572", "name:ru": "\u0412\u0435\u0440\u0438\u043d \u0413\u0438\u0440\u0430\u0442\u0430\u0445", "place": "village", "population": "0", "population:date": "2022-01-01", "source:population": "Armstat", "wikidata": "Q7921355", "wikipedia": "en:Verin Giratagh"}}, {"type": "node", "id": 1376930428, "lat": 39.2231568, "lon": 46.2698708, "tags": {"is_in:country": "Armenia", "is_in:country_code": "AM", "is_in:municipality": "\u0554\u0561\u057b\u0561\u0580\u0561\u0576\u056b \u0570\u0561\u0574\u0561\u0575\u0576\u0584", "is_in:region": "\u054d\u0575\u0578\u0582\u0576\u056b\u0584\u056b \u0574\u0561\u0580\u0566", "name": "\u0546\u0565\u0580\u0584\u056b\u0576 \u0533\u056b\u0580\u0561\u0569\u0561\u0572", "name:en": "Nerkin Giratagh", "name:hy": "\u0546\u0565\u0580\u0584\u056b\u0576 \u0533\u056b\u0580\u0561\u0569\u0561\u0572", "name:ru": "\u041d\u0435\u0440\u043a\u0438\u043d \u0413\u0438\u0440\u0430\u0442\u0430\u0445", "place": "village", "population": "0", "population:date": "2022-01-01", "source:population": "Armstat", "wikidata": "Q10950626", "wikipedia": "en:Nerkin Giratagh"}}, {"type": "node", "id": 1376930434, "lat": 39.2193602, "lon": 46.1332522, "tags": {"is_in:country": "Armenia", "is_in:country_code": "AM", "is_in:municipality": "\u0554\u0561\u057b\u0561\u0580\u0561\u0576\u056b \u0570\u0561\u0574\u0561\u0575\u0576\u0584", "is_in:region": "\u054d\u0575\u0578\u0582\u0576\u056b\u0584\u056b \u0574\u0561\u0580\u0566", "name": "\u0548\u0579\u0565\u0569\u056b", "name:en": "Vocheti", "name:hy": "\u0548\u0579\u0565\u0569\u056b", "name:ru": "\u0412\u043e\u0447\u0435\u0442\u0438", "place": "village", "population": "0", "population:date": "2022-01-01", "source:population": "Armstat", "wikidata": "Q7939254", "wikipedia": "en:Vocheti"}}, {"type": "node", "id": 1876507890, "lat": 39.1495063, "lon": 46.154343}, {"type": "node", "id": 1876507893, "lat": 39.1554141, "lon": 46.131707}, {"type": "node", "id": 1876507895, "lat": 39.1492807, "lon": 46.1594407}, {"type": "node", "id": 1876507896, "lat": 39.1480773, "lon": 46.1600377}, {"type": "node", "id": 1876507897, "lat": 39.1496108, "lon": 46.1730918}, {"type": "node", "id": 1876507898, "lat": 39.1508072, "lon": 46.1693327}, {"type": "node", "id": 1876507899, "lat": 39.1570851, "lon": 46.1216798}, {"type": "node", "id": 1876507900, "lat": 39.1528623, "lon": 46.1530958}, {"type": "node", "id": 1876507901, "lat": 39.1522022, "lon": 46.1628588}, {"type": "node", "id": 1876507902, "lat": 39.1585906, "lon": 46.1292032}, {"type": "node", "id": 1876507910, "lat": 39.1612607, "lon": 46.1175516}, {"type": "node", "id": 1882609028, "lat": 38.8909857, "lon": 46.2500314}, {"type": "node", "id": 1882609031, "lat": 38.8904889, "lon": 46.2583571}, {"type": "node", "id": 1882609034, "lat": 38.9030915, "lon": 46.2374407}, {"type": "node", "id": 1882609036, "lat": 38.9116368, "lon": 46.2398877}, {"type": "node", "id": 1970543796, "lat": 39.1478129, "lon": 46.1650751}, {"type": "node", "id": 1970543798, "lat": 39.1490144, "lon": 46.1671916}, {"type": "node", "id": 1970543806, "lat": 39.1496925, "lon": 46.1534495}, {"type": "node", "id": 1970543807, "lat": 39.1499607, "lon": 46.1480682}, {"type": "node", "id": 1970543808, "lat": 39.1503447, "lon": 46.1724899}, {"type": "node", "id": 1970543814, "lat": 39.1505722, "lon": 46.1423134}, {"type": "node", "id": 1970543816, "lat": 39.1507416, "lon": 46.1672608}, {"type": "node", "id": 1970543838, "lat": 39.1553222, "lon": 46.1281394}, {"type": "node", "id": 1970543847, "lat": 39.1586958, "lon": 46.1180034}, {"type": "node", "id": 2622876221, "lat": 38.9039852, "lon": 46.2552174}, {"type": "node", "id": 2622876222, "lat": 38.9071244, "lon": 46.2548097}, {"type": "node", "id": 2622876223, "lat": 38.9042232, "lon": 46.2500157}, {"type": "node", "id": 2622876224, "lat": 38.9092492, "lon": 46.242763}, {"type": "node", "id": 2622876225, "lat": 38.9075293, "lon": 46.2448873}, {"type": "node", "id": 2622876226, "lat": 38.9055089, "lon": 46.2460246}, {"type": "node", "id": 2622876227, "lat": 38.9073791, "lon": 46.2477841}, {"type": "node", "id": 2622876229, "lat": 38.899631, "lon": 46.238214}, {"type": "node", "id": 2622876231, "lat": 38.8942369, "lon": 46.2434497}, {"type": "node", "id": 2776765343, "lat": 38.9016912, "lon": 46.276858}, {"type": "node", "id": 2831001092, "lat": 39.2002893, "lon": 46.4474658}, {"type": "node", "id": 2848752250, "lat": 39.2011326, "lon": 46.4529701}, {"type": "node", "id": 2848752251, "lat": 39.2005842, "lon": 46.4634649}, {"type": "node", "id": 2848752252, "lat": 39.2001771, "lon": 46.464762}, {"type": "node", "id": 2848752253, "lat": 39.2005389, "lon": 46.4547708}, {"type": "node", "id": 2848752254, "lat": 39.2003403, "lon": 46.4599502}, {"type": "node", "id": 2848752255, "lat": 39.200736, "lon": 46.4493349}, {"type": "node", "id": 2848752256, "lat": 39.2003676, "lon": 46.4626831}, {"type": "node", "id": 2848752257, "lat": 39.2008627, "lon": 46.4485967}, {"type": "node", "id": 2848752258, "lat": 39.2011152, "lon": 46.4531409}, {"type": "node", "id": 2933556459, "lat": 38.9171105, "lon": 46.2319139}, {"type": "node", "id": 3450728778, "lat": 38.8459672, "lon": 46.2079842}, {"type": "node", "id": 3450728779, "lat": 38.8460597, "lon": 46.2086455}, {"type": "node", "id": 3450728780, "lat": 38.8464294, "lon": 46.2075433}, {"type": "node", "id": 3450728781, "lat": 38.8464955, "lon": 46.2087302}, {"type": "node", "id": 3450728782, "lat": 38.8466936, "lon": 46.2095272}, {"type": "node", "id": 3450728783, "lat": 38.8468124, "lon": 46.2075264}, {"type": "node", "id": 3450728784, "lat": 38.8472746, "lon": 46.2112397}, {"type": "node", "id": 3450728785, "lat": 38.8473935, "lon": 46.2091033}, {"type": "node", "id": 3450728786, "lat": 38.8472954, "lon": 46.2119542}, {"type": "node", "id": 3450728787, "lat": 38.8475387, "lon": 46.2096628}, {"type": "node", "id": 3450728791, "lat": 38.8482782, "lon": 46.1966746}, {"type": "node", "id": 3450729654, "lat": 38.8490819, "lon": 46.2053323}, {"type": "node", "id": 3450729656, "lat": 38.8491193, "lon": 46.2059497}, {"type": "node", "id": 3450729659, "lat": 38.849138, "lon": 46.2043251}, {"type": "node", "id": 3450729675, "lat": 38.8496516, "lon": 46.2100698}, {"type": "node", "id": 3450729676, "lat": 38.8483504, "lon": 46.212065}, {"type": "node", "id": 3450729677, "lat": 38.8497636, "lon": 46.2014896}, {"type": "node", "id": 3450729678, "lat": 38.8498336, "lon": 46.2069389}, {"type": "node", "id": 3450729679, "lat": 38.8498476, "lon": 46.2058778}, {"type": "node", "id": 3450729682, "lat": 38.8501011, "lon": 46.2074644}, {"type": "node", "id": 3450729683, "lat": 38.8504872, "lon": 46.2077602}, {"type": "node", "id": 3450729684, "lat": 38.850828, "lon": 46.2017294}, {"type": "node", "id": 3450729685, "lat": 38.85084, "lon": 46.1956233}, {"type": "node", "id": 3450729686, "lat": 38.8508654, "lon": 46.2082997}, {"type": "node", "id": 3450729688, "lat": 38.8509401, "lon": 46.20101}, {"type": "node", "id": 3450729689, "lat": 38.8511548, "lon": 46.1971313}, {"type": "node", "id": 3450729690, "lat": 38.8513416, "lon": 46.1957465}, {"type": "node", "id": 3450729691, "lat": 38.8515097, "lon": 46.1960523}, {"type": "node", "id": 3531166353, "lat": 38.851956, "lon": 46.275996, "tags": {"is_in:country": "Iran", "name": "\u062f\u0646\u0633\u062a\u0627\u0646", "name:en": "Danestan", "place": "village", "source:name": "GNS"}}, {"type": "node", "id": 3531166355, "lat": 38.8598, "lon": 46.2286, "tags": {"alt_name": "Dozal", "alt_name:en": "Dozal", "is_in:country": "Iran", "name": "\u062f\u0648\u0632\u0627\u0644", "name:en": "Duzal", "name:fa": "\u0627\u0645\u0627\u0645\u0632\u0627\u062f\u0647 \u0634\u0639\u06cc\u0628 \u062f\u0648\u0632\u0627\u0644", "place": "village", "source:name": "GNS"}}, {"type": "node", "id": 3531166363, "lat": 38.875774, "lon": 46.253893, "tags": {"alt_name": "Kur Dasht", "alt_name:en": "Kur Dasht", "is_in:country": "Iran", "name": "\u06a9\u0631\u062f\u0634\u062a", "name:en": "Kordasht", "name:ru": "\u041a\u043e\u0440\u0434\u0430\u0448\u0442", "place": "village", "source:name": "GNS"}}, {"type": "node", "id": 3531166369, "lat": 38.8811164, "lon": 46.4419894, "tags": {"alt_name": "\u0645\u0633\u0646", "alt_name:en": "Misan;Masan;Mosan;Mesan", "is_in:country": "Iran", "name": "\u0645\u06cc\u0633\u0646", "name:en": "Misan", "place": "village", "source:name": "GNS", "wikidata": "Q6001297"}}, {"type": "node", "id": 3531166370, "lat": 38.857704, "lon": 46.352983, "tags": {"is_in:country": "Iran", "name": "\u0646\u062c\u0641", "name:en": "Najaf", "place": "village", "source:name": "GNS"}}, {"type": "node", "id": 3531166376, "lat": 38.859, "lon": 46.4212, "tags": {"alt_name": "Owruj;Oruch;Orudzh;Uruj;Uroj", "alt_name:en": "Owruj;Oruch;Orudzh;Uruj;Uroj", "is_in:country": "Iran", "name": "\u0627\u0631\u0648\u062c", "name:en": "Oruj", "place": "village", "source:name": "GNS"}}, {"type": "node", "id": 3531166380, "lat": 38.859698, "lon": 46.343347, "tags": {"alt_name": "Fir Bulaq", "alt_name:en": "Fir Bulaq", "is_in:country": "Iran", "name": "\u067e\u06cc\u0631 \u0628\u0644\u0627\u063a\u06cc", "name:en": "Pir Bolaghi", "place": "village", "source:name": "GNS", "wikidata": "Q6036019"}}, {"type": "node", "id": 3531166386, "lat": 38.8942129, "lon": 46.3966931, "tags": {"alt_name": "\u0642\u0644\u0627\u0646;\u063a\u0644\u0646", "alt_name:en": "Qolan;Ghoolan;Kulan", "is_in:country": "Iran", "is_in:county": "Jolfa", "is_in:province": "East Azerbaijan", "name": "\u0642\u0648\u0644\u0627\u0646", "name:en": "Qulan", "place": "village", "population": "491", "source:name": "GNS", "wikidata": "Q6403084", "wikipedia": "fa:\u0642\u0648\u0644\u0627\u0646"}}, {"type": "node", "id": 3531166387, "lat": 38.8756, "lon": 46.523, "tags": {"is_in:country": "Iran", "name": "\u0642\u0648\u0631\u0686\u06cc \u0627\u062d\u0645\u062f \u0622\u0628\u0627\u062f", "name:en": "Qurchi-ye Ahmadabad", "place": "village", "source:name": "GNS", "wikidata": "Q5626853"}}, {"type": "node", "id": 3649154634, "lat": 39.0697074, "lon": 46.3554763}, {"type": "node", "id": 3649154635, "lat": 39.0698742, "lon": 46.3528652}, {"type": "node", "id": 3649154636, "lat": 39.0703681, "lon": 46.3553028}, {"type": "node", "id": 3649154637, "lat": 39.0704935, "lon": 46.3535011}, {"type": "node", "id": 3649154638, "lat": 39.0707265, "lon": 46.3524272}, {"type": "node", "id": 3649154639, "lat": 39.0713368, "lon": 46.3509646}, {"type": "node", "id": 3649154640, "lat": 39.0713433, "lon": 46.3516918}, {"type": "node", "id": 3649154641, "lat": 39.0713497, "lon": 46.3488658}, {"type": "node", "id": 3649154642, "lat": 39.0718244, "lon": 46.3495434}, {"type": "node", "id": 3649154643, "lat": 39.0726455, "lon": 46.3473454}, {"type": "node", "id": 3649154644, "lat": 39.0726584, "lon": 46.3504523}, {"type": "node", "id": 3649154645, "lat": 39.0733512, "lon": 46.3501549}, {"type": "node", "id": 3649154646, "lat": 39.0736206, "lon": 46.3469983}, {"type": "node", "id": 3649154647, "lat": 39.0738516, "lon": 46.3481056}, {"type": "node", "id": 3650168804, "lat": 39.0472271, "lon": 46.4615869}, {"type": "node", "id": 3650168807, "lat": 39.0476018, "lon": 46.4608992}, {"type": "node", "id": 3650168809, "lat": 39.0477692, "lon": 46.4557462}, {"type": "node", "id": 3650168810, "lat": 39.0478729, "lon": 46.4606631}, {"type": "node", "id": 3650168812, "lat": 39.0479924, "lon": 46.4598111}, {"type": "node", "id": 3650168813, "lat": 39.0480084, "lon": 46.4562697}, {"type": "node", "id": 3650168814, "lat": 39.0481598, "lon": 46.4573886}, {"type": "node", "id": 3650168815, "lat": 39.0483113, "lon": 46.4594416}, {"type": "node", "id": 3650168816, "lat": 39.0483591, "lon": 46.4583124}, {"type": "node", "id": 3650168817, "lat": 39.0483671, "lon": 46.4548224}, {"type": "node", "id": 3650168818, "lat": 39.0483751, "lon": 46.4622644}, {"type": "node", "id": 3650168819, "lat": 39.04867, "lon": 46.4640402}, {"type": "node", "id": 3650168820, "lat": 39.0491085, "lon": 46.464379}, {"type": "node", "id": 3650168821, "lat": 39.0491643, "lon": 46.4554999}, {"type": "node", "id": 3650168823, "lat": 39.0499615, "lon": 46.4603654}, {"type": "node", "id": 3650168824, "lat": 39.0499615, "lon": 46.4618846}, {"type": "node", "id": 3650168826, "lat": 39.0502325, "lon": 46.4587641}, {"type": "node", "id": 3650168828, "lat": 39.0505673, "lon": 46.4594826}, {"type": "node", "id": 3650168836, "lat": 39.0512978, "lon": 46.455403}, {"type": "node", "id": 3650168840, "lat": 39.0516698, "lon": 46.4550546}, {"type": "node", "id": 3650168841, "lat": 39.0519404, "lon": 46.4620371}, {"type": "node", "id": 3650168846, "lat": 39.0522786, "lon": 46.4586402}, {"type": "node", "id": 3650168865, "lat": 39.0530452, "lon": 46.4592064}, {"type": "node", "id": 3650168867, "lat": 39.0531917, "lon": 46.4631404}, {"type": "node", "id": 3650168869, "lat": 39.0532819, "lon": 46.4549675}, {"type": "node", "id": 3650168897, "lat": 39.0539245, "lon": 46.4607597}, {"type": "node", "id": 3650168901, "lat": 39.0541499, "lon": 46.4625743}, {"type": "node", "id": 3650168912, "lat": 39.0546797, "lon": 46.4536465}, {"type": "node", "id": 3650168914, "lat": 39.0547587, "lon": 46.4596709}, {"type": "node", "id": 3650168923, "lat": 39.0550179, "lon": 46.456695}, {"type": "node", "id": 3650168930, "lat": 39.0552321, "lon": 46.4544014}, {"type": "node", "id": 3650169128, "lat": 39.0770141, "lon": 46.49997}, {"type": "node", "id": 3650169130, "lat": 39.077166, "lon": 46.498138}, {"type": "node", "id": 3650169136, "lat": 39.0786263, "lon": 46.4958308}, {"type": "node", "id": 3650169137, "lat": 39.0776731, "lon": 46.5008817}, {"type": "node", "id": 3650169142, "lat": 39.0781194, "lon": 46.4971092}, {"type": "node", "id": 3650169143, "lat": 39.079403, "lon": 46.4968848}, {"type": "node", "id": 3650169162, "lat": 39.0788612, "lon": 46.5020996}, {"type": "node", "id": 3650169170, "lat": 39.080646, "lon": 46.4969415}, {"type": "node", "id": 3650169171, "lat": 39.079972, "lon": 46.5022462}, {"type": "node", "id": 3650169183, "lat": 39.0816028, "lon": 46.4999916}, {"type": "node", "id": 3650169186, "lat": 39.0817875, "lon": 46.5008962}, {"type": "node", "id": 3660438133, "lat": 38.897345, "lon": 46.2395484}, {"type": "node", "id": 3726637369, "lat": 39.0542841, "lon": 46.1743301}, {"type": "node", "id": 3726637372, "lat": 39.0544994, "lon": 46.1732261}, {"type": "node", "id": 3726637375, "lat": 39.0546852, "lon": 46.1721439}, {"type": "node", "id": 3726637377, "lat": 39.0548542, "lon": 46.1756624}, {"type": "node", "id": 3726637382, "lat": 39.0550273, "lon": 46.1699306}, {"type": "node", "id": 3726637388, "lat": 39.0553645, "lon": 46.1778228}, {"type": "node", "id": 3726637393, "lat": 39.0554791, "lon": 46.1754666}, {"type": "node", "id": 3726637394, "lat": 39.0555172, "lon": 46.1685004}, {"type": "node", "id": 3726637395, "lat": 39.0556013, "lon": 46.1757312}, {"type": "node", "id": 3726637398, "lat": 39.0558001, "lon": 46.1681687}, {"type": "node", "id": 3726637401, "lat": 39.0559983, "lon": 46.1783089}, {"type": "node", "id": 3726637409, "lat": 39.0563192, "lon": 46.168629}, {"type": "node", "id": 3726637418, "lat": 39.056581, "lon": 46.1705976}, {"type": "node", "id": 3726637421, "lat": 39.0566064, "lon": 46.1710436}, {"type": "node", "id": 3726637423, "lat": 39.0566655, "lon": 46.1697602}, {"type": "node", "id": 3726637428, "lat": 39.0568344, "lon": 46.1770255}, {"type": "node", "id": 3726637436, "lat": 39.0570286, "lon": 46.1715983}, {"type": "node", "id": 3726637442, "lat": 39.0572144, "lon": 46.1766013}, {"type": "node", "id": 3726637448, "lat": 39.0573833, "lon": 46.17224}, {"type": "node", "id": 3726637456, "lat": 39.0589385, "lon": 46.1755564}, {"type": "node", "id": 3726637458, "lat": 39.0576198, "lon": 46.1733167}, {"type": "node", "id": 3726637460, "lat": 39.0576789, "lon": 46.1727729}, {"type": "node", "id": 3726637464, "lat": 39.057907, "lon": 46.1739584}, {"type": "node", "id": 3726637466, "lat": 39.0580168, "lon": 46.1744043}, {"type": "node", "id": 3726637529, "lat": 39.0638846, "lon": 46.1695446}, {"type": "node", "id": 3726637534, "lat": 39.0640759, "lon": 46.1677097}, {"type": "node", "id": 3726637544, "lat": 39.0646316, "lon": 46.1663141}, {"type": "node", "id": 3726637546, "lat": 39.0646686, "lon": 46.1696182}, {"type": "node", "id": 3726637551, "lat": 39.0649557, "lon": 46.1702265}, {"type": "node", "id": 3726637555, "lat": 39.0650854, "lon": 46.1713716}, {"type": "node", "id": 3726637570, "lat": 39.065604, "lon": 46.1736022}, {"type": "node", "id": 3726637571, "lat": 39.0656318, "lon": 46.1718965}, {"type": "node", "id": 3726637573, "lat": 39.0656781, "lon": 46.1725645}, {"type": "node", "id": 3726637578, "lat": 39.0659282, "lon": 46.1718011}, {"type": "node", "id": 3726637581, "lat": 39.06603, "lon": 46.1655984}, {"type": "node", "id": 3726637584, "lat": 39.0661967, "lon": 46.1713001}, {"type": "node", "id": 3726637587, "lat": 39.0662849, "lon": 46.1659606}, {"type": "node", "id": 3726637588, "lat": 39.066298, "lon": 46.1663022}, {"type": "node", "id": 3726637589, "lat": 39.0663079, "lon": 46.1731131}, {"type": "node", "id": 3726637592, "lat": 39.0663634, "lon": 46.1707395}, {"type": "node", "id": 3726637593, "lat": 39.0663897, "lon": 46.1672426}, {"type": "node", "id": 3726637596, "lat": 39.0664912, "lon": 46.1667154}, {"type": "node", "id": 3726637597, "lat": 39.0665209, "lon": 46.169988}, {"type": "node", "id": 3726637598, "lat": 39.0665698, "lon": 46.1674282}, {"type": "node", "id": 3726637600, "lat": 39.0666909, "lon": 46.1677234}, {"type": "node", "id": 3726637606, "lat": 39.0667802, "lon": 46.1722782}, {"type": "node", "id": 3726637607, "lat": 39.0667806, "lon": 46.1679832}, {"type": "node", "id": 3726637608, "lat": 39.0667987, "lon": 46.1717653}, {"type": "node", "id": 3726637609, "lat": 39.0668219, "lon": 46.1681029}, {"type": "node", "id": 3726637618, "lat": 39.0671399, "lon": 46.1703386}, {"type": "node", "id": 3726637620, "lat": 39.0672404, "lon": 46.1683743}, {"type": "node", "id": 3726637621, "lat": 39.0672525, "lon": 46.1695466}, {"type": "node", "id": 3726637627, "lat": 39.0675766, "lon": 46.1685924}, {"type": "node", "id": 3726672718, "lat": 38.9865962, "lon": 46.2101051}, {"type": "node", "id": 3726672719, "lat": 38.9866107, "lon": 46.2095186}, {"type": "node", "id": 3726672723, "lat": 38.9869653, "lon": 46.2104961}, {"type": "node", "id": 3726672724, "lat": 38.9870883, "lon": 46.2083363}, {"type": "node", "id": 3726674526, "lat": 38.9871462, "lon": 46.2088763}, {"type": "node", "id": 3726674528, "lat": 38.9872258, "lon": 46.2078522}, {"type": "node", "id": 3726674530, "lat": 38.9875659, "lon": 46.2098724}, {"type": "node", "id": 3726674536, "lat": 38.9880606, "lon": 46.2101768}, {"type": "node", "id": 3726674537, "lat": 38.9881303, "lon": 46.2080105}, {"type": "node", "id": 3726674545, "lat": 38.9885572, "lon": 46.2074891}, {"type": "node", "id": 3726674552, "lat": 38.9889697, "lon": 46.2079267}, {"type": "node", "id": 3726674554, "lat": 38.9890059, "lon": 46.2095745}, {"type": "node", "id": 3726674555, "lat": 38.989042, "lon": 46.2081594}, {"type": "node", "id": 3726674556, "lat": 38.9890782, "lon": 46.2086342}, {"type": "node", "id": 3726674559, "lat": 38.9892519, "lon": 46.2104309}, {"type": "node", "id": 3726684161, "lat": 38.8945528, "lon": 46.1855814}, {"type": "node", "id": 3726684162, "lat": 38.8945853, "lon": 46.1846556}, {"type": "node", "id": 3726684163, "lat": 38.8946502, "lon": 46.1863571}, {"type": "node", "id": 3726684165, "lat": 38.894755, "lon": 46.1835329}, {"type": "node", "id": 3726684166, "lat": 38.894832, "lon": 46.1872412}, {"type": "node", "id": 3726684167, "lat": 38.8950763, "lon": 46.1819522}, {"type": "node", "id": 3726684168, "lat": 38.895214, "lon": 46.182542}, {"type": "node", "id": 3726684170, "lat": 38.8957557, "lon": 46.181097}, {"type": "node", "id": 3726684171, "lat": 38.8958292, "lon": 46.1877713}, {"type": "node", "id": 3726684172, "lat": 38.8963315, "lon": 46.186941}, {"type": "node", "id": 3726684173, "lat": 38.8964666, "lon": 46.1809477}, {"type": "node", "id": 3726684174, "lat": 38.8970975, "lon": 46.1854229}, {"type": "node", "id": 3726684175, "lat": 38.8973072, "lon": 46.1808139}, {"type": "node", "id": 3726684176, "lat": 38.8976147, "lon": 46.1835977}, {"type": "node", "id": 3726684180, "lat": 38.8979131, "lon": 46.1820584}, {"type": "node", "id": 3726684181, "lat": 38.8979819, "lon": 46.1828782}, {"type": "node", "id": 3726684317, "lat": 38.9313245, "lon": 46.1827413}, {"type": "node", "id": 3726684318, "lat": 38.9315321, "lon": 46.1792882}, {"type": "node", "id": 3726684319, "lat": 38.9316359, "lon": 46.1811482}, {"type": "node", "id": 3726684320, "lat": 38.9316424, "lon": 46.1774615}, {"type": "node", "id": 3726684321, "lat": 38.93185, "lon": 46.1834336}, {"type": "node", "id": 3726684322, "lat": 38.9320836, "lon": 46.1766691}, {"type": "node", "id": 3726684323, "lat": 38.9327519, "lon": 46.1820323}, {"type": "node", "id": 3726684324, "lat": 38.9335564, "lon": 46.1770194}, {"type": "node", "id": 3726684325, "lat": 38.9341014, "lon": 46.1774031}, {"type": "node", "id": 3726684326, "lat": 38.9344518, "lon": 46.1809063}, {"type": "node", "id": 3726684327, "lat": 38.9348216, "lon": 46.1789962}, {"type": "node", "id": 3726684328, "lat": 38.9348281, "lon": 46.1795217}, {"type": "node", "id": 3726695234, "lat": 38.9349753, "lon": 46.2177283}, {"type": "node", "id": 3726695235, "lat": 38.935216, "lon": 46.2171948}, {"type": "node", "id": 3726695236, "lat": 38.9354816, "lon": 46.2184431}, {"type": "node", "id": 3726695237, "lat": 38.9362285, "lon": 46.216672}, {"type": "node", "id": 3726695238, "lat": 38.9367928, "lon": 46.2185498}, {"type": "node", "id": 3726695239, "lat": 38.9368094, "lon": 46.2160639}, {"type": "node", "id": 3726695240, "lat": 38.9373737, "lon": 46.2157865}, {"type": "node", "id": 3726695241, "lat": 38.9379214, "lon": 46.2149863}, {"type": "node", "id": 3726695242, "lat": 38.9382949, "lon": 46.2189339}, {"type": "node", "id": 3726695243, "lat": 38.9383115, "lon": 46.215189}, {"type": "node", "id": 3726695244, "lat": 38.9385604, "lon": 46.2143035}, {"type": "node", "id": 3726695245, "lat": 38.9388057, "lon": 46.2150597}, {"type": "node", "id": 3726695246, "lat": 38.9388841, "lon": 46.2139194}, {"type": "node", "id": 3726695248, "lat": 38.9394567, "lon": 46.2175362}, {"type": "node", "id": 3726695252, "lat": 38.9397637, "lon": 46.2166613}, {"type": "node", "id": 3726695257, "lat": 38.9400044, "lon": 46.212095}, {"type": "node", "id": 3726695260, "lat": 38.9402284, "lon": 46.2115295}, {"type": "node", "id": 3726695264, "lat": 38.940494, "lon": 46.2155198}, {"type": "node", "id": 3726695267, "lat": 38.9407097, "lon": 46.2108254}, {"type": "node", "id": 3726695269, "lat": 38.9409338, "lon": 46.2095238}, {"type": "node", "id": 3726695272, "lat": 38.941523, "lon": 46.2144422}, {"type": "node", "id": 3726695279, "lat": 38.941913, "lon": 46.2099398}, {"type": "node", "id": 3726695280, "lat": 38.9419527, "lon": 46.2127101}, {"type": "node", "id": 3726695288, "lat": 38.9424333, "lon": 46.2122704}, {"type": "node", "id": 3726695289, "lat": 38.9424845, "lon": 46.2119896}, {"type": "node", "id": 3726695291, "lat": 38.9425436, "lon": 46.2112201}, {"type": "node", "id": 3726695298, "lat": 38.9427013, "lon": 46.210804}, {"type": "node", "id": 3726695302, "lat": 38.9427797, "lon": 46.2117048}, {"type": "node", "id": 3726695557, "lat": 38.9676425, "lon": 46.2138932}, {"type": "node", "id": 3726695562, "lat": 38.9682561, "lon": 46.2127677}, {"type": "node", "id": 3726695563, "lat": 38.9682561, "lon": 46.2159113}, {"type": "node", "id": 3726695564, "lat": 38.9683164, "lon": 46.215161}, {"type": "node", "id": 3726695567, "lat": 38.9686182, "lon": 46.2173214}, {"type": "node", "id": 3726695571, "lat": 38.969292, "lon": 46.2130523}, {"type": "node", "id": 3726695574, "lat": 38.9696843, "lon": 46.2177483}, {"type": "node", "id": 3726695584, "lat": 38.9703682, "lon": 46.2126901}, {"type": "node", "id": 3726695585, "lat": 38.9703984, "lon": 46.2189902}, {"type": "node", "id": 3726695589, "lat": 38.9714545, "lon": 46.2195336}, {"type": "node", "id": 3726695590, "lat": 38.9715651, "lon": 46.2137509}, {"type": "node", "id": 3726695592, "lat": 38.9716154, "lon": 46.2186927}, {"type": "node", "id": 3726695595, "lat": 38.9720378, "lon": 46.21476}, {"type": "node", "id": 3726695596, "lat": 38.9721887, "lon": 46.2172309}, {"type": "node", "id": 3726695599, "lat": 38.9729631, "lon": 46.215769}, {"type": "node", "id": 3726695632, "lat": 38.9776421, "lon": 46.2091264}, {"type": "node", "id": 3726695633, "lat": 38.9779317, "lon": 46.2096497}, {"type": "node", "id": 3726695634, "lat": 38.9779662, "lon": 46.2071926}, {"type": "node", "id": 3726695635, "lat": 38.9785109, "lon": 46.2063145}, {"type": "node", "id": 3726695636, "lat": 38.9787799, "lon": 46.2068733}, {"type": "node", "id": 3726695637, "lat": 38.9787867, "lon": 46.2086385}, {"type": "node", "id": 3726695638, "lat": 38.9792763, "lon": 46.2073966}, {"type": "node", "id": 3726695639, "lat": 38.9793522, "lon": 46.2078313}, {"type": "node", "id": 3726708790, "lat": 38.9322291, "lon": 46.3703457}, {"type": "node", "id": 3726708791, "lat": 38.9321563, "lon": 46.3720705}, {"type": "node", "id": 3726708809, "lat": 38.9342582, "lon": 46.3723793}, {"type": "node", "id": 3726708811, "lat": 38.9341789, "lon": 46.3462539}, {"type": "node", "id": 3726708812, "lat": 38.9344553, "lon": 46.3494073}, {"type": "node", "id": 3726708813, "lat": 38.9344261, "lon": 46.3470257}, {"type": "node", "id": 3726708815, "lat": 38.9346566, "lon": 46.3495326}, {"type": "node", "id": 3726708816, "lat": 38.9348692, "lon": 46.3692786}, {"type": "node", "id": 3726708817, "lat": 38.9343687, "lon": 46.3447795}, {"type": "node", "id": 3726708818, "lat": 38.9350841, "lon": 46.3500456}, {"type": "node", "id": 3726708820, "lat": 38.935309, "lon": 46.3723986}, {"type": "node", "id": 3726708822, "lat": 38.9357336, "lon": 46.3449673}, {"type": "node", "id": 3726708823, "lat": 38.9357444, "lon": 46.3733636}, {"type": "node", "id": 3726708824, "lat": 38.9357928, "lon": 46.3695242}, {"type": "node", "id": 3726708825, "lat": 38.9358436, "lon": 46.3505669}, {"type": "node", "id": 3726708826, "lat": 38.9362388, "lon": 46.3454265}, {"type": "node", "id": 3726708827, "lat": 38.9360696, "lon": 46.351413}, {"type": "node", "id": 3726708828, "lat": 38.9366526, "lon": 46.36876}, {"type": "node", "id": 3726708829, "lat": 38.9366673, "lon": 46.3448415}, {"type": "node", "id": 3726708832, "lat": 38.937194, "lon": 46.3693468}, {"type": "node", "id": 3726708833, "lat": 38.9372787, "lon": 46.3451476}, {"type": "node", "id": 3726708835, "lat": 38.9368724, "lon": 46.3523009}, {"type": "node", "id": 3726708837, "lat": 38.9376706, "lon": 46.3471211}, {"type": "node", "id": 3726708838, "lat": 38.9377718, "lon": 46.347517}, {"type": "node", "id": 3726708839, "lat": 38.9377678, "lon": 46.3463307}, {"type": "node", "id": 3726708840, "lat": 38.9379689, "lon": 46.3706569}, {"type": "node", "id": 3726708842, "lat": 38.9381089, "lon": 46.3455364}, {"type": "node", "id": 3726708843, "lat": 38.9381411, "lon": 46.3458012}, {"type": "node", "id": 3726708845, "lat": 38.9385015, "lon": 46.3510799}, {"type": "node", "id": 3726708846, "lat": 38.9385527, "lon": 46.3712438}, {"type": "node", "id": 3726708847, "lat": 38.9386688, "lon": 46.3474725}, {"type": "node", "id": 3726708850, "lat": 38.9391772, "lon": 46.3505752}, {"type": "node", "id": 3726708852, "lat": 38.9393807, "lon": 46.3719944}, {"type": "node", "id": 3726708853, "lat": 38.9394153, "lon": 46.3499629}, {"type": "node", "id": 3726708854, "lat": 38.9394732, "lon": 46.347547}, {"type": "node", "id": 3726708855, "lat": 38.9403242, "lon": 46.3484072}, {"type": "node", "id": 3726708856, "lat": 38.9398331, "lon": 46.3491328}, {"type": "node", "id": 3726708859, "lat": 38.9401343, "lon": 46.3718579}, {"type": "node", "id": 3726708860, "lat": 38.9406757, "lon": 46.372704}, {"type": "node", "id": 3726708862, "lat": 38.9408785, "lon": 46.3745023}, {"type": "node", "id": 3726708864, "lat": 38.9414187, "lon": 46.3727177}, {"type": "node", "id": 3726708870, "lat": 38.9435955, "lon": 46.3731127}, {"type": "node", "id": 3726708874, "lat": 38.9439131, "lon": 46.3712711}, {"type": "node", "id": 3726708882, "lat": 38.9443761, "lon": 46.3722828}, {"type": "node", "id": 3726719226, "lat": 38.9321478, "lon": 46.3718357}, {"type": "node", "id": 3726719240, "lat": 38.9342636, "lon": 46.3700076}, {"type": "node", "id": 3726742822, "lat": 38.9133487, "lon": 46.4496898}, {"type": "node", "id": 3726742823, "lat": 38.913367, "lon": 46.4486948}, {"type": "node", "id": 3726742827, "lat": 38.9138851, "lon": 46.4473082}, {"type": "node", "id": 3726742831, "lat": 38.9140311, "lon": 46.4467526}, {"type": "node", "id": 3726742832, "lat": 38.9140741, "lon": 46.4494782}, {"type": "node", "id": 3726742839, "lat": 38.9147442, "lon": 46.4440396}, {"type": "node", "id": 3726742840, "lat": 38.9147811, "lon": 46.4504418}, {"type": "node", "id": 3726742841, "lat": 38.9148939, "lon": 46.4434702}, {"type": "node", "id": 3726742843, "lat": 38.9150516, "lon": 46.4463145}, {"type": "node", "id": 3726742845, "lat": 38.9154943, "lon": 46.4508727}, {"type": "node", "id": 3726742846, "lat": 38.915543, "lon": 46.445273}, {"type": "node", "id": 3726742848, "lat": 38.9156528, "lon": 46.4497524}, {"type": "node", "id": 3726742849, "lat": 38.9156809, "lon": 46.4481979}, {"type": "node", "id": 3726742850, "lat": 38.915793, "lon": 46.4468795}, {"type": "node", "id": 3726742852, "lat": 38.9158601, "lon": 46.4389883}, {"type": "node", "id": 3726742857, "lat": 38.9170053, "lon": 46.441732}, {"type": "node", "id": 3726742861, "lat": 38.9168231, "lon": 46.4374528}, {"type": "node", "id": 3726742865, "lat": 38.9172133, "lon": 46.433238}, {"type": "node", "id": 3726742866, "lat": 38.9172853, "lon": 46.4344622}, {"type": "node", "id": 3726742867, "lat": 38.9171654, "lon": 46.4366195}, {"type": "node", "id": 3726742870, "lat": 38.9175257, "lon": 46.4399329}, {"type": "node", "id": 3726742872, "lat": 38.9179569, "lon": 46.4330108}, {"type": "node", "id": 3726742874, "lat": 38.9183531, "lon": 46.4334182}, {"type": "node", "id": 3726742876, "lat": 38.9185706, "lon": 46.4341927}, {"type": "node", "id": 3726742878, "lat": 38.91915, "lon": 46.4351742}, {"type": "node", "id": 3726742880, "lat": 38.9193703, "lon": 46.4382821}, {"type": "node", "id": 3726742883, "lat": 38.9198617, "lon": 46.4351356}, {"type": "node", "id": 3726742885, "lat": 38.9205475, "lon": 46.4352925}, {"type": "node", "id": 3726742887, "lat": 38.9210512, "lon": 46.4375841}, {"type": "node", "id": 3728684524, "lat": 39.0932957, "lon": 46.466268}, {"type": "node", "id": 3728684525, "lat": 39.0942335, "lon": 46.4690551}, {"type": "node", "id": 3728684526, "lat": 39.0944711, "lon": 46.4769334}, {"type": "node", "id": 3728684527, "lat": 39.0944836, "lon": 46.4785606}, {"type": "node", "id": 3728684528, "lat": 39.0946711, "lon": 46.4658652}, {"type": "node", "id": 3728684529, "lat": 39.0949462, "lon": 46.4712301}, {"type": "node", "id": 3728684530, "lat": 39.0952838, "lon": 46.47964}, {"type": "node", "id": 3728684531, "lat": 39.0956089, "lon": 46.4757734}, {"type": "node", "id": 3728684532, "lat": 39.0956714, "lon": 46.4726157}, {"type": "node", "id": 3728684533, "lat": 39.0958715, "lon": 46.4740656}, {"type": "node", "id": 3728684534, "lat": 39.0960569, "lon": 46.4681131}, {"type": "node", "id": 3728684535, "lat": 39.0961841, "lon": 46.4786573}, {"type": "node", "id": 3728684536, "lat": 39.0964216, "lon": 46.4768206}, {"type": "node", "id": 3728684537, "lat": 39.0976129, "lon": 46.4684093}, {"type": "node", "id": 3728684538, "lat": 39.0976845, "lon": 46.4746134}, {"type": "node", "id": 3728684539, "lat": 39.0978595, "lon": 46.4741623}, {"type": "node", "id": 3728684545, "lat": 39.0990195, "lon": 46.468007}, {"type": "node", "id": 3728684548, "lat": 39.0992848, "lon": 46.4701487}, {"type": "node", "id": 3728684549, "lat": 39.0993349, "lon": 46.4768851}, {"type": "node", "id": 3728684552, "lat": 39.09971, "lon": 46.4735823}, {"type": "node", "id": 3728684554, "lat": 39.099835, "lon": 46.4754351}, {"type": "node", "id": 3728684555, "lat": 39.099999, "lon": 46.4707958}, {"type": "node", "id": 3728684556, "lat": 39.1001726, "lon": 46.4765628}, {"type": "node", "id": 3728684557, "lat": 39.1004589, "lon": 46.4718586}, {"type": "node", "id": 3728684558, "lat": 39.1005965, "lon": 46.4727689}, {"type": "node", "id": 3728684828, "lat": 39.1450576, "lon": 46.4391964}, {"type": "node", "id": 3728684830, "lat": 39.1452514, "lon": 46.4399932}, {"type": "node", "id": 3728684832, "lat": 39.1453968, "lon": 46.4350408}, {"type": "node", "id": 3728684835, "lat": 39.1455543, "lon": 46.4366812}, {"type": "node", "id": 3728684842, "lat": 39.1459299, "lon": 46.4392745}, {"type": "node", "id": 3728684854, "lat": 39.1462813, "lon": 46.4372436}, {"type": "node", "id": 3728684858, "lat": 39.1464509, "lon": 46.4387434}, {"type": "node", "id": 3728684861, "lat": 39.1464873, "lon": 46.4410086}, {"type": "node", "id": 3728684865, "lat": 39.1465357, "lon": 46.4358219}, {"type": "node", "id": 3728684866, "lat": 39.14656, "lon": 46.4377123}, {"type": "node", "id": 3728684873, "lat": 39.1469356, "lon": 46.443727}, {"type": "node", "id": 3728684877, "lat": 39.1472142, "lon": 46.446211}, {"type": "node", "id": 3728684884, "lat": 39.1473838, "lon": 46.43615}, {"type": "node", "id": 3728684897, "lat": 39.1482441, "lon": 46.4369467}, {"type": "node", "id": 3728684898, "lat": 39.1483289, "lon": 46.437931}, {"type": "node", "id": 3728684900, "lat": 39.1488741, "lon": 46.4456174}, {"type": "node", "id": 3728684902, "lat": 39.1490679, "lon": 46.4404619}, {"type": "node", "id": 3728684903, "lat": 39.1491164, "lon": 46.4473046}, {"type": "node", "id": 3728684904, "lat": 39.1492254, "lon": 46.4416023}, {"type": "node", "id": 3728684905, "lat": 39.149807, "lon": 46.4421491}, {"type": "node", "id": 3728684906, "lat": 39.1500129, "lon": 46.4377279}, {"type": "node", "id": 3728684907, "lat": 39.1502795, "lon": 46.4468984}, {"type": "node", "id": 3728684909, "lat": 39.1508731, "lon": 46.4393995}, {"type": "node", "id": 3728684910, "lat": 39.1509216, "lon": 46.4431958}, {"type": "node", "id": 3728684912, "lat": 39.1516485, "lon": 46.4435395}, {"type": "node", "id": 3728684913, "lat": 39.1516848, "lon": 46.4453986}, {"type": "node", "id": 3728684975, "lat": 39.1682877, "lon": 46.4146351}, {"type": "node", "id": 3728684984, "lat": 39.1684956, "lon": 46.4141703}, {"type": "node", "id": 3728684999, "lat": 39.1690361, "lon": 46.4176025}, {"type": "node", "id": 3728685013, "lat": 39.1694796, "lon": 46.4137591}, {"type": "node", "id": 3728685016, "lat": 39.1695489, "lon": 46.4202839}, {"type": "node", "id": 3728685020, "lat": 39.1697429, "lon": 46.4140273}, {"type": "node", "id": 3728685036, "lat": 39.1704913, "lon": 46.4229832}, {"type": "node", "id": 3728685039, "lat": 39.1705606, "lon": 46.41594}, {"type": "node", "id": 3728685071, "lat": 39.1717524, "lon": 46.4167266}, {"type": "node", "id": 3728685076, "lat": 39.1721543, "lon": 46.4238591}, {"type": "node", "id": 3728685107, "lat": 39.1727087, "lon": 46.4168874}, {"type": "node", "id": 3728685116, "lat": 39.1729581, "lon": 46.4226078}, {"type": "node", "id": 3728685128, "lat": 39.1735124, "lon": 46.4179958}, {"type": "node", "id": 3728685141, "lat": 39.1742608, "lon": 46.422143}, {"type": "node", "id": 3728685142, "lat": 39.1743024, "lon": 46.4161545}, {"type": "node", "id": 3728685150, "lat": 39.1747735, "lon": 46.4149211}, {"type": "node", "id": 3728685151, "lat": 39.1747874, "lon": 46.4194259}, {"type": "node", "id": 3728685159, "lat": 39.1752447, "lon": 46.4168874}, {"type": "node", "id": 3728685164, "lat": 39.1757297, "lon": 46.4182282}, {"type": "node", "id": 3728685170, "lat": 39.1758544, "lon": 46.416959}, {"type": "node", "id": 3728685184, "lat": 39.1762979, "lon": 46.4145636}, {"type": "node", "id": 3728685186, "lat": 39.1763117, "lon": 46.4206414}, {"type": "node", "id": 3728685189, "lat": 39.1764365, "lon": 46.4224827}, {"type": "node", "id": 3728685208, "lat": 39.1771848, "lon": 46.4187644}, {"type": "node", "id": 3728685258, "lat": 39.1784402, "lon": 46.4157023}, {"type": "node", "id": 3728685272, "lat": 39.1795086, "lon": 46.4181068}, {"type": "node", "id": 3728685276, "lat": 39.1796513, "lon": 46.4197297}, {"type": "node", "id": 3728685302, "lat": 39.1815791, "lon": 46.4108457}, {"type": "node", "id": 3728685307, "lat": 39.1818249, "lon": 46.4132382}, {"type": "node", "id": 3728685342, "lat": 39.1831521, "lon": 46.4102752}, {"type": "node", "id": 3728685351, "lat": 39.1834265, "lon": 46.4132073}, {"type": "node", "id": 3728685353, "lat": 39.1836701, "lon": 46.4135922}, {"type": "node", "id": 3728685375, "lat": 39.1844282, "lon": 46.4144642}, {"type": "node", "id": 3728685384, "lat": 39.1849651, "lon": 46.4109842}, {"type": "node", "id": 3728685387, "lat": 39.185039, "lon": 46.4133007}, {"type": "node", "id": 3728685393, "lat": 39.1851546, "lon": 46.4163387}, {"type": "node", "id": 3728685394, "lat": 39.1852713, "lon": 46.4137502}, {"type": "node", "id": 3728685396, "lat": 39.1853249, "lon": 46.4126668}, {"type": "node", "id": 3728685398, "lat": 39.185362, "lon": 46.4171849}, {"type": "node", "id": 3728685423, "lat": 39.1868257, "lon": 46.4141882}, {"type": "node", "id": 3728685427, "lat": 39.1869286, "lon": 46.4172419}, {"type": "node", "id": 3728685432, "lat": 39.1873081, "lon": 46.4170696}, {"type": "node", "id": 3728685437, "lat": 39.1876476, "lon": 46.4157788}, {"type": "node", "id": 3728685438, "lat": 39.1877012, "lon": 46.4137848}, {"type": "node", "id": 3728685439, "lat": 39.1877012, "lon": 46.4146953}, {"type": "node", "id": 3729784109, "lat": 39.0557582, "lon": 46.1766466}, {"type": "node", "id": 3991877211, "lat": 38.868909, "lon": 46.1887228}, {"type": "node", "id": 3991877212, "lat": 38.8704456, "lon": 46.1943569}, {"type": "node", "id": 3991877213, "lat": 38.8712412, "lon": 46.191552}, {"type": "node", "id": 3991877214, "lat": 38.8659699, "lon": 46.2000316}, {"type": "node", "id": 3991877215, "lat": 38.8680928, "lon": 46.1968317}, {"type": "node", "id": 3991877216, "lat": 38.8617373, "lon": 46.1912275}, {"type": "node", "id": 3991877217, "lat": 38.8574933, "lon": 46.1944627}, {"type": "node", "id": 3991877219, "lat": 38.8707208, "lon": 46.1907076}, {"type": "node", "id": 4174838855, "lat": 39.1996933, "lon": 46.4653623}, {"type": "node", "id": 4174838880, "lat": 39.2002863, "lon": 46.4645631}, {"type": "node", "id": 4174838887, "lat": 39.2004764, "lon": 46.4615056}, {"type": "node", "id": 4174838888, "lat": 39.2004524, "lon": 46.4631066}, {"type": "node", "id": 4374599302, "lat": 38.8500528, "lon": 46.2122854}, {"type": "node", "id": 4447854150, "lat": 38.8480793, "lon": 46.2066146, "tags": {"is_in:country": "Iran", "is_in:county": "Jolfa", "is_in:province": "East Azerbaijan", "name": "\u0646\u0648\u062f\u0648\u0632 - \u0646\u0648\u0631\u062f\u0648\u0632", "name:az": "Novduz - Nurduz", "name:en": "Novduz - Nurduz", "name:hy": "\u0546\u0578\u0580\u0564\u0578\u0582\u0566", "name:ru": "\u041d\u043e\u0440\u0434\u0443\u0437", "place": "village", "population": "14", "wikidata": "Q5428644", "wikipedia": "fa:\u0646\u0648\u0631\u062f\u0648\u0632"}}, {"type": "node", "id": 5007865744, "lat": 39.1537431, "lon": 46.1561663}, {"type": "node", "id": 5007865745, "lat": 39.160015, "lon": 46.1550021}, {"type": "node", "id": 5007865746, "lat": 39.1586257, "lon": 46.1559355}, {"type": "node", "id": 5007865747, "lat": 39.1566374, "lon": 46.1564612}, {"type": "node", "id": 5007865748, "lat": 39.1551981, "lon": 46.1566114}, {"type": "node", "id": 5007865749, "lat": 39.1538004, "lon": 46.1560428}, {"type": "node", "id": 5007865750, "lat": 39.1536703, "lon": 46.1589473}, {"type": "node", "id": 5007865751, "lat": 39.1552397, "lon": 46.158328}, {"type": "node", "id": 5007865752, "lat": 39.1575442, "lon": 46.1576521}, {"type": "node", "id": 5007865753, "lat": 39.1602562, "lon": 46.1571157}, {"type": "node", "id": 5007865754, "lat": 39.1621196, "lon": 46.1570191}, {"type": "node", "id": 5007865755, "lat": 39.1622527, "lon": 46.1562252}, {"type": "node", "id": 5007865756, "lat": 39.161346, "lon": 46.1539614}, {"type": "node", "id": 5138687322, "lat": 38.9074985, "lon": 46.2317991}, {"type": "node", "id": 5138697056, "lat": 38.8957759, "lon": 46.2720752}, {"type": "node", "id": 5138697057, "lat": 38.8958928, "lon": 46.2727565}, {"type": "node", "id": 5138697058, "lat": 38.8962685, "lon": 46.2745321}, {"type": "node", "id": 5138697059, "lat": 38.8965211, "lon": 46.2750846}, {"type": "node", "id": 5138697060, "lat": 38.8981243, "lon": 46.2778714}, {"type": "node", "id": 5138697061, "lat": 38.8997734, "lon": 46.2798402}, {"type": "node", "id": 5138697067, "lat": 38.8964982, "lon": 46.2718928}, {"type": "node", "id": 5139003967, "lat": 38.9009611, "lon": 46.2775093}, {"type": "node", "id": 5139003968, "lat": 38.9015957, "lon": 46.2769622}, {"type": "node", "id": 5139018074, "lat": 38.9045027, "lon": 46.2996229}, {"type": "node", "id": 5139018075, "lat": 38.9029316, "lon": 46.2980926}, {"type": "node", "id": 5139018076, "lat": 38.904209, "lon": 46.2958288}, {"type": "node", "id": 5153115320, "lat": 39.2010355, "lon": 46.4508066}, {"type": "node", "id": 5238432499, "lat": 39.2094629, "lon": 46.4429556}, {"type": "node", "id": 5238432500, "lat": 39.2082322, "lon": 46.4328942}, {"type": "node", "id": 5238432501, "lat": 39.2050526, "lon": 46.4298898}, {"type": "node", "id": 5238432502, "lat": 39.2049994, "lon": 46.4295803}, {"type": "node", "id": 5238432503, "lat": 39.2058681, "lon": 46.4289339}, {"type": "node", "id": 5238432504, "lat": 39.2062123, "lon": 46.4279775}, {"type": "node", "id": 5238432505, "lat": 39.2067944, "lon": 46.4258946}, {"type": "node", "id": 5238432506, "lat": 39.2083762, "lon": 46.4244675}, {"type": "node", "id": 5238432507, "lat": 39.2090109, "lon": 46.41575}, {"type": "node", "id": 5238432508, "lat": 39.205257, "lon": 46.4181773}, {"type": "node", "id": 5238432509, "lat": 39.203669, "lon": 46.4233056}, {"type": "node", "id": 5238432510, "lat": 39.2044256, "lon": 46.4254514}, {"type": "node", "id": 5238432511, "lat": 39.2040847, "lon": 46.4255372}, {"type": "node", "id": 5238432512, "lat": 39.203112, "lon": 46.425548}, {"type": "node", "id": 5238432513, "lat": 39.2022474, "lon": 46.4256338}, {"type": "node", "id": 5238432514, "lat": 39.2011499, "lon": 46.4239601}, {"type": "node", "id": 5238432515, "lat": 39.2027628, "lon": 46.4181558}, {"type": "node", "id": 5238432516, "lat": 39.2122484, "lon": 46.4088861}, {"type": "node", "id": 5238432517, "lat": 39.2173107, "lon": 46.4060429}, {"type": "node", "id": 5238432518, "lat": 39.2178759, "lon": 46.4057425}, {"type": "node", "id": 5238432519, "lat": 39.2179591, "lon": 46.4053563}, {"type": "node", "id": 5238432520, "lat": 39.2189649, "lon": 46.4036826}, {"type": "node", "id": 5238433421, "lat": 39.2159558, "lon": 46.399155}, {"type": "node", "id": 5238433422, "lat": 39.2144014, "lon": 46.3972775}, {"type": "node", "id": 5238433423, "lat": 39.2140439, "lon": 46.3939086}, {"type": "node", "id": 5238433424, "lat": 39.2114573, "lon": 46.3857483}, {"type": "node", "id": 5238433425, "lat": 39.2119914, "lon": 46.3807568}, {"type": "node", "id": 5238433426, "lat": 39.2159641, "lon": 46.3765279}, {"type": "node", "id": 5238433427, "lat": 39.219663, "lon": 46.3672153}, {"type": "node", "id": 5238433428, "lat": 39.2220984, "lon": 46.3637177}, {"type": "node", "id": 5238433429, "lat": 39.2226719, "lon": 46.361529}, {"type": "node", "id": 5238433430, "lat": 39.2231373, "lon": 46.3598016}, {"type": "node", "id": 5238433431, "lat": 39.2234698, "lon": 46.3591043}, {"type": "node", "id": 5238433432, "lat": 39.2262707, "lon": 46.3510898}, {"type": "node", "id": 5238433433, "lat": 39.2254479, "lon": 46.34859}, {"type": "node", "id": 5238433434, "lat": 39.2255476, "lon": 46.3477961}, {"type": "node", "id": 5238433435, "lat": 39.2261377, "lon": 46.3458863}, {"type": "node", "id": 5238433436, "lat": 39.2256307, "lon": 46.3438586}, {"type": "node", "id": 5238433437, "lat": 39.2254774, "lon": 46.3429765}, {"type": "node", "id": 5238433438, "lat": 39.2263039, "lon": 46.3390413}, {"type": "node", "id": 5238433439, "lat": 39.2268815, "lon": 46.336091}, {"type": "node", "id": 5238433441, "lat": 39.2226553, "lon": 46.3403717}, {"type": "node", "id": 5238433442, "lat": 39.2218158, "lon": 46.3425282}, {"type": "node", "id": 5238433443, "lat": 39.2216246, "lon": 46.3445989}, {"type": "node", "id": 5238433444, "lat": 39.2210082, "lon": 46.3468289}, {"type": "node", "id": 5238433445, "lat": 39.2188824, "lon": 46.3524331}, {"type": "node", "id": 5238433446, "lat": 39.2161757, "lon": 46.3596368}, {"type": "node", "id": 5238433449, "lat": 39.2085737, "lon": 46.3698069}, {"type": "node", "id": 5238433450, "lat": 39.2077596, "lon": 46.3716365}, {"type": "node", "id": 5238433451, "lat": 39.2066919, "lon": 46.3723146}, {"type": "node", "id": 5238433452, "lat": 39.2037417, "lon": 46.3704266}, {"type": "node", "id": 5238433453, "lat": 39.2040147, "lon": 46.3752314}, {"type": "node", "id": 5238433454, "lat": 39.2053355, "lon": 46.3770975}, {"type": "node", "id": 5238433455, "lat": 39.2049305, "lon": 46.3791412}, {"type": "node", "id": 5238433456, "lat": 39.2043351, "lon": 46.3806745}, {"type": "node", "id": 5238433457, "lat": 39.2040121, "lon": 46.3830671}, {"type": "node", "id": 5238433458, "lat": 39.2033448, "lon": 46.3842634}, {"type": "node", "id": 5238433459, "lat": 39.2012996, "lon": 46.3845638}, {"type": "node", "id": 5238433460, "lat": 39.2020229, "lon": 46.3900248}, {"type": "node", "id": 5238433461, "lat": 39.1982758, "lon": 46.3885234}, {"type": "node", "id": 5238433462, "lat": 39.1885804, "lon": 46.3708765}, {"type": "node", "id": 5238433464, "lat": 39.1861746, "lon": 46.3839307}, {"type": "node", "id": 5238433465, "lat": 39.1943902, "lon": 46.3933936}, {"type": "node", "id": 5238433466, "lat": 39.19449, "lon": 46.3939944}, {"type": "node", "id": 5238433467, "lat": 39.1952134, "lon": 46.3955394}, {"type": "node", "id": 5238433468, "lat": 39.1957705, "lon": 46.396226}, {"type": "node", "id": 5238433469, "lat": 39.1988469, "lon": 46.3975135}, {"type": "node", "id": 5238433470, "lat": 39.1990381, "lon": 46.3980499}, {"type": "node", "id": 5238433471, "lat": 39.1961779, "lon": 46.4009038}, {"type": "node", "id": 5238433472, "lat": 39.1914187, "lon": 46.3967213}, {"type": "node", "id": 5238433473, "lat": 39.1878894, "lon": 46.4018622}, {"type": "node", "id": 5238433474, "lat": 39.1960615, "lon": 46.4066652}, {"type": "node", "id": 5238433475, "lat": 39.1931762, "lon": 46.4115683}, {"type": "node", "id": 5238433476, "lat": 39.1951885, "lon": 46.4161173}, {"type": "node", "id": 5238433477, "lat": 39.193725, "lon": 46.4257518}, {"type": "node", "id": 5238433478, "lat": 39.1972422, "lon": 46.4285198}, {"type": "node", "id": 5238433479, "lat": 39.1985808, "lon": 46.4363304}, {"type": "node", "id": 5238433480, "lat": 39.1992395, "lon": 46.4460647}, {"type": "node", "id": 5238433482, "lat": 39.2007904, "lon": 46.4481184}, {"type": "node", "id": 5238433484, "lat": 39.2081375, "lon": 46.4122388}, {"type": "node", "id": 5240823036, "lat": 39.2229947, "lon": 46.3999683}, {"type": "node", "id": 5240823037, "lat": 39.2272831, "lon": 46.3907891}, {"type": "node", "id": 5240823038, "lat": 39.2219516, "lon": 46.400907}, {"type": "node", "id": 5240823039, "lat": 39.2203724, "lon": 46.3966745}, {"type": "node", "id": 5240823040, "lat": 39.2239448, "lon": 46.4021551}, {"type": "node", "id": 5240823041, "lat": 39.2151233, "lon": 46.398493}, {"type": "node", "id": 5240823042, "lat": 39.2182985, "lon": 46.3970125}, {"type": "node", "id": 5240823043, "lat": 39.2205636, "lon": 46.4015239}, {"type": "node", "id": 5240923493, "lat": 39.2240558, "lon": 46.3368833}, {"type": "node", "id": 5244090224, "lat": 39.2352197, "lon": 46.4282012}, {"type": "node", "id": 5244090225, "lat": 39.2361229, "lon": 46.4276956}, {"type": "node", "id": 5244090226, "lat": 39.2360786, "lon": 46.4286823}, {"type": "node", "id": 5244090227, "lat": 39.2364702, "lon": 46.4287964}, {"type": "node", "id": 5244090228, "lat": 39.236805, "lon": 46.4288698}, {"type": "node", "id": 5244090229, "lat": 39.236786, "lon": 46.4291471}, {"type": "node", "id": 5244090230, "lat": 39.2367987, "lon": 46.4294814}, {"type": "node", "id": 5244090231, "lat": 39.2371903, "lon": 46.4295303}, {"type": "node", "id": 5244090232, "lat": 39.2375755, "lon": 46.4296771}, {"type": "node", "id": 5244090233, "lat": 39.2378155, "lon": 46.4298891}, {"type": "node", "id": 5244090234, "lat": 39.2379229, "lon": 46.4302153}, {"type": "node", "id": 5244090235, "lat": 39.2379671, "lon": 46.430729}, {"type": "node", "id": 5244090236, "lat": 39.2378976, "lon": 46.4313732}, {"type": "node", "id": 5244090237, "lat": 39.2378029, "lon": 46.4315608}, {"type": "node", "id": 5244090238, "lat": 39.2376576, "lon": 46.4318299}, {"type": "node", "id": 5244090239, "lat": 39.2375313, "lon": 46.4320175}, {"type": "node", "id": 5244090240, "lat": 39.2382766, "lon": 46.4326617}, {"type": "node", "id": 5244090241, "lat": 39.2382766, "lon": 46.4331346}, {"type": "node", "id": 5244090242, "lat": 39.2381692, "lon": 46.4336402}, {"type": "node", "id": 5244090243, "lat": 39.2379734, "lon": 46.4337544}, {"type": "node", "id": 5244090244, "lat": 39.2377776, "lon": 46.4338033}, {"type": "node", "id": 5244090245, "lat": 39.2373924, "lon": 46.4338685}, {"type": "node", "id": 5244090246, "lat": 39.236925, "lon": 46.4339174}, {"type": "node", "id": 5244090247, "lat": 39.2366597, "lon": 46.4338685}, {"type": "node", "id": 5244090248, "lat": 39.2364134, "lon": 46.4336973}, {"type": "node", "id": 5244090249, "lat": 39.2359965, "lon": 46.433738}, {"type": "node", "id": 5244090250, "lat": 39.2355165, "lon": 46.4336483}, {"type": "node", "id": 5244090251, "lat": 39.2350112, "lon": 46.4335994}, {"type": "node", "id": 5244090252, "lat": 39.2345565, "lon": 46.4335342}, {"type": "node", "id": 5244090253, "lat": 39.2341207, "lon": 46.4330612}, {"type": "node", "id": 5244090254, "lat": 39.2335017, "lon": 46.4318951}, {"type": "node", "id": 5244090255, "lat": 39.2333564, "lon": 46.431626}, {"type": "node", "id": 5244090256, "lat": 39.2332869, "lon": 46.4313488}, {"type": "node", "id": 5244090257, "lat": 39.2333943, "lon": 46.4310552}, {"type": "node", "id": 5244090258, "lat": 39.2336785, "lon": 46.4307127}, {"type": "node", "id": 5244090259, "lat": 39.2341017, "lon": 46.4304844}, {"type": "node", "id": 5244090260, "lat": 39.2342596, "lon": 46.4300115}, {"type": "node", "id": 5244090261, "lat": 39.2346702, "lon": 46.4291389}, {"type": "node", "id": 5244090262, "lat": 39.2350302, "lon": 46.4284947}, {"type": "node", "id": 5246678191, "lat": 38.8634033, "lon": 46.2000852}, {"type": "node", "id": 5246678192, "lat": 38.8650487, "lon": 46.2016819}, {"type": "node", "id": 5255324645, "lat": 39.2003696, "lon": 46.461823}, {"type": "node", "id": 5255324646, "lat": 39.2005494, "lon": 46.4604797}, {"type": "node", "id": 5303547262, "lat": 38.9203545, "lon": 46.2357043}, {"type": "node", "id": 5310655131, "lat": 39.0586126, "lon": 46.1760038}, {"type": "node", "id": 5310655132, "lat": 39.0574838, "lon": 46.1768568}, {"type": "node", "id": 5310655133, "lat": 39.0584127, "lon": 46.1771893}, {"type": "node", "id": 5310655712, "lat": 39.0651896, "lon": 46.1718303}, {"type": "node", "id": 5314667078, "lat": 38.8585913, "lon": 46.2113822}, {"type": "node", "id": 5314667079, "lat": 38.858324, "lon": 46.21194}, {"type": "node", "id": 5314667080, "lat": 38.8569371, "lon": 46.2112212}, {"type": "node", "id": 5314667081, "lat": 38.8586498, "lon": 46.2108457}, {"type": "node", "id": 5314667082, "lat": 38.8544724, "lon": 46.2042045}, {"type": "node", "id": 5314667083, "lat": 38.8547983, "lon": 46.2065434}, {"type": "node", "id": 5314667084, "lat": 38.8555084, "lon": 46.2089789}, {"type": "node", "id": 5314667085, "lat": 38.8551575, "lon": 46.2039149}, {"type": "node", "id": 5314667086, "lat": 38.860162, "lon": 46.2081742}, {"type": "node", "id": 5314667087, "lat": 38.8566363, "lon": 46.2040973}, {"type": "node", "id": 5314667088, "lat": 38.85809, "lon": 46.2030351}, {"type": "node", "id": 5314667089, "lat": 38.8591845, "lon": 46.202563}, {"type": "node", "id": 5314667090, "lat": 38.8607051, "lon": 46.2033648}, {"type": "node", "id": 5314667091, "lat": 38.8603422, "lon": 46.2061434}, {"type": "node", "id": 5314667092, "lat": 38.8610028, "lon": 46.2043764}, {"type": "node", "id": 5314667093, "lat": 38.8627499, "lon": 46.2000166}, {"type": "node", "id": 5322385447, "lat": 38.9886729, "lon": 46.2099284}, {"type": "node", "id": 5322385448, "lat": 38.9889773, "lon": 46.2104917}, {"type": "node", "id": 5328396135, "lat": 38.9512367, "lon": 46.1767441}, {"type": "node", "id": 5328396136, "lat": 38.9510198, "lon": 46.1776668}, {"type": "node", "id": 5328396137, "lat": 38.9507778, "lon": 46.1782408}, {"type": "node", "id": 5328396138, "lat": 38.9503544, "lon": 46.1779238}, {"type": "node", "id": 5328396139, "lat": 38.9502694, "lon": 46.1769462}, {"type": "node", "id": 5328396140, "lat": 38.94991, "lon": 46.1768192}, {"type": "node", "id": 5328396141, "lat": 38.9495304, "lon": 46.1759126}, {"type": "node", "id": 5328396142, "lat": 38.9493802, "lon": 46.1756498}, {"type": "node", "id": 5328396143, "lat": 38.9498683, "lon": 46.1753547}, {"type": "node", "id": 5328396144, "lat": 38.9499518, "lon": 46.1749095}, {"type": "node", "id": 5328396145, "lat": 38.9501687, "lon": 46.1746198}, {"type": "node", "id": 5328396146, "lat": 38.9504274, "lon": 46.1741155}, {"type": "node", "id": 5328396147, "lat": 38.9506443, "lon": 46.1733645}, {"type": "node", "id": 5328396148, "lat": 38.9510562, "lon": 46.1728951}, {"type": "node", "id": 5328396149, "lat": 38.9517686, "lon": 46.1737052}, {"type": "node", "id": 5328396150, "lat": 38.9515329, "lon": 46.1743569}, {"type": "node", "id": 5328396151, "lat": 38.9515621, "lon": 46.1749953}, {"type": "node", "id": 5328396152, "lat": 38.9514244, "lon": 46.175741}, {"type": "node", "id": 5328396153, "lat": 38.9514203, "lon": 46.1765349}, {"type": "node", "id": 5328397326, "lat": 38.9387202, "lon": 46.177597}, {"type": "node", "id": 5328397327, "lat": 38.938449, "lon": 46.1776507}, {"type": "node", "id": 5328397328, "lat": 38.9379065, "lon": 46.17764}, {"type": "node", "id": 5328397329, "lat": 38.9379357, "lon": 46.1768889}, {"type": "node", "id": 5328397330, "lat": 38.9383928, "lon": 46.1762929}, {"type": "node", "id": 5328397331, "lat": 38.9387331, "lon": 46.1761227}, {"type": "node", "id": 5328397332, "lat": 38.939321, "lon": 46.175985}, {"type": "node", "id": 5328397333, "lat": 38.9398228, "lon": 46.1758563}, {"type": "node", "id": 5328397334, "lat": 38.9403391, "lon": 46.1760467}, {"type": "node", "id": 5328397335, "lat": 38.940773, "lon": 46.1767495}, {"type": "node", "id": 5328397336, "lat": 38.9408857, "lon": 46.1771089}, {"type": "node", "id": 5328397337, "lat": 38.9406645, "lon": 46.1785787}, {"type": "node", "id": 5328397338, "lat": 38.9410609, "lon": 46.1796409}, {"type": "node", "id": 5328397339, "lat": 38.9408899, "lon": 46.1806977}, {"type": "node", "id": 5328397340, "lat": 38.94041, "lon": 46.1811483}, {"type": "node", "id": 5328397341, "lat": 38.9395088, "lon": 46.1812288}, {"type": "node", "id": 5328397342, "lat": 38.939175, "lon": 46.1806387}, {"type": "node", "id": 5328397343, "lat": 38.9391499, "lon": 46.1799413}, {"type": "node", "id": 5328397344, "lat": 38.9388328, "lon": 46.178745}, {"type": "node", "id": 5328397345, "lat": 38.9386951, "lon": 46.1778867}, {"type": "node", "id": 5334069456, "lat": 39.1587837, "lon": 46.200192}, {"type": "node", "id": 5334069457, "lat": 39.1588919, "lon": 46.2010503}, {"type": "node", "id": 5334069458, "lat": 39.1594493, "lon": 46.2024021}, {"type": "node", "id": 5334069459, "lat": 39.1589168, "lon": 46.2033999}, {"type": "node", "id": 5334069460, "lat": 39.157669, "lon": 46.203357}, {"type": "node", "id": 5334069461, "lat": 39.1570783, "lon": 46.2026918}, {"type": "node", "id": 5334069462, "lat": 39.1569452, "lon": 46.2014687}, {"type": "node", "id": 5334069463, "lat": 39.1555891, "lon": 46.1996663}, {"type": "node", "id": 5334069464, "lat": 39.1550816, "lon": 46.1984861}, {"type": "node", "id": 5334069465, "lat": 39.1551232, "lon": 46.1980677}, {"type": "node", "id": 5334069466, "lat": 39.156288, "lon": 46.1975205}, {"type": "node", "id": 5334069467, "lat": 39.1570949, "lon": 46.1976063}, {"type": "node", "id": 5334069468, "lat": 39.1576191, "lon": 46.1969089}, {"type": "node", "id": 5334069469, "lat": 39.1588919, "lon": 46.1966944}, {"type": "node", "id": 5334069470, "lat": 39.1596156, "lon": 46.1984217}, {"type": "node", "id": 5334069471, "lat": 39.1588836, "lon": 46.1994624}, {"type": "node", "id": 5340852217, "lat": 38.8903815, "lon": 46.2525487}, {"type": "node", "id": 5677730348, "lat": 39.1581223, "lon": 46.1262488, "tags": {"is_in:country": "Armenia", "is_in:country_code": "AM", "is_in:municipality": "\u0554\u0561\u057b\u0561\u0580\u0561\u0576\u056b \u0570\u0561\u0574\u0561\u0575\u0576\u0584", "is_in:region": "\u054d\u0575\u0578\u0582\u0576\u056b\u0584\u056b \u0574\u0561\u0580\u0566", "name": "\u0554\u0561\u057b\u0561\u0580\u0561\u0576\u0581", "name:en": "Kajarants", "name:fa": "\u06a9\u0627\u062c\u0627\u0631\u0627\u0646", "name:hy": "\u0554\u0561\u057b\u0561\u0580\u0561\u0576\u0581", "name:ru": "\u041a\u0430\u0434\u0436\u0430\u0440\u0430\u043d\u0446", "place": "village", "population": "196", "population:date": "2022-01-01", "source:population": "Armstat", "wikidata": "Q2090580", "wikipedia": "en:Kajaran (village)"}}, {"type": "node", "id": 5677730349, "lat": 39.1548833, "lon": 46.1363719}, {"type": "node", "id": 5677730350, "lat": 39.1553063, "lon": 46.1375141}, {"type": "node", "id": 5677730351, "lat": 39.1546573, "lon": 46.1439943}, {"type": "node", "id": 5677730352, "lat": 39.1516955, "lon": 46.140604}, {"type": "node", "id": 5677730353, "lat": 39.1574277, "lon": 46.132729}, {"type": "node", "id": 5714036734, "lat": 39.2128955, "lon": 46.4075972}, {"type": "node", "id": 5714036735, "lat": 39.2111593, "lon": 46.408912}, {"type": "node", "id": 5714036736, "lat": 39.2118759, "lon": 46.4090378}, {"type": "node", "id": 5714036737, "lat": 39.2124763, "lon": 46.408406}, {"type": "node", "id": 6165796328, "lat": 38.8791748, "lon": 46.128313, "tags": {"abandoned": "village", "name": "Kilit", "name:az": "Kilit", "place": "village", "population": "0", "wikidata": "Q24886988", "wikipedia": "az:Kilit"}}, {"type": "node", "id": 6165796329, "lat": 38.8802052, "lon": 46.1293535}, {"type": "node", "id": 6165796330, "lat": 38.8799793, "lon": 46.130387}, {"type": "node", "id": 6165796331, "lat": 38.8790701, "lon": 46.1296933}, {"type": "node", "id": 6165796332, "lat": 38.8778027, "lon": 46.1273574}, {"type": "node", "id": 6165796333, "lat": 38.8787891, "lon": 46.1261116}, {"type": "node", "id": 6165796334, "lat": 38.8798361, "lon": 46.1282634}, {"type": "node", "id": 6165796335, "lat": 38.8782243, "lon": 46.126685}, {"type": "node", "id": 6165796336, "lat": 38.8785067, "lon": 46.1263275}, {"type": "node", "id": 6165796337, "lat": 38.8793511, "lon": 46.1268336}, {"type": "node", "id": 6332485352, "lat": 38.8609947, "lon": 46.198216}, {"type": "node", "id": 6502280645, "lat": 38.8595328, "lon": 46.1916638}, {"type": "node", "id": 6749197790, "lat": 38.9210326, "lon": 46.4366502}, {"type": "node", "id": 6749197791, "lat": 38.9207217, "lon": 46.4356202}, {"type": "node", "id": 6749197792, "lat": 38.9201708, "lon": 46.4352581}, {"type": "node", "id": 6749197793, "lat": 38.9195468, "lon": 46.4350677}, {"type": "node", "id": 6749197794, "lat": 38.9190084, "lon": 46.4346546}, {"type": "node", "id": 6749197795, "lat": 38.9185159, "lon": 46.4337721}, {"type": "node", "id": 6749197796, "lat": 38.9172012, "lon": 46.4358696}, {"type": "node", "id": 6749197797, "lat": 38.9172951, "lon": 46.4351776}, {"type": "node", "id": 6749197798, "lat": 38.9171782, "lon": 46.4338526}, {"type": "node", "id": 6749197799, "lat": 38.9176457, "lon": 46.432997}, {"type": "node", "id": 6749197800, "lat": 38.918205, "lon": 46.4331928}, {"type": "node", "id": 7203779382, "lat": 38.9386922, "lon": 46.2146805}, {"type": "node", "id": 7280492804, "lat": 39.1826057, "lon": 46.4131057}, {"type": "node", "id": 7604382625, "lat": 38.9399866, "lon": 46.3476203}, {"type": "node", "id": 7604382661, "lat": 38.9382265, "lon": 46.3522337}, {"type": "node", "id": 7604386116, "lat": 38.9343368, "lon": 46.345357}, {"type": "node", "id": 7604386117, "lat": 38.9349763, "lon": 46.3445823}, {"type": "node", "id": 8041835204, "lat": 39.2053498, "lon": 46.4478438}, {"type": "node", "id": 8065176773, "lat": 39.2291574, "lon": 46.3300994}, {"type": "node", "id": 8186543958, "lat": 38.9994506, "lon": 46.2999326}, {"type": "node", "id": 8186543959, "lat": 38.9986876, "lon": 46.3003296}, {"type": "node", "id": 8186543960, "lat": 38.9979872, "lon": 46.299777}, {"type": "node", "id": 8186543961, "lat": 38.997883, "lon": 46.2986344}, {"type": "node", "id": 8186543962, "lat": 38.9989503, "lon": 46.2979907}, {"type": "node", "id": 8186543963, "lat": 38.9997382, "lon": 46.2980765}, {"type": "node", "id": 8186543964, "lat": 39.0001092, "lon": 46.2988597}, {"type": "node", "id": 8240346376, "lat": 39.1994707, "lon": 46.4655564}, {"type": "node", "id": 8240346378, "lat": 39.2005074, "lon": 46.4544802}, {"type": "node", "id": 8240346392, "lat": 39.2007367, "lon": 46.4498691}, {"type": "node", "id": 8284330712, "lat": 39.223467, "lon": 46.1498477}, {"type": "node", "id": 8284330713, "lat": 39.220159, "lon": 46.1513712}, {"type": "node", "id": 8284330714, "lat": 39.2191948, "lon": 46.1540319}, {"type": "node", "id": 8284330715, "lat": 39.2188623, "lon": 46.157036}, {"type": "node", "id": 8284330716, "lat": 39.2214556, "lon": 46.1571218}, {"type": "node", "id": 8284335867, "lat": 39.2292607, "lon": 46.5526163}, {"type": "node", "id": 8284335868, "lat": 39.2300795, "lon": 46.5530392}, {"type": "node", "id": 8284335869, "lat": 39.2306716, "lon": 46.5544052}, {"type": "node", "id": 8284335870, "lat": 39.2301551, "lon": 46.5570884}, {"type": "node", "id": 8284335871, "lat": 39.2277239, "lon": 46.5587308}, {"type": "node", "id": 8284335872, "lat": 39.227409, "lon": 46.5610725}, {"type": "node", "id": 8284335873, "lat": 39.227157, "lon": 46.5618694}, {"type": "node", "id": 8284335874, "lat": 39.2262248, "lon": 46.5641623}, {"type": "node", "id": 8284335875, "lat": 39.2254312, "lon": 46.5641135}, {"type": "node", "id": 8284335876, "lat": 39.2249273, "lon": 46.5615116}, {"type": "node", "id": 8284335877, "lat": 39.2240077, "lon": 46.5584381}, {"type": "node", "id": 8284335878, "lat": 39.2240707, "lon": 46.5576413}, {"type": "node", "id": 8284335879, "lat": 39.2248769, "lon": 46.5566656}, {"type": "node", "id": 8284335880, "lat": 39.2249777, "lon": 46.555267}, {"type": "node", "id": 8284335881, "lat": 39.2259729, "lon": 46.5544865}, {"type": "node", "id": 8284335882, "lat": 39.2275098, "lon": 46.553901}, {"type": "node", "id": 8284335883, "lat": 39.2385054, "lon": 46.5409681}, {"type": "node", "id": 8284335884, "lat": 39.2377576, "lon": 46.5428993}, {"type": "node", "id": 8284335885, "lat": 39.2364778, "lon": 46.5416762}, {"type": "node", "id": 8284335886, "lat": 39.2364114, "lon": 46.5426632}, {"type": "node", "id": 8284335887, "lat": 39.2359626, "lon": 46.5431568}, {"type": "node", "id": 8284335888, "lat": 39.2334696, "lon": 46.5416762}, {"type": "node", "id": 8284335889, "lat": 39.2333366, "lon": 46.5400883}, {"type": "node", "id": 8284335890, "lat": 39.234633, "lon": 46.5394231}, {"type": "node", "id": 8284335891, "lat": 39.235946, "lon": 46.5382215}, {"type": "node", "id": 8284335892, "lat": 39.2367604, "lon": 46.5386507}, {"type": "node", "id": 8284335893, "lat": 39.2378573, "lon": 46.5403458}, {"type": "node", "id": 8284335903, "lat": 39.2427953, "lon": 46.4990699}, {"type": "node", "id": 8284335904, "lat": 39.2415945, "lon": 46.4987617}, {"type": "node", "id": 8284335905, "lat": 39.2412618, "lon": 46.4983134}, {"type": "node", "id": 8284335906, "lat": 39.2411967, "lon": 46.4998451}, {"type": "node", "id": 8284335907, "lat": 39.2409869, "lon": 46.5003075}, {"type": "node", "id": 8284335908, "lat": 39.2399482, "lon": 46.4989878}, {"type": "node", "id": 8284335909, "lat": 39.2393748, "lon": 46.4996959}, {"type": "node", "id": 8284335910, "lat": 39.2400147, "lon": 46.5012516}, {"type": "node", "id": 8284335911, "lat": 39.240962, "lon": 46.5017451}, {"type": "node", "id": 8284335912, "lat": 39.2415852, "lon": 46.5027}, {"type": "node", "id": 8284335913, "lat": 39.2425241, "lon": 46.5041484}, {"type": "node", "id": 8284335914, "lat": 39.2443023, "lon": 46.5047707}, {"type": "node", "id": 8284335915, "lat": 39.2442939, "lon": 46.5043737}, {"type": "node", "id": 8284335916, "lat": 39.2425158, "lon": 46.5031399}, {"type": "node", "id": 8284339217, "lat": 39.2223533, "lon": 46.1600615}, {"type": "node", "id": 8284339218, "lat": 39.223733, "lon": 46.1590101}, {"type": "node", "id": 8284339219, "lat": 39.2248633, "lon": 46.1566498}, {"type": "node", "id": 8284339220, "lat": 39.2247303, "lon": 46.1541177}, {"type": "node", "id": 8284339221, "lat": 39.2239158, "lon": 46.1530663}, {"type": "node", "id": 8284341481, "lat": 39.0600495, "lon": 46.5268399}, {"type": "node", "id": 8284341482, "lat": 39.0593929, "lon": 46.5277831}, {"type": "node", "id": 8284341483, "lat": 39.0585848, "lon": 46.5276042}, {"type": "node", "id": 8284341484, "lat": 39.0560845, "lon": 46.5228882}, {"type": "node", "id": 8284341485, "lat": 39.0542913, "lon": 46.5206278}, {"type": "node", "id": 8284341486, "lat": 39.0538872, "lon": 46.5194082}, {"type": "node", "id": 8284341487, "lat": 39.0551374, "lon": 46.518774}, {"type": "node", "id": 8284341488, "lat": 39.0566105, "lon": 46.5199442}, {"type": "node", "id": 8284341489, "lat": 39.0575639, "lon": 46.5203751}, {"type": "node", "id": 8284341490, "lat": 39.058372, "lon": 46.5211394}, {"type": "node", "id": 8284341491, "lat": 39.0589782, "lon": 46.5222127}, {"type": "node", "id": 8284341492, "lat": 39.0585488, "lon": 46.5235055}, {"type": "node", "id": 8284341863, "lat": 39.0811496, "lon": 46.4992959}, {"type": "node", "id": 8284341864, "lat": 39.0769764, "lon": 46.4992979}, {"type": "node", "id": 8284341865, "lat": 39.0805389, "lon": 46.5013516}, {"type": "node", "id": 8284341866, "lat": 39.0806706, "lon": 46.4981512}, {"type": "node", "id": 8284352417, "lat": 39.2421003, "lon": 46.5022494}, {"type": "node", "id": 8284352418, "lat": 39.242549, "lon": 46.5014769}, {"type": "node", "id": 8284352419, "lat": 39.2423329, "lon": 46.5004969}, {"type": "node", "id": 8284352486, "lat": 39.2319575, "lon": 46.4760167}, {"type": "node", "id": 8284352487, "lat": 39.2319647, "lon": 46.4770068}, {"type": "node", "id": 8284352488, "lat": 39.2311399, "lon": 46.4782116}, {"type": "node", "id": 8284352489, "lat": 39.2300547, "lon": 46.4769787}, {"type": "node", "id": 8284352490, "lat": 39.2287452, "lon": 46.4764931}, {"type": "node", "id": 8284352491, "lat": 39.2284486, "lon": 46.4769881}, {"type": "node", "id": 8284352492, "lat": 39.228, "lon": 46.4767546}, {"type": "node", "id": 8284352493, "lat": 39.2284051, "lon": 46.4756525}, {"type": "node", "id": 8284352494, "lat": 39.2294687, "lon": 46.4758299}, {"type": "node", "id": 8284352495, "lat": 39.2298015, "lon": 46.4751574}, {"type": "node", "id": 8284352496, "lat": 39.230648, "lon": 46.475064}, {"type": "node", "id": 8284352497, "lat": 39.2313136, "lon": 46.4752415}, {"type": "node", "id": 8284352498, "lat": 39.2310314, "lon": 46.4758486}, {"type": "node", "id": 8284352499, "lat": 39.2311978, "lon": 46.4763716}, {"type": "node", "id": 8284352500, "lat": 39.2316247, "lon": 46.4760447}, {"type": "node", "id": 8431826336, "lat": 39.2119456, "lon": 46.3811846}, {"type": "node", "id": 8559561772, "lat": 39.2056048, "lon": 46.245768}, {"type": "node", "id": 8559561773, "lat": 39.2077331, "lon": 46.2430644}, {"type": "node", "id": 8559561774, "lat": 39.2103434, "lon": 46.2413692}, {"type": "node", "id": 8559561775, "lat": 39.214697, "lon": 46.2387077}, {"type": "node", "id": 8559561776, "lat": 39.2134358, "lon": 46.2413907}, {"type": "node", "id": 8559561777, "lat": 39.2128207, "lon": 46.2424421}, {"type": "node", "id": 8559561778, "lat": 39.2116569, "lon": 46.2435365}, {"type": "node", "id": 8559561779, "lat": 39.2100442, "lon": 46.2441587}, {"type": "node", "id": 8559561780, "lat": 39.2079492, "lon": 46.2469482}, {"type": "node", "id": 8559561781, "lat": 39.2070181, "lon": 46.2481928}, {"type": "node", "id": 8559561790, "lat": 39.2122471, "lon": 46.2761736}, {"type": "node", "id": 8559561791, "lat": 39.2119478, "lon": 46.274575}, {"type": "node", "id": 8559561792, "lat": 39.2113825, "lon": 46.2731159}, {"type": "node", "id": 8559561793, "lat": 39.2106094, "lon": 46.2723648}, {"type": "node", "id": 8559561794, "lat": 39.2088886, "lon": 46.2715709}, {"type": "node", "id": 8559561795, "lat": 39.2066939, "lon": 46.2697363}, {"type": "node", "id": 8559561796, "lat": 39.2041915, "lon": 46.2678909}, {"type": "node", "id": 8559561797, "lat": 39.202404, "lon": 46.2662172}, {"type": "node", "id": 8559561798, "lat": 39.201265, "lon": 46.2659812}, {"type": "node", "id": 8559561799, "lat": 39.201398, "lon": 46.2667966}, {"type": "node", "id": 8559561800, "lat": 39.2022045, "lon": 46.2681484}, {"type": "node", "id": 8559561801, "lat": 39.2033186, "lon": 46.2692857}, {"type": "node", "id": 8559561802, "lat": 39.2044409, "lon": 46.2704229}, {"type": "node", "id": 8559561803, "lat": 39.205688, "lon": 46.2715602}, {"type": "node", "id": 8559561804, "lat": 39.2070015, "lon": 46.2723756}, {"type": "node", "id": 8559561805, "lat": 39.2082485, "lon": 46.2738883}, {"type": "node", "id": 8559561806, "lat": 39.2093126, "lon": 46.2766242}, {"type": "node", "id": 8559561807, "lat": 39.2106676, "lon": 46.2776542}, {"type": "node", "id": 8559561808, "lat": 39.211341, "lon": 46.2774718}, {"type": "node", "id": 8559561809, "lat": 39.2120808, "lon": 46.2767959}, {"type": "node", "id": 8559561810, "lat": 39.2093459, "lon": 46.4836371}, {"type": "node", "id": 8559561811, "lat": 39.2096701, "lon": 46.4828539}, {"type": "node", "id": 8559561812, "lat": 39.2095703, "lon": 46.4816522}, {"type": "node", "id": 8559561813, "lat": 39.2089219, "lon": 46.4812767}, {"type": "node", "id": 8559561814, "lat": 39.2079243, "lon": 46.4814913}, {"type": "node", "id": 8559561815, "lat": 39.2071678, "lon": 46.4814216}, {"type": "node", "id": 8559561816, "lat": 39.2055882, "lon": 46.4808636}, {"type": "node", "id": 8559567317, "lat": 39.2057462, "lon": 46.4800268}, {"type": "node", "id": 8559567318, "lat": 39.2054219, "lon": 46.4793026}, {"type": "node", "id": 8559567319, "lat": 39.2048566, "lon": 46.479013}, {"type": "node", "id": 8559567320, "lat": 39.2039255, "lon": 46.4789808}, {"type": "node", "id": 8559567321, "lat": 39.2027158, "lon": 46.4791444}, {"type": "node", "id": 8559567322, "lat": 39.2020216, "lon": 46.4802039}, {"type": "node", "id": 8559567323, "lat": 39.2022627, "lon": 46.4811909}, {"type": "node", "id": 8559567324, "lat": 39.2029528, "lon": 46.4820599}, {"type": "node", "id": 8559567325, "lat": 39.2040918, "lon": 46.4821458}, {"type": "node", "id": 8559567326, "lat": 39.2054885, "lon": 46.4823496}, {"type": "node", "id": 8559567327, "lat": 39.2069683, "lon": 46.4830255}, {"type": "node", "id": 8559567328, "lat": 39.2088221, "lon": 46.4839697}, {"type": "node", "id": 8559567329, "lat": 39.1984548, "lon": 46.4717066}, {"type": "node", "id": 8559567332, "lat": 39.1991234, "lon": 46.4671948}, {"type": "node", "id": 8559567333, "lat": 39.2016267, "lon": 46.4669967}, {"type": "node", "id": 8559567334, "lat": 39.2023667, "lon": 46.4660579}, {"type": "node", "id": 8559567335, "lat": 39.2025537, "lon": 46.462791}, {"type": "node", "id": 8559567336, "lat": 39.2029611, "lon": 46.4609241}, {"type": "node", "id": 8559567337, "lat": 39.2036179, "lon": 46.4595401}, {"type": "node", "id": 8559567338, "lat": 39.2049896, "lon": 46.4591753}, {"type": "node", "id": 8559567339, "lat": 39.2058127, "lon": 46.4603877}, {"type": "node", "id": 8559567340, "lat": 39.206245, "lon": 46.4615893}, {"type": "node", "id": 8559567341, "lat": 39.2065775, "lon": 46.4630377}, {"type": "node", "id": 8559567342, "lat": 39.2082818, "lon": 46.4648831}, {"type": "node", "id": 8559567343, "lat": 39.2098613, "lon": 46.4661491}, {"type": "node", "id": 8559567344, "lat": 39.2098446, "lon": 46.4671683}, {"type": "node", "id": 8559567345, "lat": 39.2091713, "lon": 46.4680588}, {"type": "node", "id": 8559567346, "lat": 39.2079742, "lon": 46.4689064}, {"type": "node", "id": 8559567347, "lat": 39.2068519, "lon": 46.4682734}, {"type": "node", "id": 8559567348, "lat": 39.2057794, "lon": 46.4681339}, {"type": "node", "id": 8559567349, "lat": 39.2047153, "lon": 46.4694643}, {"type": "node", "id": 8559567350, "lat": 39.2043079, "lon": 46.4716959}, {"type": "node", "id": 8559567351, "lat": 39.2042331, "lon": 46.4737129}, {"type": "node", "id": 8559567352, "lat": 39.2025786, "lon": 46.4742279}, {"type": "node", "id": 8559567353, "lat": 39.2006415, "lon": 46.4742172}, {"type": "node", "id": 8559567354, "lat": 39.1990617, "lon": 46.4736915}, {"type": "node", "id": 8786327653, "lat": 38.8484319, "lon": 46.1957343}, {"type": "node", "id": 8786327654, "lat": 38.8493004, "lon": 46.1951421}, {"type": "node", "id": 9006194915, "lat": 38.8578249, "lon": 46.2119565}, {"type": "node", "id": 9006194916, "lat": 38.858216, "lon": 46.2122594}, {"type": "node", "id": 9253105586, "lat": 39.2266075, "lon": 46.40395}, {"type": "node", "id": 9253105587, "lat": 39.2246567, "lon": 46.4028003}, {"type": "node", "id": 9253105588, "lat": 39.2233152, "lon": 46.4012056}, {"type": "node", "id": 9253105589, "lat": 39.2251883, "lon": 46.4032405}, {"type": "node", "id": 9253105590, "lat": 39.2280331, "lon": 46.4043888}, {"type": "node", "id": 9253105591, "lat": 39.2286406, "lon": 46.4050612}, {"type": "node", "id": 9253105592, "lat": 39.2299263, "lon": 46.4052487}, {"type": "node", "id": 9253105593, "lat": 39.230981, "lon": 46.405136}, {"type": "node", "id": 9253105594, "lat": 39.2303475, "lon": 46.4040551}, {"type": "node", "id": 9253105595, "lat": 39.2295791, "lon": 46.4031103}, {"type": "node", "id": 9253105596, "lat": 39.2275986, "lon": 46.4018979}, {"type": "node", "id": 9253105597, "lat": 39.2272624, "lon": 46.4014892}, {"type": "node", "id": 9253105598, "lat": 39.2272935, "lon": 46.4008781}, {"type": "node", "id": 9253105599, "lat": 39.2278325, "lon": 46.4004929}, {"type": "node", "id": 9253105600, "lat": 39.2281668, "lon": 46.3998908}, {"type": "node", "id": 9253105601, "lat": 39.228142, "lon": 46.398141}, {"type": "node", "id": 9253105602, "lat": 39.2276459, "lon": 46.3978289}, {"type": "node", "id": 9253105603, "lat": 39.2286492, "lon": 46.3968527}, {"type": "node", "id": 9253105604, "lat": 39.2285654, "lon": 46.3961204}, {"type": "node", "id": 9253105605, "lat": 39.2300773, "lon": 46.3955427}, {"type": "node", "id": 9253105606, "lat": 39.2340734, "lon": 46.3915361}, {"type": "node", "id": 9253105607, "lat": 39.2350705, "lon": 46.3843064}, {"type": "node", "id": 9253105608, "lat": 39.2232365, "lon": 46.3950792}, {"type": "node", "id": 9253105609, "lat": 39.2312067, "lon": 46.3877229}, {"type": "node", "id": 9253105610, "lat": 39.23202, "lon": 46.3848713}, {"type": "node", "id": 9253105611, "lat": 39.2425572, "lon": 46.3850206}, {"type": "node", "id": 9253105612, "lat": 39.2416819, "lon": 46.3929966}, {"type": "node", "id": 9253105613, "lat": 39.2374196, "lon": 46.3908313}, {"type": "node", "id": 9253105614, "lat": 39.2430675, "lon": 46.3949487}, {"type": "node", "id": 9253105615, "lat": 39.2464717, "lon": 46.3932874}, {"type": "node", "id": 9253105616, "lat": 39.2465254, "lon": 46.3920546}, {"type": "node", "id": 9253119928, "lat": 39.1838428, "lon": 46.3816478}, {"type": "node", "id": 9253119929, "lat": 39.1828373, "lon": 46.3708757}, {"type": "node", "id": 9253119930, "lat": 39.1807787, "lon": 46.3706677}, {"type": "node", "id": 9253119931, "lat": 39.1791212, "lon": 46.3704493}, {"type": "node", "id": 9253119932, "lat": 39.1774841, "lon": 46.3731473}, {"type": "node", "id": 9253119933, "lat": 39.1766565, "lon": 46.3750213}, {"type": "node", "id": 9253119934, "lat": 39.1777295, "lon": 46.3766576}, {"type": "node", "id": 9253119935, "lat": 39.1807792, "lon": 46.3780123}, {"type": "node", "id": 9253122117, "lat": 39.2487205, "lon": 46.3907183}, {"type": "node", "id": 9253122118, "lat": 39.2487076, "lon": 46.388107}, {"type": "node", "id": 9253122119, "lat": 39.2464884, "lon": 46.3887501}, {"type": "node", "id": 9253122120, "lat": 39.2442672, "lon": 46.3882537}, {"type": "node", "id": 9253122121, "lat": 39.2441217, "lon": 46.3879785}, {"type": "node", "id": 9253122122, "lat": 39.244874, "lon": 46.3858931}, {"type": "node", "id": 9253122123, "lat": 39.243931, "lon": 46.3851637}, {"type": "node", "id": 9253122124, "lat": 39.2470085, "lon": 46.3882357}, {"type": "node", "id": 9253122125, "lat": 39.241441, "lon": 46.3805599}, {"type": "node", "id": 9253122126, "lat": 39.2431242, "lon": 46.3798061}, {"type": "node", "id": 9253122127, "lat": 39.2438031, "lon": 46.381469}, {"type": "node", "id": 9253122128, "lat": 39.2427481, "lon": 46.3832019}, {"type": "node", "id": 9253122129, "lat": 39.2395432, "lon": 46.3821948}, {"type": "node", "id": 9253122130, "lat": 39.210617, "lon": 46.4240155}, {"type": "node", "id": 9253122131, "lat": 39.2129169, "lon": 46.4222772}, {"type": "node", "id": 9253122132, "lat": 39.2126535, "lon": 46.4216113}, {"type": "node", "id": 9253122133, "lat": 39.2114174, "lon": 46.4215292}, {"type": "node", "id": 9253122134, "lat": 39.2113002, "lon": 46.4207426}, {"type": "node", "id": 9253122135, "lat": 39.2120112, "lon": 46.4198503}, {"type": "node", "id": 9253122136, "lat": 39.213059, "lon": 46.4181805}, {"type": "node", "id": 9253122137, "lat": 39.2140533, "lon": 46.4182008}, {"type": "node", "id": 9253122138, "lat": 39.2115104, "lon": 46.4143734}, {"type": "node", "id": 9253122139, "lat": 39.2082273, "lon": 46.4162567}, {"type": "node", "id": 9253122140, "lat": 39.2079451, "lon": 46.4160164}, {"type": "node", "id": 9253122141, "lat": 39.2075868, "lon": 46.4160081}, {"type": "node", "id": 9253122142, "lat": 39.2073443, "lon": 46.4165413}, {"type": "node", "id": 9253122143, "lat": 39.2129011, "lon": 46.4133108}, {"type": "node", "id": 9253122144, "lat": 39.2118357, "lon": 46.4139352}, {"type": "node", "id": 9253122145, "lat": 39.2137371, "lon": 46.4121118}, {"type": "node", "id": 9253122146, "lat": 39.2144137, "lon": 46.4119814}, {"type": "node", "id": 9253122147, "lat": 39.2154841, "lon": 46.4127951}, {"type": "node", "id": 9253122148, "lat": 39.2178638, "lon": 46.4134195}, {"type": "node", "id": 9253122149, "lat": 39.2184373, "lon": 46.4142431}, {"type": "node", "id": 9253122150, "lat": 39.2173891, "lon": 46.4181927}, {"type": "node", "id": 9253122151, "lat": 39.2184945, "lon": 46.4156102}, {"type": "node", "id": 9253122152, "lat": 39.214286, "lon": 46.4198307}, {"type": "node", "id": 9253122153, "lat": 39.2162971, "lon": 46.4187692}, {"type": "node", "id": 9253122154, "lat": 39.2162587, "lon": 46.4197067}, {"type": "node", "id": 9253122155, "lat": 39.2016194, "lon": 46.4669735}, {"type": "node", "id": 9253122156, "lat": 39.1991125, "lon": 46.467206}, {"type": "node", "id": 9253122157, "lat": 39.2031313, "lon": 46.4642084}, {"type": "node", "id": 9253122158, "lat": 39.2040578, "lon": 46.4638961}, {"type": "node", "id": 9253122159, "lat": 39.2074417, "lon": 46.4572416}, {"type": "node", "id": 9253122160, "lat": 39.2065337, "lon": 46.4556112}, {"type": "node", "id": 9253122161, "lat": 39.2063498, "lon": 46.4548703}, {"type": "node", "id": 9253122162, "lat": 39.2048817, "lon": 46.4546719}, {"type": "node", "id": 9253122163, "lat": 39.1920447, "lon": 46.3779157}, {"type": "node", "id": 9253122164, "lat": 39.1846389, "lon": 46.3706971}, {"type": "node", "id": 9253149704, "lat": 39.1908808, "lon": 46.3956464}, {"type": "node", "id": 9253149705, "lat": 39.1856624, "lon": 46.400317}, {"type": "node", "id": 9253149706, "lat": 39.1876206, "lon": 46.3952173}, {"type": "node", "id": 9253149707, "lat": 39.184313, "lon": 46.3977296}, {"type": "node", "id": 9253170573, "lat": 39.2236018, "lon": 46.3319176}, {"type": "node", "id": 9253170574, "lat": 39.2246303, "lon": 46.3283296}, {"type": "node", "id": 9253170575, "lat": 39.2265822, "lon": 46.3279983}, {"type": "node", "id": 9253170576, "lat": 39.2283838, "lon": 46.3291196}, {"type": "node", "id": 9253170577, "lat": 39.2292723, "lon": 46.3300222}, {"type": "node", "id": 9253170578, "lat": 39.229265, "lon": 46.3317454}, {"type": "node", "id": 9253170579, "lat": 39.2298985, "lon": 46.3323227}, {"type": "node", "id": 9253170580, "lat": 39.230997, "lon": 46.3325998}, {"type": "node", "id": 9253170581, "lat": 39.2319219, "lon": 46.3323095}, {"type": "node", "id": 9253170582, "lat": 39.2326963, "lon": 46.3375482}, {"type": "node", "id": 9253170583, "lat": 39.2324492, "lon": 46.3316522}, {"type": "node", "id": 9253170584, "lat": 39.2337976, "lon": 46.3316253}, {"type": "node", "id": 9253170585, "lat": 39.2346618, "lon": 46.3314368}, {"type": "node", "id": 9253170586, "lat": 39.2359563, "lon": 46.3316342}, {"type": "node", "id": 9253170587, "lat": 39.2370653, "lon": 46.3320383}, {"type": "node", "id": 9253170588, "lat": 39.2376119, "lon": 46.3331417}, {"type": "node", "id": 9253170589, "lat": 39.2374826, "lon": 46.3342736}, {"type": "node", "id": 9253170590, "lat": 39.2367012, "lon": 46.3353264}, {"type": "node", "id": 9253170591, "lat": 39.23572, "lon": 46.335615}, {"type": "node", "id": 9253170592, "lat": 39.2344366, "lon": 46.3353173}, {"type": "node", "id": 9253368424, "lat": 39.2094207, "lon": 46.3696407}, {"type": "node", "id": 9255201049, "lat": 39.2024997, "lon": 46.3719444}, {"type": "node", "id": 9255201050, "lat": 39.202324, "lon": 46.374079}, {"type": "node", "id": 9255201051, "lat": 39.2029295, "lon": 46.3752025}, {"type": "node", "id": 9255201052, "lat": 39.2046308, "lon": 46.3700093}, {"type": "node", "id": 9255201053, "lat": 39.2059497, "lon": 46.3708958}, {"type": "node", "id": 9279924126, "lat": 39.2135031, "lon": 46.3925561}, {"type": "node", "id": 9279924127, "lat": 39.2139692, "lon": 46.3938896}, {"type": "node", "id": 9279924128, "lat": 39.2142716, "lon": 46.3973859}, {"type": "node", "id": 9279924129, "lat": 39.2148965, "lon": 46.3984469}, {"type": "node", "id": 9279924130, "lat": 39.2159977, "lon": 46.3992641}, {"type": "node", "id": 9279924131, "lat": 39.2183411, "lon": 46.3971501}, {"type": "node", "id": 9279924132, "lat": 39.2204136, "lon": 46.3968248}, {"type": "node", "id": 9279924133, "lat": 39.2227317, "lon": 46.3955646}, {"type": "node", "id": 9279924134, "lat": 39.2257677, "lon": 46.3926455}, {"type": "node", "id": 9279924135, "lat": 39.2311844, "lon": 46.3878483}, {"type": "node", "id": 9279924136, "lat": 39.2320662, "lon": 46.3849618}, {"type": "node", "id": 9279924137, "lat": 39.2351648, "lon": 46.3843764}, {"type": "node", "id": 9279924138, "lat": 39.2396235, "lon": 46.3822542}, {"type": "node", "id": 9279924139, "lat": 39.2429863, "lon": 46.3800182}, {"type": "node", "id": 9279924140, "lat": 39.2437168, "lon": 46.3814167}, {"type": "node", "id": 9279924141, "lat": 39.2426022, "lon": 46.3831974}, {"type": "node", "id": 9279924142, "lat": 39.2424636, "lon": 46.3851813}, {"type": "node", "id": 9279924143, "lat": 39.2438742, "lon": 46.3852301}, {"type": "node", "id": 9279924144, "lat": 39.2447873, "lon": 46.3859457}, {"type": "node", "id": 9279924145, "lat": 39.2440505, "lon": 46.3879865}, {"type": "node", "id": 9279924146, "lat": 39.2442079, "lon": 46.3882955}, {"type": "node", "id": 9279924147, "lat": 39.2464811, "lon": 46.3888484}, {"type": "node", "id": 9279924148, "lat": 39.247073, "lon": 46.3883443}, {"type": "node", "id": 9279924149, "lat": 39.248515, "lon": 46.3882386}, {"type": "node", "id": 9279924150, "lat": 39.2486157, "lon": 46.3906616}, {"type": "node", "id": 9279924151, "lat": 39.2464811, "lon": 46.3919544}, {"type": "node", "id": 9279924152, "lat": 39.2463741, "lon": 46.3932554}, {"type": "node", "id": 9279924153, "lat": 39.2431311, "lon": 46.3947759}, {"type": "node", "id": 9279924154, "lat": 39.2418591, "lon": 46.393044}, {"type": "node", "id": 9279924155, "lat": 39.2396046, "lon": 46.3918325}, {"type": "node", "id": 9279924156, "lat": 39.2374761, "lon": 46.3907266}, {"type": "node", "id": 9279924157, "lat": 39.2340689, "lon": 46.391434}, {"type": "node", "id": 9279924158, "lat": 39.2300318, "lon": 46.3954588}, {"type": "node", "id": 9279924159, "lat": 39.2285265, "lon": 46.3960361}, {"type": "node", "id": 9279924160, "lat": 39.2285769, "lon": 46.3968411}, {"type": "node", "id": 9279924161, "lat": 39.2275187, "lon": 46.3978168}, {"type": "node", "id": 9279924162, "lat": 39.2280855, "lon": 46.3981561}, {"type": "node", "id": 9279924163, "lat": 39.228076, "lon": 46.3999184}, {"type": "node", "id": 9279924164, "lat": 39.2277991, "lon": 46.4004545}, {"type": "node", "id": 9279924165, "lat": 39.227274, "lon": 46.4007996}, {"type": "node", "id": 9279924166, "lat": 39.227212, "lon": 46.4015021}, {"type": "node", "id": 9279924167, "lat": 39.2275652, "lon": 46.4019273}, {"type": "node", "id": 9279924168, "lat": 39.2295653, "lon": 46.4031782}, {"type": "node", "id": 9279924169, "lat": 39.2303464, "lon": 46.4040865}, {"type": "node", "id": 9279924170, "lat": 39.2309177, "lon": 46.405095}, {"type": "node", "id": 9279924171, "lat": 39.2299412, "lon": 46.4052077}, {"type": "node", "id": 9279924172, "lat": 39.2286593, "lon": 46.4049583}, {"type": "node", "id": 9279924173, "lat": 39.2280256, "lon": 46.4043521}, {"type": "node", "id": 9279924174, "lat": 39.2266376, "lon": 46.4039095}, {"type": "node", "id": 9279924175, "lat": 39.2251707, "lon": 46.4031987}, {"type": "node", "id": 9279924176, "lat": 39.2239593, "lon": 46.4021017}, {"type": "node", "id": 9279924177, "lat": 39.2233526, "lon": 46.4011951}, {"type": "node", "id": 9279924178, "lat": 39.2230098, "lon": 46.3999157}, {"type": "node", "id": 9279924179, "lat": 39.2219168, "lon": 46.4008867}, {"type": "node", "id": 9279924180, "lat": 39.2205287, "lon": 46.4015063}, {"type": "node", "id": 9279924181, "lat": 39.219018, "lon": 46.4035555}, {"type": "node", "id": 9279924182, "lat": 39.217925, "lon": 46.4053499}, {"type": "node", "id": 9279924183, "lat": 39.2178481, "lon": 46.4057227}, {"type": "node", "id": 9279924184, "lat": 39.2173078, "lon": 46.4060097}, {"type": "node", "id": 9279924185, "lat": 39.2129308, "lon": 46.4075278}, {"type": "node", "id": 9279924186, "lat": 39.2122284, "lon": 46.4088084}, {"type": "node", "id": 9279924187, "lat": 39.2118661, "lon": 46.4089669}, {"type": "node", "id": 9279924188, "lat": 39.2111668, "lon": 46.4088694}, {"type": "node", "id": 9279924189, "lat": 39.2027005, "lon": 46.4181346}, {"type": "node", "id": 9279924190, "lat": 39.201025, "lon": 46.4241075}, {"type": "node", "id": 9279924191, "lat": 39.2022662, "lon": 46.4258821}, {"type": "node", "id": 9279924192, "lat": 39.2045389, "lon": 46.4255972}, {"type": "node", "id": 9279924193, "lat": 39.2037427, "lon": 46.4233183}, {"type": "node", "id": 9279924194, "lat": 39.2052915, "lon": 46.4182326}, {"type": "node", "id": 9279924195, "lat": 39.206983, "lon": 46.4168843}, {"type": "node", "id": 9279924196, "lat": 39.2073548, "lon": 46.4165835}, {"type": "node", "id": 9279924197, "lat": 39.2075879, "lon": 46.4160956}, {"type": "node", "id": 9279924198, "lat": 39.2079249, "lon": 46.4160753}, {"type": "node", "id": 9279924199, "lat": 39.2082368, "lon": 46.4163721}, {"type": "node", "id": 9279924200, "lat": 39.2115381, "lon": 46.4144532}, {"type": "node", "id": 9279924201, "lat": 39.2118562, "lon": 46.4139735}, {"type": "node", "id": 9279924202, "lat": 39.2129619, "lon": 46.4133352}, {"type": "node", "id": 9279924203, "lat": 39.2137493, "lon": 46.4122131}, {"type": "node", "id": 9279924204, "lat": 39.2143825, "lon": 46.4120668}, {"type": "node", "id": 9279924205, "lat": 39.2154629, "lon": 46.4128717}, {"type": "node", "id": 9279924206, "lat": 39.2174882, "lon": 46.4134287}, {"type": "node", "id": 9279924207, "lat": 39.2178378, "lon": 46.4134531}, {"type": "node", "id": 9279924208, "lat": 39.2183984, "lon": 46.4142784}, {"type": "node", "id": 9279924209, "lat": 39.2184394, "lon": 46.4156322}, {"type": "node", "id": 9279924210, "lat": 39.2173622, "lon": 46.4181487}, {"type": "node", "id": 9279924211, "lat": 39.2162346, "lon": 46.4187301}, {"type": "node", "id": 9279924212, "lat": 39.2162157, "lon": 46.4196611}, {"type": "node", "id": 9279924213, "lat": 39.2143069, "lon": 46.419779}, {"type": "node", "id": 9279924214, "lat": 39.2140832, "lon": 46.4181731}, {"type": "node", "id": 9279924215, "lat": 39.2130123, "lon": 46.4181365}, {"type": "node", "id": 9279924216, "lat": 39.211264, "lon": 46.4207262}, {"type": "node", "id": 9279924317, "lat": 39.2114152, "lon": 46.4216084}, {"type": "node", "id": 9279924318, "lat": 39.2126248, "lon": 46.4216572}, {"type": "node", "id": 9279924319, "lat": 39.2128642, "lon": 46.422263}, {"type": "node", "id": 9279924320, "lat": 39.2105931, "lon": 46.4239664}, {"type": "node", "id": 9279924321, "lat": 39.2083565, "lon": 46.4244136}, {"type": "node", "id": 9279924322, "lat": 39.2067405, "lon": 46.4258812}, {"type": "node", "id": 9279924323, "lat": 39.2058458, "lon": 46.4288571}, {"type": "node", "id": 9279924324, "lat": 39.2049385, "lon": 46.4295686}, {"type": "node", "id": 9279924325, "lat": 39.2050047, "lon": 46.4299467}, {"type": "node", "id": 9279924326, "lat": 39.2081895, "lon": 46.4329389}, {"type": "node", "id": 9279924327, "lat": 39.2093897, "lon": 46.4429521}, {"type": "node", "id": 9279924328, "lat": 39.2076824, "lon": 46.4449442}, {"type": "node", "id": 9279924329, "lat": 39.2053229, "lon": 46.4477738}, {"type": "node", "id": 9279924330, "lat": 39.2048472, "lon": 46.4547501}, {"type": "node", "id": 9279924331, "lat": 39.2063026, "lon": 46.4549412}, {"type": "node", "id": 9279924332, "lat": 39.2064853, "lon": 46.455799}, {"type": "node", "id": 9279924333, "lat": 39.2073863, "lon": 46.4572626}, {"type": "node", "id": 9279924334, "lat": 39.2040186, "lon": 46.4638771}, {"type": "node", "id": 9279924335, "lat": 39.2030893, "lon": 46.464117}, {"type": "node", "id": 9279924342, "lat": 39.1986773, "lon": 46.4367045}, {"type": "node", "id": 9279924343, "lat": 39.1984505, "lon": 46.4350864}, {"type": "node", "id": 9279924344, "lat": 39.1973037, "lon": 46.428419}, {"type": "node", "id": 9279924345, "lat": 39.1938001, "lon": 46.425687}, {"type": "node", "id": 9279924346, "lat": 39.1952242, "lon": 46.4159299}, {"type": "node", "id": 9279924347, "lat": 39.1932455, "lon": 46.4115799}, {"type": "node", "id": 9279924348, "lat": 39.1960954, "lon": 46.4066414}, {"type": "node", "id": 9279924349, "lat": 39.1886417, "lon": 46.4022201}, {"type": "node", "id": 9279924350, "lat": 39.1856692, "lon": 46.4003122}, {"type": "node", "id": 9279924351, "lat": 39.1852716, "lon": 46.3995532}, {"type": "node", "id": 9279924352, "lat": 39.1843256, "lon": 46.3977333}, {"type": "node", "id": 9279924353, "lat": 39.1850471, "lon": 46.3971821}, {"type": "node", "id": 9279924354, "lat": 39.1856136, "lon": 46.3967657}, {"type": "node", "id": 9279924355, "lat": 39.1865174, "lon": 46.3960656}, {"type": "node", "id": 9279924356, "lat": 39.1869359, "lon": 46.3957437}, {"type": "node", "id": 9279924357, "lat": 39.1876044, "lon": 46.3952872}, {"type": "node", "id": 9279924358, "lat": 39.1908516, "lon": 46.3957217}, {"type": "node", "id": 9279924359, "lat": 39.1913505, "lon": 46.3967946}, {"type": "node", "id": 9279924360, "lat": 39.1961566, "lon": 46.4010539}, {"type": "node", "id": 9279924361, "lat": 39.1992288, "lon": 46.3981947}, {"type": "node", "id": 9279924362, "lat": 39.1988409, "lon": 46.3974177}, {"type": "node", "id": 9279924363, "lat": 39.1958081, "lon": 46.3961474}, {"type": "node", "id": 9279924364, "lat": 39.1952435, "lon": 46.3954096}, {"type": "node", "id": 9279924365, "lat": 39.1945486, "lon": 46.3940137}, {"type": "node", "id": 9279924366, "lat": 39.194434, "lon": 46.3933297}, {"type": "node", "id": 9279924367, "lat": 39.194391, "lon": 46.3932989}, {"type": "node", "id": 9279924368, "lat": 39.1898301, "lon": 46.3880488}, {"type": "node", "id": 9279924369, "lat": 39.1878767, "lon": 46.3856949}, {"type": "node", "id": 9279924370, "lat": 39.186248, "lon": 46.3839079}, {"type": "node", "id": 9279924371, "lat": 39.180779, "lon": 46.3779368}, {"type": "node", "id": 9279924372, "lat": 39.1788063, "lon": 46.3770741}, {"type": "node", "id": 9279924373, "lat": 39.1777506, "lon": 46.3765627}, {"type": "node", "id": 9279924374, "lat": 39.1767475, "lon": 46.3750406}, {"type": "node", "id": 9279924375, "lat": 39.1775547, "lon": 46.3731119}, {"type": "node", "id": 9279924376, "lat": 39.1791358, "lon": 46.3705238}, {"type": "node", "id": 9279924377, "lat": 39.1828377, "lon": 46.3709243}, {"type": "node", "id": 9279924378, "lat": 39.1846527, "lon": 46.3707518}, {"type": "node", "id": 9279924379, "lat": 39.1885549, "lon": 46.370949}, {"type": "node", "id": 9279924380, "lat": 39.192261, "lon": 46.3784852}, {"type": "node", "id": 9279924381, "lat": 39.1948972, "lon": 46.3829959}, {"type": "node", "id": 9279924382, "lat": 39.1982305, "lon": 46.3885788}, {"type": "node", "id": 9279924383, "lat": 39.2020269, "lon": 46.3901008}, {"type": "node", "id": 9279924384, "lat": 39.2020889, "lon": 46.3900577}, {"type": "node", "id": 9279924385, "lat": 39.201387, "lon": 46.384635}, {"type": "node", "id": 9279924386, "lat": 39.2033591, "lon": 46.3843392}, {"type": "node", "id": 9279924387, "lat": 39.2040658, "lon": 46.3831623}, {"type": "node", "id": 9279924388, "lat": 39.2044048, "lon": 46.3807098}, {"type": "node", "id": 9279924389, "lat": 39.2050065, "lon": 46.3791569}, {"type": "node", "id": 9279924390, "lat": 39.2053837, "lon": 46.3771049}, {"type": "node", "id": 9279924391, "lat": 39.2040754, "lon": 46.3752132}, {"type": "node", "id": 9279924392, "lat": 39.2029628, "lon": 46.3751269}, {"type": "node", "id": 9279924393, "lat": 39.2023659, "lon": 46.3740547}, {"type": "node", "id": 9279924394, "lat": 39.2025521, "lon": 46.3719596}, {"type": "node", "id": 9279924395, "lat": 39.2037793, "lon": 46.3704622}, {"type": "node", "id": 9279924396, "lat": 39.2046288, "lon": 46.3701071}, {"type": "node", "id": 9279924397, "lat": 39.2059185, "lon": 46.3709367}, {"type": "node", "id": 9279924398, "lat": 39.2066729, "lon": 46.3723909}, {"type": "node", "id": 9279924399, "lat": 39.2075181, "lon": 46.371898}, {"type": "node", "id": 9279924400, "lat": 39.207795, "lon": 46.3717377}, {"type": "node", "id": 9279924401, "lat": 39.2085924, "lon": 46.3698706}, {"type": "node", "id": 9279924402, "lat": 39.2094327, "lon": 46.3697104}, {"type": "node", "id": 9279924403, "lat": 39.2103876, "lon": 46.3683178}, {"type": "node", "id": 9279924404, "lat": 39.2135483, "lon": 46.3636346}, {"type": "node", "id": 9279924405, "lat": 39.2162028, "lon": 46.3596847}, {"type": "node", "id": 9279924406, "lat": 39.2193251, "lon": 46.3514583}, {"type": "node", "id": 9279924407, "lat": 39.2210581, "lon": 46.3468789}, {"type": "node", "id": 9279924408, "lat": 39.2216876, "lon": 46.3446438}, {"type": "node", "id": 9279924409, "lat": 39.226869, "lon": 46.3360151}, {"type": "node", "id": 9279924410, "lat": 39.2218998, "lon": 46.3425909}, {"type": "node", "id": 9279924411, "lat": 39.2241095, "lon": 46.3369182}, {"type": "node", "id": 9279924412, "lat": 39.2236515, "lon": 46.3319113}, {"type": "node", "id": 9279924413, "lat": 39.2246562, "lon": 46.3283958}, {"type": "node", "id": 9279924414, "lat": 39.226566, "lon": 46.3280559}, {"type": "node", "id": 9279924415, "lat": 39.2283466, "lon": 46.3292182}, {"type": "node", "id": 9279924416, "lat": 39.2292047, "lon": 46.3317451}, {"type": "node", "id": 9279924417, "lat": 39.2298243, "lon": 46.3323174}, {"type": "node", "id": 9279924418, "lat": 39.230989, "lon": 46.3326591}, {"type": "node", "id": 9279924419, "lat": 39.2295563, "lon": 46.3366703}, {"type": "node", "id": 9279924420, "lat": 39.2320166, "lon": 46.3323014}, {"type": "node", "id": 9279924421, "lat": 39.2324745, "lon": 46.3317054}, {"type": "node", "id": 9279924422, "lat": 39.233858, "lon": 46.3317051}, {"type": "node", "id": 9279924423, "lat": 39.234589, "lon": 46.3314959}, {"type": "node", "id": 9279924424, "lat": 39.2357051, "lon": 46.331682}, {"type": "node", "id": 9279924425, "lat": 39.2361568, "lon": 46.3317501}, {"type": "node", "id": 9279924426, "lat": 39.2370497, "lon": 46.3321947}, {"type": "node", "id": 9279924427, "lat": 39.2375488, "lon": 46.3331507}, {"type": "node", "id": 9279924428, "lat": 39.2374438, "lon": 46.3342287}, {"type": "node", "id": 9279924429, "lat": 39.2366929, "lon": 46.3352697}, {"type": "node", "id": 9279924430, "lat": 39.2356758, "lon": 46.3355617}, {"type": "node", "id": 9279924431, "lat": 39.2344241, "lon": 46.33524}, {"type": "node", "id": 9279924432, "lat": 39.2326582, "lon": 46.3374564}, {"type": "node", "id": 9279924433, "lat": 39.2254156, "lon": 46.3429983}, {"type": "node", "id": 9279924434, "lat": 39.2260765, "lon": 46.345798}, {"type": "node", "id": 9279924435, "lat": 39.2255016, "lon": 46.3478391}, {"type": "node", "id": 9279924436, "lat": 39.2253946, "lon": 46.3486909}, {"type": "node", "id": 9279924437, "lat": 39.2261933, "lon": 46.3510678}, {"type": "node", "id": 9279924438, "lat": 39.2240791, "lon": 46.3571826}, {"type": "node", "id": 9279924439, "lat": 39.2230967, "lon": 46.3597281}, {"type": "node", "id": 9279924440, "lat": 39.2220515, "lon": 46.3636889}, {"type": "node", "id": 9279924441, "lat": 39.2196396, "lon": 46.3672055}, {"type": "node", "id": 9279924442, "lat": 39.2163812, "lon": 46.3752834}, {"type": "node", "id": 9279924443, "lat": 39.2159311, "lon": 46.3764944}, {"type": "node", "id": 9279924444, "lat": 39.2127855, "lon": 46.3798121}, {"type": "node", "id": 9279924445, "lat": 39.2119664, "lon": 46.3806877}, {"type": "node", "id": 9279924446, "lat": 39.2113918, "lon": 46.3857928}, {"type": "node", "id": 9486182497, "lat": 39.2010207, "lon": 46.4519718}, {"type": "node", "id": 9486182498, "lat": 39.2009425, "lon": 46.4523883}, {"type": "node", "id": 9486182499, "lat": 39.2010789, "lon": 46.4527088}, {"type": "node", "id": 9486182504, "lat": 39.2005839, "lon": 46.4553613}, {"type": "node", "id": 9486182505, "lat": 39.2007201, "lon": 46.4562596}, {"type": "node", "id": 9486182506, "lat": 39.2007012, "lon": 46.4563943}, {"type": "node", "id": 9486182507, "lat": 39.2005603, "lon": 46.4565665}, {"type": "node", "id": 9486182508, "lat": 39.200263, "lon": 46.4570373}, {"type": "node", "id": 9486182513, "lat": 39.2005738, "lon": 46.4555194}, {"type": "node", "id": 9486182514, "lat": 39.2006008, "lon": 46.4557485}, {"type": "node", "id": 9486182516, "lat": 39.2009458, "lon": 46.4533427}, {"type": "node", "id": 9486200317, "lat": 39.2008814, "lon": 46.453593}, {"type": "node", "id": 9486200320, "lat": 39.2006731, "lon": 46.4540808}, {"type": "node", "id": 9494841938, "lat": 39.2009082, "lon": 46.4504027}, {"type": "node", "id": 9494841984, "lat": 39.200513, "lon": 46.4549895}, {"type": "node", "id": 9494841985, "lat": 39.2005492, "lon": 46.4552208}, {"type": "node", "id": 9494842012, "lat": 39.2006421, "lon": 46.4564935}, {"type": "node", "id": 9494842013, "lat": 39.200424, "lon": 46.456696}, {"type": "node", "id": 9494842014, "lat": 39.2003492, "lon": 46.4567708}, {"type": "node", "id": 9494842015, "lat": 39.2002855, "lon": 46.4568838}, {"type": "node", "id": 9494842033, "lat": 39.2005417, "lon": 46.4611599}, {"type": "node", "id": 9494842034, "lat": 39.20045, "lon": 46.4602745}, {"type": "node", "id": 9494842056, "lat": 39.2005661, "lon": 46.4638114}, {"type": "node", "id": 9494842106, "lat": 39.2000284, "lon": 46.447126}, {"type": "node", "id": 9495018033, "lat": 39.1995639, "lon": 46.4465209}, {"type": "node", "id": 9495696543, "lat": 39.2001097, "lon": 46.4648495}, {"type": "node", "id": 9495696544, "lat": 39.1998213, "lon": 46.4651685}, {"type": "node", "id": 9495696546, "lat": 39.1993443, "lon": 46.4657878}, {"type": "node", "id": 9495809948, "lat": 39.1992466, "lon": 46.4662848}, {"type": "node", "id": 9495809950, "lat": 39.2000061, "lon": 46.464946}, {"type": "node", "id": 9495809951, "lat": 39.1989339, "lon": 46.4676245}, {"type": "node", "id": 9495809998, "lat": 39.1988967, "lon": 46.4677072}, {"type": "node", "id": 9495810010, "lat": 39.1988779, "lon": 46.4677641}, {"type": "node", "id": 9788789160, "lat": 39.0706467, "lon": 46.3527948}, {"type": "node", "id": 9788789168, "lat": 39.0703786, "lon": 46.3548667}, {"type": "node", "id": 9788789169, "lat": 39.0703895, "lon": 46.3544163}, {"type": "node", "id": 9893283456, "lat": 39.2023751, "lon": 46.4654954}, {"type": "node", "id": 9893283457, "lat": 39.2019489, "lon": 46.4663333}, {"type": "node", "id": 10687167925, "lat": 39.2259591, "lon": 46.1256909}, {"type": "node", "id": 10687167926, "lat": 39.2246406, "lon": 46.1275447}, {"type": "node", "id": 10687167927, "lat": 39.225556, "lon": 46.1364345}, {"type": "node", "id": 10687167928, "lat": 39.228487, "lon": 46.1362828}, {"type": "node", "id": 10687167929, "lat": 39.2279159, "lon": 46.1266774}, {"type": "node", "id": 10687167930, "lat": 39.2272776, "lon": 46.1251922}, {"type": "node", "id": 10687167931, "lat": 39.2285667, "lon": 46.1415841}, {"type": "node", "id": 10687167932, "lat": 39.225978, "lon": 46.1414161}, {"type": "node", "id": 10687167933, "lat": 39.2355508, "lon": 46.109449}, {"type": "node", "id": 10687167934, "lat": 39.2362329, "lon": 46.1120908}, {"type": "node", "id": 10687167935, "lat": 39.2445397, "lon": 46.1092377}, {"type": "node", "id": 10687167936, "lat": 39.2471653, "lon": 46.1046498}, {"type": "node", "id": 10687167937, "lat": 39.2476017, "lon": 46.1017439}, {"type": "node", "id": 10687167938, "lat": 39.2460264, "lon": 46.1014269}, {"type": "node", "id": 10687167939, "lat": 39.2438237, "lon": 46.1064903}, {"type": "node", "id": 10687167940, "lat": 39.2409252, "lon": 46.1074237}, {"type": "node", "id": 10687167941, "lat": 39.2377333, "lon": 46.1083131}, {"type": "node", "id": 10687167944, "lat": 39.218264, "lon": 46.1332507}, {"type": "node", "id": 10687167945, "lat": 39.2185746, "lon": 46.1309327}, {"type": "node", "id": 10687167946, "lat": 39.220267, "lon": 46.1307119}, {"type": "node", "id": 10687167947, "lat": 39.2213021, "lon": 46.1327569}, {"type": "node", "id": 10687167948, "lat": 39.2207485, "lon": 46.1340234}, {"type": "node", "id": 10687167949, "lat": 39.2196818, "lon": 46.1348949}, {"type": "node", "id": 10687167950, "lat": 39.2181965, "lon": 46.134616}, {"type": "node", "id": 10687216929, "lat": 39.2206222, "lon": 46.5288066}, {"type": "node", "id": 10687216930, "lat": 39.2225583, "lon": 46.531298}, {"type": "node", "id": 10687216931, "lat": 39.2264837, "lon": 46.5280477}, {"type": "node", "id": 10687216932, "lat": 39.2270241, "lon": 46.5262768}, {"type": "node", "id": 10687216933, "lat": 39.2254385, "lon": 46.5245137}, {"type": "node", "id": 10687216934, "lat": 39.2032328, "lon": 46.4977275}, {"type": "node", "id": 10687216935, "lat": 39.2034039, "lon": 46.4947413}, {"type": "node", "id": 10687216936, "lat": 39.2072394, "lon": 46.4959962}, {"type": "node", "id": 10687216937, "lat": 39.211759, "lon": 46.5017362}, {"type": "node", "id": 10687216938, "lat": 39.2094092, "lon": 46.5026773}, {"type": "node", "id": 10687216939, "lat": 39.2053487, "lon": 46.4993542}, {"type": "node", "id": 10687232925, "lat": 39.1257115, "lon": 46.2270701}, {"type": "node", "id": 10687232926, "lat": 39.1281795, "lon": 46.2277984}, {"type": "node", "id": 10687232927, "lat": 39.1299991, "lon": 46.221911}, {"type": "node", "id": 10687232928, "lat": 39.1280784, "lon": 46.2200635}, {"type": "node", "id": 10687232929, "lat": 39.1265679, "lon": 46.2218956}, {"type": "node", "id": 10687232930, "lat": 39.1353806, "lon": 46.2032061}, {"type": "node", "id": 10687232931, "lat": 39.1387163, "lon": 46.2055749}, {"type": "node", "id": 10687232932, "lat": 39.1369741, "lon": 46.2100288}, {"type": "node", "id": 10687232933, "lat": 39.1352379, "lon": 46.2092315}, {"type": "node", "id": 10687232934, "lat": 39.1344827, "lon": 46.2065101}, {"type": "node", "id": 10687232935, "lat": 39.237216, "lon": 46.2660984}, {"type": "node", "id": 10687232936, "lat": 39.2373348, "lon": 46.2613838}, {"type": "node", "id": 10687232937, "lat": 39.2408319, "lon": 46.2622118}, {"type": "node", "id": 10687232938, "lat": 39.2425833, "lon": 46.2641206}, {"type": "node", "id": 10687232939, "lat": 39.2446138, "lon": 46.2670413}, {"type": "node", "id": 10687232940, "lat": 39.2437054, "lon": 46.2688428}, {"type": "node", "id": 10687232941, "lat": 39.2399769, "lon": 46.2679382}, {"type": "node", "id": 10687232942, "lat": 39.2239919, "lon": 46.266589}, {"type": "node", "id": 10687232943, "lat": 39.2252212, "lon": 46.2675396}, {"type": "node", "id": 10687232944, "lat": 39.2219906, "lon": 46.2736187}, {"type": "node", "id": 10687232945, "lat": 39.2197338, "lon": 46.2757651}, {"type": "node", "id": 10687232946, "lat": 39.218445, "lon": 46.2716638}, {"type": "node", "id": 10687232947, "lat": 39.2215214, "lon": 46.2686971}, {"type": "node", "id": 10687232965, "lat": 39.2170983, "lon": 46.106266}, {"type": "node", "id": 10687232966, "lat": 39.2184346, "lon": 46.1048708}, {"type": "node", "id": 10687232967, "lat": 39.2203232, "lon": 46.1056297}, {"type": "node", "id": 10687232968, "lat": 39.2212378, "lon": 46.1076305}, {"type": "node", "id": 10687232969, "lat": 39.2192899, "lon": 46.1099763}, {"type": "node", "id": 10687232970, "lat": 39.2186781, "lon": 46.1097309}, {"type": "node", "id": 10687232971, "lat": 39.2218622, "lon": 46.1811756}, {"type": "node", "id": 10687232972, "lat": 39.225081, "lon": 46.1813979}, {"type": "node", "id": 10687232973, "lat": 39.2260727, "lon": 46.1857445}, {"type": "node", "id": 10687232974, "lat": 39.2249503, "lon": 46.1874233}, {"type": "node", "id": 10687232975, "lat": 39.2211614, "lon": 46.1875}, {"type": "node", "id": 10689556458, "lat": 39.2240949, "lon": 46.466105, "tags": {"is_in:country": "Armenia", "is_in:country_code": "AM", "is_in:municipality": "\u053f\u0561\u057a\u0561\u0576\u056b \u0570\u0561\u0574\u0561\u0575\u0576\u0584", "is_in:region": "\u054d\u0575\u0578\u0582\u0576\u056b\u0584\u056b \u0574\u0561\u0580\u0566", "name": "\u053d\u0578\u0580\u0571\u0578\u0580", "name:en": "Khordzor", "name:hy": "\u053d\u0578\u0580\u0571\u0578\u0580", "name:ru": "\u0425\u043e\u0440\u0434\u0437\u043e\u0440", "place": "village", "population": "5", "population:date": "2022-01-01", "source:population": "Armstat", "wikidata": "Q6402335", "wikipedia": "en:Khordzor"}}, {"type": "node", "id": 10689556459, "lat": 39.2224273, "lon": 46.4666189}, {"type": "node", "id": 10689556460, "lat": 39.2223863, "lon": 46.4651835}, {"type": "node", "id": 10689556461, "lat": 39.2238598, "lon": 46.4651351}, {"type": "node", "id": 10689556462, "lat": 39.2253742, "lon": 46.4651659}, {"type": "node", "id": 10689556463, "lat": 39.2259404, "lon": 46.4660421}, {"type": "node", "id": 10689556464, "lat": 39.2249138, "lon": 46.4672661}, {"type": "node", "id": 10689556465, "lat": 39.224102, "lon": 46.4675127}, {"type": "node", "id": 10689611070, "lat": 39.213822, "lon": 46.2372031}, {"type": "node", "id": 10689611071, "lat": 39.2122864, "lon": 46.2393765}, {"type": "node", "id": 10689611072, "lat": 39.2044561, "lon": 46.2477809}, {"type": "node", "id": 10689611073, "lat": 39.2019985, "lon": 46.2537646, "tags": {"is_in:country": "Armenia", "is_in:country_code": "AM", "is_in:municipality": "\u0554\u0561\u057b\u0561\u0580\u0561\u0576\u056b \u0570\u0561\u0574\u0561\u0575\u0576\u0584", "is_in:region": "\u054d\u0575\u0578\u0582\u0576\u056b\u0584\u056b \u0574\u0561\u0580\u0566", "name": "\u0532\u0561\u0562\u056b\u056f\u0561\u057e\u0561\u0576", "name:en": "Babikavan", "name:hy": "\u0532\u0561\u0562\u056b\u056f\u0561\u057e\u0561\u0576", "name:ru": "\u0411\u0430\u0431\u0438\u043a\u0430\u0432\u0430\u043d", "place": "village", "population": "215", "population:date": "2022-01-01", "source:population": "Armstat", "wikidata": "Q48861649", "wikipedia": "en:Babikavan"}}, {"type": "node", "id": 10689611074, "lat": 39.2044354, "lon": 46.2486307}, {"type": "node", "id": 10689611075, "lat": 39.2059118, "lon": 46.2500193}, {"type": "node", "id": 10689611076, "lat": 39.204059, "lon": 46.2525037}, {"type": "node", "id": 10689611077, "lat": 39.2028528, "lon": 46.2550317}, {"type": "node", "id": 10689611078, "lat": 39.200749, "lon": 46.2578773}, {"type": "node", "id": 10689611079, "lat": 39.2000204, "lon": 46.258886}, {"type": "node", "id": 10689611080, "lat": 39.1977283, "lon": 46.2567254}, {"type": "node", "id": 10689611081, "lat": 39.1985655, "lon": 46.2607758}, {"type": "node", "id": 10689611082, "lat": 39.1878305, "lon": 46.2484066, "tags": {"is_in:country": "Armenia", "is_in:country_code": "AM", "is_in:municipality": "\u0554\u0561\u057b\u0561\u0580\u0561\u0576\u056b \u0570\u0561\u0574\u0561\u0575\u0576\u0584", "is_in:region": "\u054d\u0575\u0578\u0582\u0576\u056b\u0584\u056b \u0574\u0561\u0580\u0566", "name": "\u0541\u0561\u0563\u056b\u056f\u0561\u057e\u0561\u0576", "name:en": "Dzagikavan", "name:hy": "\u0541\u0561\u0563\u056b\u056f\u0561\u057e\u0561\u0576", "name:ru": "\u0414\u0437\u0430\u0433\u0438\u043a\u0430\u0432\u0430\u043d", "place": "village", "population": "53", "population:date": "2022-01-01", "source:population": "Armstat", "wikidata": "Q6940095", "wikipedia": "en:Dzagikavan"}}, {"type": "node", "id": 10689611083, "lat": 39.1823081, "lon": 46.2504675}, {"type": "node", "id": 10689611084, "lat": 39.1830514, "lon": 46.2518623}, {"type": "node", "id": 10689611085, "lat": 39.1854501, "lon": 46.2517128}, {"type": "node", "id": 10689611086, "lat": 39.1886306, "lon": 46.2501749}, {"type": "node", "id": 10689611087, "lat": 39.1900929, "lon": 46.2518934}, {"type": "node", "id": 10689611088, "lat": 39.1913139, "lon": 46.2530391}, {"type": "node", "id": 10689611089, "lat": 39.1930464, "lon": 46.2532508}, {"type": "node", "id": 10689611090, "lat": 39.1951166, "lon": 46.2525534}, {"type": "node", "id": 10689611091, "lat": 39.1950587, "lon": 46.2505422}, {"type": "node", "id": 10689611092, "lat": 39.1911353, "lon": 46.2500005}, {"type": "node", "id": 10689611093, "lat": 39.1894124, "lon": 46.2476593}, {"type": "node", "id": 10689611094, "lat": 39.1872262, "lon": 46.2456917}, {"type": "node", "id": 10689611095, "lat": 39.1862079, "lon": 46.2463206}, {"type": "node", "id": 10689611096, "lat": 39.1863768, "lon": 46.2477278}, {"type": "node", "id": 10689611097, "lat": 39.1872503, "lon": 46.2487365}, {"type": "node", "id": 10689611098, "lat": 39.1863671, "lon": 46.2496456}, {"type": "node", "id": 10689611099, "lat": 39.1850544, "lon": 46.2501749}, {"type": "node", "id": 10689625306, "lat": 39.2212054, "lon": 46.2170971}, {"type": "node", "id": 10689625307, "lat": 39.2226925, "lon": 46.2171139}, {"type": "node", "id": 10689625308, "lat": 39.2234334, "lon": 46.2188827}, {"type": "node", "id": 10689625309, "lat": 39.2224267, "lon": 46.2202501}, {"type": "node", "id": 10689625310, "lat": 39.2207265, "lon": 46.2199906}, {"type": "node", "id": 10689625311, "lat": 39.2222954, "lon": 46.2184494, "tags": {"is_in:country": "Armenia", "is_in:country_code": "AM", "is_in:municipality": "\u0554\u0561\u057b\u0561\u0580\u0561\u0576\u056b \u0570\u0561\u0574\u0561\u0575\u0576\u0584", "is_in:region": "\u054d\u0575\u0578\u0582\u0576\u056b\u0584\u056b \u0574\u0561\u0580\u0566", "name": "\u0533\u0565\u0572\u0561\u057e\u0561\u0576\u0584", "name:en": "Geghavank", "name:hy": "\u0533\u0565\u0572\u0561\u057e\u0561\u0576\u0584", "name:ru": "\u0413\u0435\u0445\u0430\u0432\u0430\u043d\u043a", "place": "village", "population": "0", "population:date": "2022-01-01", "source:population": "Armstat", "wikidata": "Q5530050", "wikipedia": "en:Geghavank"}}, {"type": "node", "id": 10689625312, "lat": 39.2212312, "lon": 46.2185065}, {"type": "node", "id": 10875167560, "lat": 38.9324729, "lon": 46.3702521}, {"type": "node", "id": 10875167561, "lat": 38.9323889, "lon": 46.3703558}, {"type": "node", "id": 10875167562, "lat": 38.9332196, "lon": 46.3704673}, {"type": "node", "id": 10875167571, "lat": 38.9340272, "lon": 46.3700134}, {"type": "node", "id": 10875183004, "lat": 38.9362631, "lon": 46.3691062}, {"type": "node", "id": 11533858128, "lat": 38.9045178, "lon": 46.2922245}, {"type": "node", "id": 11533858129, "lat": 38.9062258, "lon": 46.2911701}, {"type": "node", "id": 11533858130, "lat": 38.9068998, "lon": 46.2904228}, {"type": "node", "id": 11533858131, "lat": 38.9072259, "lon": 46.2900621}, {"type": "node", "id": 11533858132, "lat": 38.9073413, "lon": 46.2897325}, {"type": "node", "id": 11533858133, "lat": 38.9074009, "lon": 46.2891235}, {"type": "node", "id": 11533858134, "lat": 38.9068343, "lon": 46.2885643}, {"type": "node", "id": 11533858135, "lat": 38.9061745, "lon": 46.2879315}, {"type": "node", "id": 11533858136, "lat": 38.9060736, "lon": 46.2877866}, {"type": "node", "id": 11533858137, "lat": 38.9057782, "lon": 46.287832}, {"type": "node", "id": 11533858138, "lat": 38.9052328, "lon": 46.2884087}, {"type": "node", "id": 11533858139, "lat": 38.9046081, "lon": 46.2883782}, {"type": "node", "id": 11533858140, "lat": 38.9041256, "lon": 46.2885076}, {"type": "node", "id": 11533858141, "lat": 38.9039183, "lon": 46.2884815}, {"type": "node", "id": 11533858142, "lat": 38.9037266, "lon": 46.2883307}, {"type": "node", "id": 11533858143, "lat": 38.9034867, "lon": 46.2879694}, {"type": "node", "id": 11533858144, "lat": 38.9033065, "lon": 46.2879073}, {"type": "node", "id": 11533858145, "lat": 38.9030219, "lon": 46.2879032}, {"type": "node", "id": 11533858146, "lat": 38.9030155, "lon": 46.2885565}, {"type": "node", "id": 11533858147, "lat": 38.9029287, "lon": 46.2894224}, {"type": "node", "id": 11533858148, "lat": 38.9027696, "lon": 46.2901903}, {"type": "node", "id": 11533858149, "lat": 38.902749, "lon": 46.2903485}, {"type": "node", "id": 11533858150, "lat": 38.9030108, "lon": 46.2907625}, {"type": "node", "id": 11533858151, "lat": 38.903155, "lon": 46.2910836}, {"type": "node", "id": 11533858152, "lat": 38.9031963, "lon": 46.291389}, {"type": "node", "id": 11533858153, "lat": 38.9032228, "lon": 46.2921515}, {"type": "node", "id": 11533858154, "lat": 38.9038228, "lon": 46.2921767}, {"type": "node", "id": 11533858155, "lat": 38.9073219, "lon": 46.2897878}, {"type": "node", "id": 11533863470, "lat": 38.9046045, "lon": 46.29002, "tags": {"name": "\u0531\u0580\u0561\u0584\u057d\u0561\u0577\u0565\u0576", "name:en": "Araksashen", "name:hy": "\u0531\u0580\u0561\u0584\u057d\u0561\u0577\u0565\u0576", "name:ru": "\u0410\u0440\u0430\u043a\u0441\u0430\u0448\u0435\u043d", "place": "village"}}, {"type": "node", "id": 11533863471, "lat": 38.903247, "lon": 46.2879086}, {"type": "node", "id": 11533863472, "lat": 38.9016927, "lon": 46.2816319}, {"type": "node", "id": 11533863473, "lat": 38.9033914, "lon": 46.2879244}, {"type": "node", "id": 11533863474, "lat": 38.903267, "lon": 46.2877418}, {"type": "node", "id": 11533863475, "lat": 38.9031957, "lon": 46.287689}, {"type": "node", "id": 11533863476, "lat": 38.9023441, "lon": 46.2833132}, {"type": "node", "id": 11533863477, "lat": 38.902954, "lon": 46.2863217}, {"type": "node", "id": 11533863478, "lat": 38.9028437, "lon": 46.2854803}, {"type": "node", "id": 11533863479, "lat": 38.9027872, "lon": 46.2855107}, {"type": "node", "id": 11533863480, "lat": 38.9021739, "lon": 46.2824931}, {"type": "node", "id": 11533863481, "lat": 38.9020944, "lon": 46.2824769}, {"type": "node", "id": 11533863482, "lat": 38.9022736, "lon": 46.2833444}, {"type": "node", "id": 11533863483, "lat": 38.9017514, "lon": 46.2809905}, {"type": "node", "id": 11533863484, "lat": 38.9008285, "lon": 46.2807704}, {"type": "node", "id": 11533863485, "lat": 38.9015568, "lon": 46.2804689}, {"type": "node", "id": 11533863486, "lat": 38.9014669, "lon": 46.280357}, {"type": "node", "id": 11533863487, "lat": 38.9012904, "lon": 46.2802021}, {"type": "node", "id": 11533863488, "lat": 38.9013437, "lon": 46.279919}, {"type": "node", "id": 11533863489, "lat": 38.9012333, "lon": 46.2795885}, {"type": "node", "id": 11533863490, "lat": 38.9003497, "lon": 46.2789601}, {"type": "node", "id": 11533863491, "lat": 38.900191, "lon": 46.2785937}, {"type": "node", "id": 11533863492, "lat": 38.9001747, "lon": 46.2783103}, {"type": "node", "id": 11533863493, "lat": 38.9025123, "lon": 46.2759617}, {"type": "node", "id": 11533863494, "lat": 38.9029157, "lon": 46.2746228}, {"type": "node", "id": 11533863495, "lat": 38.9025153, "lon": 46.2732583}, {"type": "node", "id": 11533863496, "lat": 38.9027367, "lon": 46.2738773}, {"type": "node", "id": 11533863497, "lat": 38.9011251, "lon": 46.2723196}, {"type": "node", "id": 11533863498, "lat": 38.9002622, "lon": 46.2718501}, {"type": "node", "id": 11533863499, "lat": 38.8990173, "lon": 46.2719863}, {"type": "node", "id": 11533863500, "lat": 38.8970393, "lon": 46.2718725}, {"type": "node", "id": 11533863501, "lat": 38.9043307, "lon": 46.2922122}, {"type": "node", "id": 11533863502, "lat": 38.9043707, "lon": 46.2929764}, {"type": "node", "id": 11533863503, "lat": 38.9044241, "lon": 46.2922138}, {"type": "node", "id": 11533863504, "lat": 38.9042471, "lon": 46.2940295}, {"type": "node", "id": 11533863505, "lat": 38.9042497, "lon": 46.2935685}, {"type": "node", "id": 11533863506, "lat": 38.9043244, "lon": 46.2939541}, {"type": "node", "id": 11533863507, "lat": 38.9043381, "lon": 46.2935183}, {"type": "node", "id": 11533863508, "lat": 38.904273, "lon": 46.2942751}, {"type": "node", "id": 11533863509, "lat": 38.9043578, "lon": 46.2942311}, {"type": "node", "id": 11533863510, "lat": 38.9044651, "lon": 46.2952651}, {"type": "node", "id": 11533863511, "lat": 38.9045462, "lon": 46.295222}, {"type": "node", "id": 11533863512, "lat": 38.904452, "lon": 46.2947403}, {"type": "node", "id": 11533863513, "lat": 38.904505, "lon": 46.2954452}, {"type": "node", "id": 11533863514, "lat": 38.9048802, "lon": 46.2965425}, {"type": "node", "id": 11533863515, "lat": 38.9038323, "lon": 46.2964963}, {"type": "node", "id": 11533863516, "lat": 38.9052255, "lon": 46.2978134}, {"type": "node", "id": 11533863521, "lat": 38.9053021, "lon": 46.298079}, {"type": "node", "id": 11533863522, "lat": 38.905712, "lon": 46.297893}, {"type": "node", "id": 11533863523, "lat": 38.9058081, "lon": 46.2982696}, {"type": "node", "id": 11533863524, "lat": 38.9055736, "lon": 46.2985776}, {"type": "node", "id": 11533863525, "lat": 38.905589, "lon": 46.299056}, {"type": "node", "id": 11533863526, "lat": 38.9056918, "lon": 46.2996208}, {"type": "node", "id": 11533863527, "lat": 38.9059397, "lon": 46.300545}, {"type": "node", "id": 11533863528, "lat": 38.9052629, "lon": 46.3003808}, {"type": "node", "id": 11533863529, "lat": 38.9057534, "lon": 46.3008472}, {"type": "node", "id": 11533863590, "lat": 38.9018362, "lon": 46.2815719}, {"type": "node", "id": 11533863591, "lat": 38.9012541, "lon": 46.2812758}, {"type": "node", "id": 11533863592, "lat": 38.9016137, "lon": 46.2816286}, {"type": "node", "id": 11533863593, "lat": 38.9014867, "lon": 46.2815425}, {"type": "node", "id": 11533863594, "lat": 38.9013808, "lon": 46.2814459}, {"type": "node", "id": 11693516107, "lat": 38.9418036, "lon": 46.2133312}, {"type": "node", "id": 11700310544, "lat": 38.8611845, "lon": 46.1914862}, {"type": "node", "id": 11882282108, "lat": 39.1991575, "lon": 46.4450204}, {"type": "node", "id": 11882282118, "lat": 39.2005728, "lon": 46.4608286}, {"type": "node", "id": 11882282119, "lat": 39.2004294, "lon": 46.4642354}, {"type": "node", "id": 11882282120, "lat": 39.1991125, "lon": 46.467206}, {"type": "node", "id": 11882282121, "lat": 39.1991125, "lon": 46.467206}, {"type": "node", "id": 11882282124, "lat": 39.1985918, "lon": 46.469186}, {"type": "node", "id": 11882282125, "lat": 39.1980863, "lon": 46.4698794}, {"type": "node", "id": 11882282141, "lat": 39.2005778, "lon": 46.4556405}, {"type": "node", "id": 11882282142, "lat": 39.2006369, "lon": 46.455918}, {"type": "node", "id": 11882282143, "lat": 39.2006924, "lon": 46.4560888}, {"type": "node", "id": 12912128002, "lat": 39.0496363, "lon": 46.4569422}, {"type": "way", "id": 177199863, "nodes": [5677730352, 5677730349, 5677730350, 5677730351, 1876507900, 5007865744, 5007865749, 5007865748, 5007865747, 5007865746, 5007865745, 5007865756, 5007865755, 5007865754, 5007865753, 5007865752, 5007865751, 5007865750, 1876507901, 1970543816, 1876507898, 1970543808, 1876507897, 1970543798, 1970543796, 1876507896, 1876507895, 1876507890, 1970543806, 1970543807, 1970543814, 5677730352], "tags": {"landuse": "residential", "name": "\u0554\u0561\u057b\u0561\u0580\u0561\u0576", "name:az": "Qacaran k\u0259ndi", "name:en": "Kajaran", "name:fa": "\u06a9\u0627\u062c\u0627\u0631\u0627\u0646", "name:hy": "\u0554\u0561\u057b\u0561\u0580\u0561\u0576", "name:ru": "\u041a\u0430\u0434\u0436\u0430\u0440\u0430\u043d", "place": "town", "wikidata": "Q842844", "wikipedia": "en:Kajaran"}}, {"type": "way", "id": 177856557, "nodes": [1882609034, 2622876229, 3660438133, 2622876231, 1882609028, 5340852217, 1882609031, 2622876221, 2622876222, 2622876223, 2622876227, 2622876226, 2622876225, 2622876224, 1882609036, 5303547262, 2933556459, 5138687322, 1882609034], "tags": {"int_name": "Meghri", "is_in:country": "Armenia", "is_in:country_code": "AM", "name": "\u0544\u0565\u0572\u0580\u056b", "name:az": "Me\u011fri / M\u0131\u011fr\u0131", "name:en": "Meghri", "name:es": "Meghri", "name:fa": "\u0645\u063a\u0631\u06cc", "name:hy": "\u0544\u0565\u0572\u0580\u056b", "name:ru": "\u041c\u0435\u0433\u0440\u0438", "nat_name": "\u0544\u0565\u0572\u0580\u056b", "place": "town", "wikidata": "Q39549", "wikipedia": "en:Meghri"}}, {"type": "way", "id": 338005814, "nodes": [3450729685, 8786327654, 8786327653, 3450728791, 3450728783, 3450728780, 3450728778, 3450728779, 3450728781, 3450728782, 3450728785, 3450728787, 3450728784, 3450728786, 3450729676, 4374599302, 3450729675, 3450729686, 3450729683, 3450729682, 3450729678, 3450729679, 3450729656, 3450729654, 3450729659, 3450729677, 3450729684, 3450729688, 3450729689, 3450729691, 3450729690, 3450729685], "tags": {"landuse": "residential", "name": "\u0646\u0648\u0631\u062f\u0648\u0632", "name:en": "Norduz", "name:fa": "\u0646\u0648\u0631\u062f\u0648\u0632", "name:hy": "\u0546\u0578\u0580\u0564\u0578\u0582\u0566", "name:ru": "\u041d\u043e\u0440\u0434\u0443\u0437", "place": "village"}}, {"type": "way", "id": 360361061, "nodes": [9788789160, 3649154637, 9788789169, 9788789168, 3649154636, 3649154634, 3649154635, 3649154641, 3649154643, 3649154646, 3649154647, 3649154645, 3649154644, 3649154642, 3649154639, 3649154640, 3649154638, 9788789160], "tags": {"landuse": "residential", "name": "\u0547\u056b\u0577\u056f\u0565\u0580\u057f", "name:en": "Shishkert", "name:hy": "\u0547\u056b\u0577\u056f\u0565\u0580\u057f", "name:ru": "\u0428\u0438\u0448\u043a\u0435\u0440\u0442", "place": "village", "wikidata": "Q7499089", "wikipedia": "en:Shishkert"}}, {"type": "way", "id": 360473322, "nodes": [3650169136, 3650169142, 3650169130, 8284341864, 3650169128, 3650169137, 3650169162, 3650169171, 8284341865, 3650169186, 3650169183, 8284341863, 8284341866, 3650169170, 3650169143, 3650169136], "tags": {"landuse": "residential", "name": "\u054d\u0580\u0561\u0577\u0565\u0576", "name:en": "Srashen", "name:hy": "\u054d\u0580\u0561\u0577\u0565\u0576", "name:ru": "\u0421\u0440\u0430\u0448\u0435\u043d", "place": "village", "wikidata": "Q768260", "wikipedia": "en:Srashen"}}, {"type": "way", "id": 360473323, "nodes": [3650168840, 3650168869, 3650168912, 3650168930, 3650168923, 3650168914, 3650168897, 3650168901, 3650168867, 3650168841, 3650168865, 3650168846, 3650168836, 3650168840]}, {"type": "way", "id": 360473324, "nodes": [3650168817, 3650168821, 12912128002, 3650168826, 3650168828, 3650168823, 3650168824, 3650168820, 3650168819, 3650168818, 3650168804, 3650168807, 3650168810, 3650168812, 3650168815, 3650168816, 3650168814, 3650168813, 3650168809, 3650168817]}, {"type": "way", "id": 368821136, "nodes": [3726637409, 3726637423, 3726637418, 3726637421, 3726637436, 3726637448, 3726637460, 3726637458, 3726637464, 3726637466, 3726637456, 5310655131, 5310655133, 5310655132, 3726637442, 3726637428, 3726637401, 3726637388, 3729784109, 3726637395, 3726637393, 3726637377, 3726637369, 3726637372, 3726637375, 3726637382, 3726637394, 3726637398, 3726637409], "tags": {"landuse": "residential", "name": "\u053c\u056b\u0573\u0584", "name:en": "Lichk", "name:hy": "\u053c\u056b\u0579\u0584", "name:ru": "\u041b\u0438\u0447\u043a", "place": "village", "wikidata": "Q2640083", "wikipedia": "en:Lichk, Syunik"}}, {"type": "way", "id": 368821137, "nodes": [3726637581, 3726637544, 3726637534, 3726637529, 3726637546, 3726637551, 3726637555, 5310655712, 3726637571, 3726637578, 3726637573, 3726637570, 3726637589, 3726637606, 3726637608, 3726637584, 3726637592, 3726637597, 3726637618, 3726637621, 3726637627, 3726637620, 3726637609, 3726637607, 3726637600, 3726637598, 3726637593, 3726637596, 3726637588, 3726637587, 3726637581], "tags": {"landuse": "residential", "name": "\u054f\u0561\u0577\u057f\u0578\u0582\u0576", "name:en": "Tashtun", "name:hy": "\u054f\u0561\u0577\u057f\u0578\u0582\u0576", "name:ru": "\u0422\u0430\u0448\u0442\u0443\u043d", "place": "village", "wikidata": "Q2223993", "wikipedia": "en:Tashtun"}}, {"type": "way", "id": 368824737, "nodes": [3726674537, 3726674528, 3726672724, 3726674526, 3726672719, 3726672718, 3726672723, 3726674530, 3726674536, 5322385447, 5322385448, 3726674559, 3726674554, 3726674556, 3726674555, 3726674552, 3726674545, 3726674537], "tags": {"landuse": "residential", "name": "\u0539\u056d\u056f\u0578\u0582\u057f", "name:en": "Tkhkut", "name:hy": "\u0539\u056d\u056f\u0578\u0582\u057f", "name:ru": "\u0422\u0445\u043a\u0443\u0442", "place": "village", "wikidata": "Q7810672", "wikipedia": "en:Tkhkut"}}, {"type": "way", "id": 368825655, "nodes": [3726684322, 3726684324, 3726684325, 3726684327, 3726684328, 3726684326, 3726684323, 3726684321, 3726684317, 3726684319, 3726684318, 3726684320, 3726684322], "tags": {"landuse": "residential", "name": "\u053f\u0578\u0582\u0580\u056b\u057d", "name:en": "Kuris", "name:hy": "\u053f\u0578\u0582\u0580\u056b\u057d", "name:ru": "\u041a\u0443\u0440\u0438\u0441", "place": "village", "wikidata": "Q2224237", "wikipedia": "en:Kuris, Armenia"}}, {"type": "way", "id": 368825657, "nodes": [3726684176, 3726684181, 3726684180, 3726684175, 3726684173, 3726684170, 3726684167, 3726684168, 3726684165, 3726684162, 3726684161, 3726684163, 3726684166, 3726684171, 3726684172, 3726684174, 3726684176], "tags": {"landuse": "residential", "name": "\u053f\u0561\u0580\u0573\u0587\u0561\u0576", "name:az": "K\u0259r\u00e7ivan", "name:en": "Karchevan", "name:hy": "\u053f\u0561\u0580\u0573\u0587\u0561\u0576", "name:ru": "\u041a\u0430\u0440\u0447\u0435\u0432\u0430\u043d", "place": "village", "wikidata": "Q2224094", "wikipedia": "en:Karchevan"}}, {"type": "way", "id": 368826725, "nodes": [3726695599, 3726695596, 3726695592, 3726695589, 3726695585, 3726695574, 3726695567, 3726695563, 3726695564, 3726695557, 3726695562, 3726695571, 3726695584, 3726695590, 3726695595, 3726695599], "tags": {"landuse": "residential", "name": "\u054e\u0561\u0580\u0564\u0561\u0576\u056b\u0571\u0578\u0580", "name:en": "Vardanidzor", "name:hy": "\u054e\u0561\u0580\u0564\u0561\u0576\u056b\u0571\u0578\u0580", "name:ru": "\u0412\u0430\u0440\u0434\u0430\u043d\u0438\u0434\u0437\u043e\u0440", "place": "village", "wikidata": "Q2224213", "wikipedia": "en:Vardanidzor"}}, {"type": "way", "id": 368826728, "nodes": [3726695289, 3726695288, 3726695280, 11693516107, 3726695272, 3726695264, 3726695252, 3726695248, 3726695242, 3726695238, 3726695236, 3726695234, 3726695235, 3726695237, 3726695239, 3726695240, 3726695241, 3726695243, 3726695245, 7203779382, 3726695244, 3726695246, 3726695257, 3726695260, 3726695267, 3726695269, 3726695279, 3726695298, 3726695291, 3726695302, 3726695289], "tags": {"landuse": "residential", "name": "\u053c\u0565\u0570\u057e\u0561\u0566", "name:en": "Lehvaz", "name:hy": "\u053c\u0565\u0570\u057e\u0561\u0566", "name:ru": "\u041b\u0435\u0433\u0432\u0430\u0437", "place": "village", "wikidata": "Q2701464", "wikipedia": "en:Lehvaz"}}, {"type": "way", "id": 368826729, "nodes": [3726695638, 3726695636, 3726695635, 3726695634, 3726695632, 3726695633, 3726695637, 3726695639, 3726695638], "tags": {"name": "\u0531\u0575\u0563\u0565\u0571\u0578\u0580", "name:en": "Aygedzor", "name:hy": "\u0531\u0575\u0563\u0565\u0571\u0578\u0580", "name:ru": "\u0410\u0439\u0433\u0435\u0434\u0437\u043e\u0440", "place": "village", "wikidata": "Q4831227", "wikipedia": "en:Aygedzor, Syunik"}}, {"type": "way", "id": 368828038, "nodes": [3726708874, 3726708864, 3726708860, 3726708859, 3726708852, 3726708846, 3726708840, 3726708832, 3726708828, 10875183004, 3726708824, 3726708816, 3726719240, 10875167571, 10875167562, 10875167560, 10875167561, 3726708790, 3726719226, 3726708791, 3726708809, 3726708820, 3726708823, 3726708862, 3726708870, 3726708882, 3726708874], "tags": {"landuse": "residential", "name": "\u0547\u057e\u0561\u0576\u056b\u0571\u0578\u0580", "name:az": "Astazur k\u0259ndi", "name:en": "Shvanidzor", "name:hy": "\u0547\u057e\u0561\u0576\u056b\u0571\u0578\u0580", "name:ru": "\u0428\u0432\u0430\u043d\u0438\u0434\u0437\u043e\u0440", "place": "village", "wikidata": "Q2224155", "wikipedia": "en:Shvanidzor"}}, {"type": "way", "id": 368828039, "nodes": [3726708817, 7604386116, 3726708811, 3726708813, 3726708812, 3726708815, 3726708818, 3726708825, 3726708827, 3726708835, 7604382661, 3726708845, 3726708850, 3726708853, 3726708856, 3726708855, 7604382625, 3726708854, 3726708847, 3726708838, 3726708837, 3726708839, 3726708843, 3726708842, 3726708833, 3726708829, 3726708826, 3726708822, 7604386117, 3726708817], "tags": {"landuse": "residential", "name": "\u0531\u056c\u057e\u0561\u0576\u0584", "name:az": "\u018fld\u0259r\u0259 k\u0259ndi", "name:en": "Alvank", "name:hy": "\u0531\u056c\u057e\u0561\u0576\u0584", "name:ru": "\u0410\u043b\u0432\u0430\u043d\u043a", "place": "village", "wikidata": "Q2464626", "wikipedia": "en:Alvank"}}, {"type": "way", "id": 368830927, "nodes": [3726742876, 6749197794, 3726742878, 6749197793, 3726742883, 6749197792, 3726742885, 6749197791, 6749197790, 3726742887, 3726742880, 3726742870, 3726742857, 3726742846, 3726742843, 3726742850, 3726742849, 3726742848, 3726742845, 3726742840, 3726742832, 3726742822, 3726742823, 3726742827, 3726742831, 3726742839, 3726742841, 3726742852, 3726742861, 3726742867, 6749197796, 6749197797, 3726742866, 6749197798, 3726742865, 6749197799, 3726742872, 6749197800, 3726742874, 6749197795, 3726742876], "tags": {"name": "\u0546\u057c\u0576\u0561\u0571\u0578\u0580", "name:az": "N\u00fcv\u0259di k\u0259ndi", "name:en": "Nrnadzor", "name:hy": "\u0546\u057c\u0576\u0561\u0571\u0578\u0580", "name:ru": "\u041d\u0440\u043d\u0430\u0434\u0437\u043e\u0440", "place": "village", "wikidata": "Q2702255", "wikipedia": "en:Nrnadzor"}}, {"type": "way", "id": 369036487, "nodes": [3728685384, 3728685342, 3728685302, 3728685307, 7280492804, 3728685351, 3728685353, 3728685375, 3728685393, 3728685398, 3728685427, 3728685432, 3728685437, 3728685439, 3728685438, 3728685423, 3728685394, 3728685387, 3728685396, 3728685384], "tags": {"landuse": "residential", "name": "\u0533\u0578\u0574\u0561\u0580\u0561\u0576", "name:en": "Gomaran", "name:hy": "\u0533\u0578\u0574\u0561\u0580\u0561\u0576", "name:ru": "\u0413\u043e\u043c\u0430\u0440\u0430\u043d", "place": "village", "wikidata": "Q5581093", "wikipedia": "en:Gomaran"}}, {"type": "way", "id": 369036490, "nodes": [3728684528, 3728684524, 3728684525, 3728684529, 3728684532, 3728684533, 3728684531, 3728684526, 3728684527, 3728684530, 3728684535, 3728684536, 3728684549, 3728684556, 3728684554, 3728684538, 3728684539, 3728684552, 3728684558, 3728684557, 3728684555, 3728684548, 3728684545, 3728684537, 3728684534, 3728684528], "tags": {"landuse": "residential", "name": "\u0547\u056b\u056f\u0561\u0570\u0578\u0572", "name:en": "Shikahogh", "name:hy": "\u0547\u056b\u056f\u0561\u0570\u0578\u0572", "name:ru": "\u0428\u0438\u043a\u0430\u043e\u0445", "place": "village", "wikidata": "Q2223978", "wikipedia": "en:Shikahogh"}}, {"type": "way", "id": 369036491, "nodes": [3728684835, 3728684832, 3728684865, 3728684884, 3728684897, 3728684898, 3728684906, 3728684909, 3728684902, 3728684904, 3728684905, 3728684910, 3728684912, 3728684913, 3728684907, 3728684903, 3728684900, 3728684877, 3728684873, 3728684861, 3728684830, 3728684828, 3728684842, 3728684858, 3728684866, 3728684854, 3728684835], "tags": {"landuse": "residential", "name": "\u0543\u0561\u056f\u0561\u057f\u0565\u0576", "name:en": "Chakaten", "name:hy": "\u0543\u0561\u056f\u0561\u057f\u0565\u0576", "name:ru": "\u0427\u0430\u043a\u0430\u0442\u0435\u043d", "place": "village", "wikidata": "Q2224263", "wikipedia": "en:Chakaten"}}, {"type": "way", "id": 369036492, "nodes": [3728685020, 3728685039, 3728685071, 3728685107, 3728685128, 3728685151, 3728685164, 3728685170, 3728685159, 3728685142, 3728685150, 3728685184, 3728685258, 3728685272, 3728685276, 3728685208, 3728685186, 3728685189, 3728685141, 3728685116, 3728685076, 3728685036, 3728685016, 3728684999, 3728684975, 3728684984, 3728685013, 3728685020], "tags": {"landuse": "residential", "name": "\u0533\u0565\u0572\u0561\u0576\u0578\u0582\u0577", "name:en": "Geghanush", "name:hy": "\u0533\u0565\u0572\u0561\u0576\u0578\u0582\u0577", "name:ru": "\u0413\u0435\u0445\u0430\u043d\u0443\u0448", "place": "village", "wikidata": "Q2224063", "wikipedia": "en:Geghanush"}}, {"type": "way", "id": 396381690, "nodes": [3991877219, 3991877213, 3991877212, 3991877215, 3991877214, 5246678192, 5246678191, 5314667092, 5314667091, 5314667086, 5314667081, 5314667078, 5314667079, 9006194916, 9006194915, 5314667080, 5314667084, 5314667083, 5314667082, 5314667085, 5314667087, 5314667088, 5314667089, 5314667090, 5314667093, 6332485352, 3991877217, 6502280645, 11700310544, 3991877216, 3991877211, 3991877219], "tags": {"landuse": "residential", "name": "\u0531\u0563\u0561\u0580\u0561\u056f", "name:az": "\u018fk\u0259r\u0259k", "name:en": "Agarak", "name:hy": "\u0531\u0563\u0561\u0580\u0561\u056f", "name:ru": "\u0410\u0433\u0430\u0440\u0430\u043a", "place": "village", "wikidata": "Q1647453", "wikipedia": "en:Agarak, Meghri"}}, {"type": "way", "id": 541762987, "nodes": [5238432499, 5238432500, 5238432501, 5238432502, 5238432503, 5238432504, 5238432505, 5238432506, 9253122130, 9253122131, 9253122132, 9253122133, 9253122134, 9253122135, 9253122136, 9253122137, 9253122152, 9253122154, 9253122153, 9253122150, 9253122151, 9253122149, 9253122148, 9253122147, 9253122146, 9253122145, 9253122143, 9253122144, 9253122138, 5238432507, 9253122139, 9253122140, 9253122141, 9253122142, 5238432508, 5238432509, 5238432510, 5238432511, 5238432512, 5238432513, 5238432514, 5238432515, 5238433484, 5714036735, 5714036736, 5238432516, 5714036737, 5714036734, 5238432517, 5238432518, 5238432519, 5238432520, 5240823043, 5240823038, 5240823036, 9253105588, 5240823040, 9253105587, 9253105589, 9253105586, 9253105590, 9253105591, 9253105592, 9253105593, 9253105594, 9253105595, 9253105596, 9253105597, 9253105598, 9253105599, 9253105600, 9253105601, 9253105602, 9253105603, 9253105604, 9253105605, 9253105606, 9253105613, 9253105612, 9253105614, 9253105615, 9253105616, 9253122117, 9253122118, 9253122124, 9253122119, 9253122120, 9253122121, 9253122122, 9253122123, 9253105611, 9253122128, 9253122127, 9253122126, 9253122125, 9253122129, 9253105607, 9253105610, 9253105609, 5240823037, 9253105608, 5240823039, 5240823042, 5238433421, 5240823041, 5238433422, 5238433423, 5238433424, 8431826336, 5238433425, 5238433426, 5238433427, 5238433428, 5238433429, 5238433430, 5238433431, 5238433432, 5238433433, 5238433434, 5238433435, 5238433436, 5238433437, 5238433438, 5238433439, 9253170582, 9253170592, 9253170591, 9253170590, 9253170589, 9253170588, 9253170587, 9253170586, 9253170585, 9253170584, 9253170583, 9253170581, 9253170580, 9253170579, 9253170578, 9253170577, 9253170576, 9253170575, 9253170574, 9253170573, 5240923493, 5238433441, 5238433442, 5238433443, 5238433444, 5238433445, 5238433446, 9253368424, 5238433449, 5238433450, 5238433451, 9255201053, 9255201052, 5238433452, 9255201049, 9255201050, 9255201051, 5238433453, 5238433454, 5238433455, 5238433456, 5238433457, 5238433458, 5238433459, 5238433460, 5238433461, 9253122163, 5238433462, 9253122164, 9253119929, 9253119930, 9253119931, 9253119932, 9253119933, 9253119934, 9253119935, 9253119928, 5238433464, 5238433465, 5238433466, 5238433467, 5238433468, 5238433469, 5238433470, 5238433471, 5238433472, 9253149704, 9253149706, 9253149707, 9253149705, 5238433473, 5238433474, 5238433475, 5238433476, 5238433477, 5238433478, 5238433479, 11882282108, 5238433480, 9495018033, 9494842106, 2831001092, 5238433482, 2848752257, 2848752255, 8240346392, 9494841938, 5153115320, 9486182497, 9486182498, 9486182499, 2848752250, 2848752258, 9486182516, 9486200317, 9486200320, 8240346378, 2848752253, 9494841984, 9494841985, 9486182504, 9486182513, 11882282141, 9486182514, 11882282142, 11882282143, 9486182505, 9486182506, 9494842012, 9486182507, 9494842013, 9494842014, 9494842015, 9486182508, 2848752254, 9494842034, 5255324646, 11882282118, 9494842033, 4174838887, 5255324645, 2848752256, 4174838888, 2848752251, 9494842056, 11882282119, 4174838880, 2848752252, 9495696543, 9495809950, 9495696544, 4174838855, 8240346376, 9495696546, 9495809948, 8559567332, 9253122156, 9253122155, 9893283457, 9893283456, 9253122157, 9253122158, 9253122159, 9253122160, 9253122161, 9253122162, 8041835204, 5238432499], "tags": {"admin_level": "6", "boundary": "administrative"}}, {"type": "way", "id": 542409146, "nodes": [5244090224, 5244090225, 5244090226, 5244090227, 5244090228, 5244090229, 5244090230, 5244090231, 5244090232, 5244090233, 5244090234, 5244090235, 5244090236, 5244090237, 5244090238, 5244090239, 5244090240, 5244090241, 5244090242, 5244090243, 5244090244, 5244090245, 5244090246, 5244090247, 5244090248, 5244090249, 5244090250, 5244090251, 5244090252, 5244090253, 5244090254, 5244090255, 5244090256, 5244090257, 5244090258, 5244090259, 5244090260, 5244090261, 5244090262, 5244090224], "tags": {"landuse": "residential", "name": "\u0531\u0573\u0561\u0576\u0561\u0576", "name:en": "Atchanan", "name:hy": "\u0531\u0573\u0561\u0576\u0561\u0576", "name:ru": "\u0410\u0447\u0430\u043d\u0430\u043d", "place": "village", "wikidata": "Q2224164", "wikipedia": "en:Achanan"}}, {"type": "way", "id": 551763231, "nodes": [5328396153, 5328396152, 5328396151, 5328396150, 5328396149, 5328396148, 5328396147, 5328396146, 5328396145, 5328396144, 5328396143, 5328396142, 5328396141, 5328396140, 5328396139, 5328396138, 5328396137, 5328396136, 5328396135, 5328396153], "tags": {"landuse": "residential", "name": "\u054e\u0561\u0570\u0580\u0561\u057e\u0561\u0580", "name:en": "Vahravar", "name:hy": "\u054e\u0561\u0570\u0580\u0561\u057e\u0561\u0580", "name:ru": "\u0412\u0430\u0433\u0440\u0430\u0432\u0430\u0440", "place": "village", "wikidata": "Q2224223", "wikipedia": "en:Vahravar"}}, {"type": "way", "id": 551763412, "nodes": [5328397345, 5328397344, 5328397343, 5328397342, 5328397341, 5328397340, 5328397339, 5328397338, 5328397337, 5328397336, 5328397335, 5328397334, 5328397333, 5328397332, 5328397331, 5328397330, 5328397329, 5328397328, 5328397327, 5328397326, 5328397345], "tags": {"landuse": "residential", "name": "\u0533\u0578\u0582\u0564\u0565\u0574\u0576\u056b\u057d", "name:en": "Gudemnis", "name:hy": "\u0533\u0578\u0582\u0564\u0565\u0574\u0576\u056b\u057d", "name:ru": "\u0413\u0443\u0434\u0435\u043c\u043d\u0438\u0441", "place": "village", "wikidata": "Q957261", "wikipedia": "en:Gudemnis"}}, {"type": "way", "id": 552473900, "nodes": [5334069471, 5334069470, 5334069469, 5334069468, 5334069467, 5334069466, 5334069465, 5334069464, 5334069463, 5334069462, 5334069461, 5334069460, 5334069459, 5334069458, 5334069457, 5334069456, 5334069471], "tags": {"landuse": "residential", "name": "\u053c\u0565\u057c\u0576\u0561\u0571\u0578\u0580", "name:en": "Lernadzor", "name:hy": "\u053c\u0565\u057c\u0576\u0561\u0571\u0578\u0580", "name:ru": "\u041b\u0435\u0440\u043d\u0430\u0434\u0437\u043e\u0440", "place": "village", "wikidata": "Q2224194", "wikipedia": "en:Lernadzor"}}, {"type": "way", "id": 595825791, "nodes": [5677730353, 1876507893, 1970543838, 1876507899, 1970543847, 1876507910, 1876507902, 5677730353], "tags": {"landuse": "residential", "name": "\u0554\u0561\u057b\u0561\u0580\u0561\u0576\u0581", "name:en": "Kajarants", "name:fa": "\u06a9\u0627\u062c\u0627\u0631\u0627\u0646", "name:hy": "\u0554\u0561\u057b\u0561\u0580\u0561\u0576\u0581", "name:ru": "\u041a\u0430\u0434\u0436\u0430\u0440\u0430\u043d\u0446", "place": "village", "wikidata": "Q2090580", "wikipedia": "en:Kajaran (village)"}}, {"type": "way", "id": 658420917, "nodes": [6165796329, 6165796330, 6165796331, 6165796332, 6165796335, 6165796336, 6165796333, 6165796337, 6165796334, 6165796329], "tags": {"name": "Kilit", "name:ru": "\u041a\u0438\u043b\u0438\u0442", "place": "village"}}, {"type": "way", "id": 880087289, "nodes": [8186543964, 8186543963, 8186543962, 8186543961, 8186543960, 8186543959, 8186543958, 8186543964], "tags": {"historic": "ruins", "name:en": "Malev", "place": "village"}}, {"type": "way", "id": 891315283, "nodes": [8284330712, 8284330713, 8284330714, 8284330715, 8284330716, 8284339217, 8284339218, 8284339219, 8284339220, 8284339221, 8284330712], "tags": {"landuse": "residential", "name": "\u0533\u0565\u0572\u056b", "name:en": "Geghi", "name:hy": "\u0533\u0565\u0572\u056b", "name:ru": "\u0413\u0435\u0445\u0438", "place": "village", "wikidata": "Q2762765", "wikipedia": "en:Geghi"}}, {"type": "way", "id": 891316049, "nodes": [8284341481, 8284341482, 8284341483, 8284341484, 8284341485, 8284341486, 8284341487, 8284341488, 8284341489, 8284341490, 8284341491, 8284341492, 8284341481], "tags": {"landuse": "residential", "name": "\u0546\u0565\u0580\u0584\u056b\u0576 \u0540\u0561\u0576\u0564", "name:en": "Nerqin Hand", "name:hy": "\u0546\u0565\u0580\u0584\u056b\u0576 \u0540\u0561\u0576\u0564", "name:ru": "\u041d\u0435\u0440\u043a\u0438\u043d \u0410\u043d\u0434", "place": "village", "wikidata": "Q2224081", "wikipedia": "en:Nerkin Hand"}}, {"type": "way", "id": 891317010, "nodes": [8284335867, 8284335868, 8284335869, 8284335870, 8284335871, 8284335872, 8284335873, 8284335874, 8284335875, 8284335876, 8284335877, 8284335878, 8284335879, 8284335880, 8284335881, 8284335882, 8284335867], "tags": {"landuse": "residential", "name": "\u0535\u0572\u057e\u0561\u0580\u0564", "name:en": "Yeghvard", "name:hy": "\u0535\u0572\u057e\u0561\u0580\u0564", "name:ru": "\u0415\u0433\u0432\u0430\u0440\u0434", "place": "village", "wikidata": "Q3049186", "wikipedia": "en:Yeghvard, Syunik"}}, {"type": "way", "id": 891317011, "nodes": [8284335883, 8284335884, 8284335885, 8284335886, 8284335887, 8284335888, 8284335889, 8284335890, 8284335891, 8284335892, 8284335893, 8284335883], "tags": {"landuse": "residential", "name": "\u0548\u0582\u056a\u0561\u0576\u056b\u057d", "name:en": "Ujanis", "name:hy": "\u0548\u0582\u056a\u0561\u0576\u056b\u057d", "name:ru": "\u0423\u0436\u0430\u043d\u0438\u0441", "place": "village", "wikidata": "Q2074308", "wikipedia": "en:Uzhanis"}}, {"type": "way", "id": 891317012, "nodes": [8284335903, 8284335904, 8284335905, 8284335906, 8284335907, 8284335908, 8284335909, 8284335910, 8284335911, 8284335912, 8284335913, 8284335914, 8284335915, 8284335916, 8284352417, 8284352418, 8284352419, 8284335903], "tags": {"landuse": "residential", "name": "\u054e\u0561\u0580\u0564\u0561\u057e\u0561\u0576\u0584", "name:en": "Vardavank", "name:hy": "\u054e\u0561\u0580\u0564\u0561\u057e\u0561\u0576\u0584", "name:ru": "\u0412\u0430\u0440\u0434\u0430\u0432\u0430\u043d\u043a", "place": "village", "wikidata": "Q378924", "wikipedia": "en:Vardavank"}}, {"type": "way", "id": 891318852, "nodes": [8284352486, 8284352487, 8284352488, 8284352489, 8284352490, 8284352491, 8284352492, 8284352493, 8284352494, 8284352495, 8284352496, 8284352497, 8284352498, 8284352499, 8284352500, 8284352486], "tags": {"landuse": "residential", "name": "\u0532\u0561\u0580\u0563\u0578\u0582\u0577\u0561\u057f", "name:en": "Bargushat", "name:hy": "\u0532\u0561\u0580\u0563\u0578\u0582\u0577\u0561\u057f", "name:ru": "\u0411\u0430\u0440\u0433\u0443\u0448\u0430\u0442", "place": "village", "wikidata": "Q4860614", "wikipedia": "en:Bargushat"}}, {"type": "way", "id": 921980253, "nodes": [8559561781, 8559561780, 8559561779, 8559561778, 8559561777, 8559561776, 8559561775, 10689611070, 10689611071, 8559561774, 8559561773, 8559561772, 10689611072, 8559561781], "tags": {"landuse": "residential", "name": "\u053f\u0561\u057e\u0573\u0578\u0582\u057f", "name:en": "Kavtchut", "name:hy": "\u053f\u0561\u057e\u0573\u0578\u0582\u057f", "name:ru": "\u041a\u0430\u0432\u0447\u0443\u0442", "place": "village", "wikidata": "Q6379156", "wikipedia": "en:Kavchut"}}, {"type": "way", "id": 921980254, "nodes": [8559561809, 8559561808, 8559561807, 8559561806, 8559561805, 8559561804, 8559561803, 8559561802, 8559561801, 8559561800, 8559561799, 8559561798, 8559561797, 8559561796, 8559561795, 8559561794, 8559561793, 8559561792, 8559561791, 8559561790, 8559561809], "tags": {"landuse": "residential", "name": "\u0531\u0576\u0564\u0578\u056f\u0561\u057e\u0561\u0576", "name:en": "Andokavan", "name:hy": "\u0531\u0576\u0564\u0578\u056f\u0561\u057e\u0561\u0576", "name:ru": "\u0410\u043d\u0434\u043e\u043a\u0430\u0432\u0430\u043d", "place": "village", "wikidata": "Q48861645", "wikipedia": "en:Andokavan"}}, {"type": "way", "id": 921980255, "nodes": [8559567328, 8559567327, 8559567326, 8559567325, 8559567324, 8559567323, 8559567322, 8559567321, 8559567320, 8559567319, 8559567318, 8559567317, 8559561816, 8559561815, 8559561814, 8559561813, 8559561812, 8559561811, 8559561810, 8559567328], "tags": {"name": "\u054d\u0566\u0576\u0561\u056f", "name:en": "Sznak", "name:hy": "\u054d\u0566\u0576\u0561\u056f", "name:ru": "\u0421\u0437\u043d\u0430\u043a", "place": "village", "wikidata": "Q7664781", "wikipedia": "en:Sznak"}}, {"type": "way", "id": 921980256, "nodes": [8559567354, 8559567353, 8559567352, 8559567351, 8559567350, 8559567349, 8559567348, 8559567347, 8559567346, 8559567345, 8559567344, 8559567343, 8559567342, 8559567341, 8559567340, 8559567339, 8559567338, 8559567337, 8559567336, 8559567335, 9893283456, 8559567334, 8559567333, 8559567332, 11882282121, 9495809951, 9495809998, 9495810010, 11882282124, 11882282125, 8559567329, 8559567354], "tags": {"landuse": "residential", "name": "\u054d\u0575\u0578\u0582\u0576\u056b\u0584", "name:en": "Syunik", "name:hy": "\u054d\u0575\u0578\u0582\u0576\u056b\u0584", "name:ru": "\u0421\u044e\u043d\u0438\u043a", "place": "village", "wikidata": "Q2074319", "wikipedia": "en:Syunik (village)"}}, {"type": "way", "id": 1005798007, "nodes": [9279924126, 9279924127, 9279924128, 9279924129, 9279924130, 9279924131, 9279924132, 9279924133, 9279924134, 9279924135, 9279924136, 9279924137, 9279924138, 9279924139, 9279924140, 9279924141, 9279924142, 9279924143, 9279924144, 9279924145, 9279924146, 9279924147, 9279924148, 9279924149, 9279924150, 9279924151, 9279924152, 9279924153, 9279924154, 9279924155, 9279924156, 9279924157, 9279924158, 9279924159, 9279924160, 9279924161, 9279924162, 9279924163, 9279924164, 9279924165, 9279924166, 9279924167, 9279924168, 9279924169, 9279924170, 9279924171, 9279924172, 9279924173, 9279924174, 9279924175, 9279924176, 9279924177, 9279924178, 9279924179, 9279924180, 9279924181, 9279924182, 9279924183, 9279924184, 9279924185, 9279924186, 9279924187, 9279924188, 9279924189, 9279924190, 9279924191, 9279924192, 9279924193, 9279924194, 9279924195, 9279924196, 9279924197, 9279924198, 9279924199, 9279924200, 9279924201, 9279924202, 9279924203, 9279924204, 9279924205, 9279924206, 9279924207, 9279924208, 9279924209, 9279924210, 9279924211, 9279924212, 9279924213, 9279924214, 9279924215, 9279924216, 9279924317, 9279924318, 9279924319, 9279924320, 9279924321, 9279924322, 9279924323, 9279924324, 9279924325, 9279924326, 9279924327, 9279924328, 9279924329, 9279924330, 9279924331, 9279924332, 9279924333, 9279924334, 9279924335, 9893283456, 9893283457, 9253122155, 11882282120, 9495696543, 2848752252, 4174838880, 11882282119, 9494842056, 2848752251, 4174838888, 2848752256, 5255324645, 4174838887, 9494842033, 11882282118, 5255324646, 9494842034, 2848752254, 9486182508, 9494842015, 9494842014, 9494842013, 9486182507, 9494842012, 9486182506, 9486182505, 11882282143, 11882282142, 9486182514, 11882282141, 9486182513, 9486182504, 9494841985, 9494841984, 2848752253, 8240346378, 9486200320, 9486200317, 9486182516, 2848752258, 2848752250, 9486182499, 9486182498, 9486182497, 5153115320, 9494841938, 8240346392, 2848752255, 2848752257, 5238433482, 2831001092, 9494842106, 9495018033, 5238433480, 11882282108, 9279924342, 9279924343, 9279924344, 9279924345, 9279924346, 9279924347, 9279924348, 9279924349, 9279924350, 9279924351, 9279924352, 9279924353, 9279924354, 9279924355, 9279924356, 9279924357, 9279924358, 9279924359, 9279924360, 9279924361, 9279924362, 9279924363, 9279924364, 9279924365, 9279924366, 9279924367, 9279924368, 9279924369, 9279924370, 9279924371, 9279924372, 9279924373, 9279924374, 9279924375, 9279924376, 9279924377, 9279924378, 9279924379, 9279924380, 9279924381, 9279924382, 9279924383, 9279924384, 9279924385, 9279924386, 9279924387, 9279924388, 9279924389, 9279924390, 9279924391, 9279924392, 9279924393, 9279924394, 9279924395, 9279924396, 9279924397, 9279924398, 9279924399, 9279924400, 9279924401, 9279924402, 9279924403, 9279924404, 9279924405, 9279924406, 9279924407, 9279924408, 9279924410, 9279924411, 9279924412, 9279924413, 9279924414, 9279924415, 8065176773, 9279924416, 9279924417, 9279924418, 9279924420, 9279924421, 9279924422, 9279924423, 9279924424, 9279924425, 9279924426, 9279924427, 9279924428, 9279924429, 9279924430, 9279924431, 9279924432, 9279924419, 9279924409, 9279924433, 9279924434, 9279924435, 9279924436, 9279924437, 9279924438, 9279924439, 9279924440, 9279924441, 9279924442, 9279924443, 9279924444, 9279924445, 9279924446, 9279924126], "tags": {"name": "\u053f\u0561\u057a\u0561\u0576", "name:az": "Qafan \u015f\u0259h\u0259ri", "name:en": "Kapan", "name:ru": "\u041a\u0430\u043f\u0430\u043d", "place": "town", "wikidata": "Q31583", "wikipedia": "en:Kapan"}}, {"type": "way", "id": 1148687470, "nodes": [10687167925, 10687167926, 10687167927, 10687167932, 10687167931, 10687167928, 10687167929, 10687167930, 10687167925], "tags": {"name": "\u0533\u0565\u057f\u056b\u0577\u0565\u0576", "name:en": "Getishen", "name:hy": "\u0533\u0565\u057f\u056b\u0577\u0565\u0576", "name:ru": "\u0413\u0435\u0442\u0438\u0448\u0435\u043d", "place": "village", "wikidata": "Q5554482", "wikipedia": "en:Getishen"}}, {"type": "way", "id": 1148687471, "nodes": [10687167933, 10687167934, 10687167935, 10687167936, 10687167937, 10687167938, 10687167939, 10687167940, 10687167941, 10687167933], "tags": {"name": "\u0546\u0578\u0580 \u0531\u057d\u057f\u0572\u0561\u0562\u0565\u0580\u0564", "name:en": "Nor Astghaberd", "name:hy": "\u0546\u0578\u0580 \u0531\u057d\u057f\u0572\u0561\u0562\u0565\u0580\u0564", "name:ru": "\u041d\u043e\u0440 \u0410\u0441\u0442\u0445\u0430\u0431\u0435\u0440\u0434", "place": "village", "wikidata": "Q2224255", "wikipedia": "en:Nor Astghaberd"}}, {"type": "way", "id": 1148687472, "nodes": [10687167944, 10687167945, 10687167946, 10687167947, 10687167948, 10687167949, 10687167950, 10687167944], "tags": {"name": "\u0548\u0579\u0565\u0569\u056b", "name:en": "Vocheti", "name:hy": "\u0548\u0579\u0565\u0569\u056b", "name:ru": "\u0412\u043e\u0447\u0435\u0442\u0438", "place": "village", "wikidata": "Q7939254", "wikipedia": "en:Vocheti"}}, {"type": "way", "id": 1148693447, "nodes": [10687232925, 10687232926, 10687232927, 10687232928, 10687232929, 10687232925], "tags": {"landuse": "residential", "name": "\u0553\u0578\u0582\u056d\u0580\u0578\u0582\u057f", "name:en": "Pukhrut", "name:hy": "\u0553\u0578\u0582\u056d\u0580\u0578\u0582\u057f", "name:ru": "\u041f\u0443\u0445\u0440\u0443\u0442", "place": "village", "wikidata": "Q7200187", "wikipedia": "en:Pukhrut"}}, {"type": "way", "id": 1148693448, "nodes": [10687232930, 10687232931, 10687232932, 10687232933, 10687232934, 10687232930], "tags": {"landuse": "residential", "name": "\u053f\u0561\u0569\u0576\u0561\u057c\u0561\u057f", "name:en": "Katnarat", "name:hy": "\u053f\u0561\u0569\u0576\u0561\u057c\u0561\u057f", "name:ru": "\u041a\u0430\u0442\u043d\u0430\u0440\u0430\u0442", "place": "village", "wikidata": "Q6377710", "wikipedia": "en:Katnarat, Syunik"}}, {"type": "way", "id": 1148693449, "nodes": [10687232935, 10687232936, 10687232937, 10687232938, 10687232939, 10687232940, 10687232941, 10687232935], "tags": {"name": "\u054e\u0565\u0580\u056b\u0576 \u0533\u056b\u0580\u0561\u0569\u0561\u0572", "name:en": "Verin Giratagh", "name:hy": "\u054e\u0565\u0580\u056b\u0576 \u0533\u056b\u0580\u0561\u0569\u0561\u0572", "name:ru": "\u0412\u0435\u0440\u0438\u043d \u0413\u0438\u0440\u0430\u0442\u0430\u0445", "place": "village", "wikidata": "Q7921355", "wikipedia": "en:Verin Giratagh"}}, {"type": "way", "id": 1148693450, "nodes": [10687232942, 10687232943, 10687232944, 10687232945, 10687232946, 10687232947, 10687232942], "tags": {"name": "\u0546\u0565\u0580\u0584\u056b\u0576 \u0533\u056b\u0580\u0561\u0569\u0561\u0572", "name:en": "Nerkin Giratagh", "name:hy": "\u0546\u0565\u0580\u0584\u056b\u0576 \u0533\u056b\u0580\u0561\u0569\u0561\u0572", "name:ru": "\u041d\u0435\u0440\u043a\u0438\u043d \u0413\u0438\u0440\u0430\u0442\u0430\u0445", "place": "village", "wikidata": "Q10950626", "wikipedia": "en:Nerkin Giratagh"}}, {"type": "way", "id": 1148693453, "nodes": [10687232965, 10687232966, 10687232967, 10687232968, 10687232969, 10687232970, 10687232965], "tags": {"name": "\u053f\u0561\u0580\u0564", "name:en": "Kard", "name:hy": "\u053f\u0561\u0580\u0564", "name:ru": "\u041a\u0430\u0440\u0434", "place": "village", "wikidata": "Q6369098", "wikipedia": "en:Kard, Armenia"}}, {"type": "way", "id": 1148693454, "nodes": [10687232971, 10687232972, 10687232973, 10687232974, 10687232975, 10687232971], "tags": {"name": "\u0533\u0565\u0572\u0561\u057e\u0561\u0576\u0584", "name:en": "Geghavank", "name:hy": "\u0533\u0565\u0572\u0561\u057e\u0561\u0576\u0584", "name:ru": "\u0413\u0435\u0445\u0430\u0432\u0430\u043d\u043a", "place": "village", "wikidata": "Q5530050", "wikipedia": "en:Geghavank"}}, {"type": "way", "id": 1148696291, "nodes": [10687216929, 10687216930, 10687216931, 10687216932, 10687216933, 10687216929], "tags": {"landuse": "residential", "name": "\u053d\u0564\u0580\u0561\u0576\u0581", "name:en": "Khdrants", "name:hy": "\u053d\u0564\u0580\u0561\u0576\u0581", "name:ru": "\u0425\u0434\u0440\u0430\u043d\u0446", "place": "village", "wikidata": "Q2224308", "wikipedia": "en:Khdrants"}}, {"type": "way", "id": 1148696292, "nodes": [10687216934, 10687216935, 10687216936, 10687216937, 10687216938, 10687216939, 10687216934], "tags": {"name": "\u0534\u056b\u0581\u0574\u0561\u0575\u0580\u056b", "name:en": "Ditsmayri", "name:hy": "\u0534\u056b\u0581\u0574\u0561\u0575\u0580\u056b", "name:ru": "\u0414\u0438\u0446\u043c\u0430\u0439\u0440\u0438", "place": "village", "wikidata": "Q5283707", "wikipedia": "en:Ditsmayri"}}, {"type": "way", "id": 1148999539, "nodes": [10689556459, 10689556460, 10689556461, 10689556462, 10689556463, 10689556464, 10689556465, 10689556459], "tags": {"landuse": "residential", "name": "\u053d\u0578\u0580\u0571\u0578\u0580", "name:en": "Khordzor", "name:hy": "\u053d\u0578\u0580\u0571\u0578\u0580", "name:ru": "\u0425\u043e\u0440\u0434\u0437\u043e\u0440", "place": "village", "wikidata": "Q6402335", "wikipedia": "en:Khordzor"}}, {"type": "way", "id": 1149009721, "nodes": [10689611074, 10689611075, 10689611076, 10689611077, 10689611078, 10689611079, 10689611081, 10689611080, 10689611074], "tags": {"landuse": "residential", "name": "\u0532\u0561\u0562\u056b\u056f\u0561\u057e\u0561\u0576", "name:en": "Babikavan", "name:hy": "\u0532\u0561\u0562\u056b\u056f\u0561\u057e\u0561\u0576", "name:ru": "\u0411\u0430\u0431\u0438\u043a\u0430\u0432\u0430\u043d", "place": "village", "wikidata": "Q48861649", "wikipedia": "en:Babikavan"}}, {"type": "way", "id": 1149009722, "nodes": [10689611083, 10689611084, 10689611085, 10689611086, 10689611087, 10689611088, 10689611089, 10689611090, 10689611091, 10689611092, 10689611093, 10689611094, 10689611095, 10689611096, 10689611097, 10689611098, 10689611099, 10689611083], "tags": {"landuse": "residential", "name": "\u0541\u0561\u0563\u056b\u056f\u0561\u057e\u0561\u0576", "name:en": "Dzagikavan", "name:hy": "\u0541\u0561\u0563\u056b\u056f\u0561\u057e\u0561\u0576", "name:ru": "\u0414\u0437\u0430\u0433\u0438\u043a\u0430\u0432\u0430\u043d", "place": "village", "wikidata": "Q6940095", "wikipedia": "en:Dzagikavan"}}, {"type": "way", "id": 1149009729, "nodes": [10689625306, 10689625307, 10689625308, 10689625309, 10689625310, 10689625312, 10689625306], "tags": {"name": "\u0533\u0565\u0572\u0561\u057e\u0561\u0576\u0584", "name:en": "Geghavank", "name:hy": "\u0533\u0565\u0572\u0561\u057e\u0561\u0576\u0584", "name:ru": "\u0413\u0435\u0445\u0430\u0432\u0430\u043d\u043a", "place": "village", "wikidata": "Q5530050", "wikipedia": "en:Geghavank"}}, {"type": "way", "id": 1241349623, "nodes": [11533858128, 11533858129, 11533858130, 11533858131, 11533858155, 11533858132, 11533858133, 11533858134, 11533858135, 11533858136, 11533858137, 11533858138, 11533858139, 11533858140, 11533858141, 11533858142, 11533858143, 11533863473, 11533858144, 11533863474, 11533863478, 11533863476, 11533863480, 11533863483, 11533863485, 11533863486, 11533863487, 11533863488, 11533863489, 11533863490, 11533863491, 11533863492, 5139003967, 5139003968, 2776765343, 11533863493, 11533863494, 11533863496, 11533863495, 11533863497, 11533863498, 11533863499, 11533863500, 5138697067, 5138697056, 5138697057, 5138697058, 5138697059, 5138697060, 5138697061, 11533863484, 11533863591, 11533863594, 11533863593, 11533863592, 11533863472, 11533863590, 11533863481, 11533863482, 11533863479, 11533863477, 11533863475, 11533863471, 11533858145, 11533858146, 11533858147, 11533858148, 11533858149, 11533858150, 11533858151, 11533858152, 11533858153, 11533858154, 11533863501, 11533863505, 11533863504, 11533863508, 11533863510, 11533863513, 5139018076, 11533863515, 5139018075, 5139018074, 11533863528, 11533863529, 11533863527, 11533863526, 11533863525, 11533863524, 11533863523, 11533863522, 11533863521, 11533863516, 11533863514, 11533863511, 11533863512, 11533863509, 11533863506, 11533863507, 11533863502, 11533863503, 11533858128], "tags": {"landuse": "residential", "name": "\u0531\u0580\u0561\u0584\u057d\u0561\u0577\u0565\u0576", "name:en": "Araksashen", "name:hy": "\u0531\u0580\u0561\u0584\u057d\u0561\u0577\u0565\u0576", "name:ru": "\u0410\u0440\u0430\u043a\u0441\u0430\u0448\u0435\u043d", "place": "village"}}, {"type": "relation", "id": 7745403, "members": [{"type": "way", "ref": 541762987, "role": "outer"}, {"type": "node", "ref": 210231290, "role": "admin_centre"}], "tags": {"admin_level": "6", "boundary": "administrative", "is_in:country": "Armenia, Syunik", "name": "\u053f\u0561\u057a\u0561\u0576", "name:az": "Qafan \u015f\u0259h\u0259ri", "name:en": "Kapan", "name:fa": "\u06a9\u0627\u067e\u0627\u0646", "name:fr": "Kapan", "name:hy": "\u053f\u0561\u057a\u0561\u0576", "name:ja": "\u30ab\u30d1\u30f3", "name:ko": "\uce74\ud310", "name:lt": "Kapanas", "name:ru": "\u041a\u0430\u043f\u0430\u043d", "name:uk": "\u041a\u0430\u043f\u0430\u043d", "place": "town", "type": "boundary", "wikidata": "Q31583", "wikipedia": "en:Kapan"}}, {"type": "relation", "id": 8755201, "members": [{"type": "way", "ref": 360473323, "role": "outer"}, {"type": "way", "ref": 360473324, "role": "outer"}], "tags": {"landuse": "residential", "name": "\u053e\u0561\u057e", "name:en": "Tsav", "name:hy": "\u053e\u0561\u057e", "name:ru": "\u0426\u0430\u0432", "place": "village", "type": "multipolygon", "wikidata": "Q2224114", "wikipedia": "en:Tsav, Armenia"}}]}