{"version": 0.6, "generator": "Overpass API 0.7.62.8 e802775f", "osm3s": {"timestamp_osm_base": "2025-12-01T14:31:02Z", "copyright": "The data included in this document is from www.openstreetmap.org. The data is made available under ODbL."}, "elements": [{"type": "node", "id": 1886317089, "lat": 39.5559048, "lon": 44.9850947, "tags": {"name": "\u015e\u0259rur", "name:ar": "\u0634\u0631\u0648\u0631", "name:az": "\u015e\u0259rur", "name:be": "\u0428\u0430\u0440\u0443\u0440", "name:ce": "\u0428\u0430\u044c\u0440\u0443\u0440", "name:cs": "\u0160arur", "name:de": "\u015e\u0259rur", "name:en": "Sharur", "name:eo": "\u015carur", "name:fa": "\u0634\u0631\u0648\u0631", "name:fr": "Sharur", "name:hy": "\u0547\u0561\u0580\u0578\u0582\u0580", "name:ja": "\u30b7\u30e3\u30eb\u30eb", "name:ka": "\u10e8\u10d0\u10e0\u10e3\u10e0\u10d8", "name:ku": "\u015eer\u00eel", "name:lt": "\u0160er\u016bras", "name:ml": "\u0d37\u0d31\u0d42\u0d7c", "name:ps": "\u0634\u0631\u0648\u0631", "name:ro": "\u0218arur", "name:ru": "\u0428\u0430\u0440\u0443\u0440", "name:tg": "\u0428\u0430\u0440\u0443\u0440", "name:tr": "\u015eerur", "name:ur": "\u0634\u0631\u0648\u0631", "name:zh": "\u6c99\u9b6f\u723e", "place": "town", "population": "7400", "wikidata": "Q162411", "wikimedia_commons": "Category:\u015e\u0259rur (city)", "wikipedia": "az:\u015e\u0259rur"}}, {"type": "node", "id": 7296618746, "lat": 39.5518718, "lon": 44.9661851}, {"type": "node", "id": 7296618747, "lat": 39.5493505, "lon": 44.9681266}, {"type": "node", "id": 7296618748, "lat": 39.5512809, "lon": 44.9729464}, {"type": "node", "id": 7296618749, "lat": 39.5497576, "lon": 44.9739512}, {"type": "node", "id": 7296618750, "lat": 39.5467109, "lon": 44.9752115}, {"type": "node", "id": 7296618751, "lat": 39.543717, "lon": 44.9767476}, {"type": "node", "id": 7296618752, "lat": 39.5448963, "lon": 44.9829031}, {"type": "node", "id": 7296618753, "lat": 39.5440265, "lon": 44.985675}, {"type": "node", "id": 7296618754, "lat": 39.540975, "lon": 44.9866117}, {"type": "node", "id": 7296618755, "lat": 39.5404443, "lon": 44.9873955}, {"type": "node", "id": 7296618756, "lat": 39.5419037, "lon": 44.9917159}, {"type": "node", "id": 7296618757, "lat": 39.5430831, "lon": 44.9930158}, {"type": "node", "id": 7296618758, "lat": 39.5450879, "lon": 44.9949657}, {"type": "node", "id": 7296618759, "lat": 39.546164, "lon": 44.9948319}, {"type": "node", "id": 7296618760, "lat": 39.5487289, "lon": 44.9903586}, {"type": "node", "id": 7296618761, "lat": 39.549805, "lon": 44.9916203}, {"type": "node", "id": 7296618762, "lat": 39.5501882, "lon": 44.992232}, {"type": "node", "id": 7296618763, "lat": 39.5488911, "lon": 44.9932452}, {"type": "node", "id": 7296618764, "lat": 39.5494217, "lon": 44.9942775}, {"type": "node", "id": 7296618765, "lat": 39.5519718, "lon": 44.9953862}, {"type": "node", "id": 7296618766, "lat": 39.5528709, "lon": 44.993207}, {"type": "node", "id": 7296618767, "lat": 39.5535047, "lon": 44.9903012}, {"type": "node", "id": 7296618768, "lat": 39.5548607, "lon": 44.9898424}, {"type": "node", "id": 7296618769, "lat": 39.5575137, "lon": 44.9906453}, {"type": "node", "id": 7296618770, "lat": 39.5580001, "lon": 44.9907983}, {"type": "node", "id": 7296618771, "lat": 39.5586928, "lon": 44.9915629}, {"type": "node", "id": 7296618772, "lat": 39.5591055, "lon": 44.9932834}, {"type": "node", "id": 7296618773, "lat": 39.5597539, "lon": 44.9954627}, {"type": "node", "id": 7296618774, "lat": 39.560255, "lon": 44.9973744}, {"type": "node", "id": 7296618775, "lat": 39.5619646, "lon": 44.9951377}, {"type": "node", "id": 7296618776, "lat": 39.5627752, "lon": 44.9934172}, {"type": "node", "id": 7296618777, "lat": 39.5653247, "lon": 44.9906644}, {"type": "node", "id": 7296618778, "lat": 39.5673142, "lon": 44.9889248}, {"type": "node", "id": 7296618779, "lat": 39.5665479, "lon": 44.9873764}, {"type": "node", "id": 7296618780, "lat": 39.5655458, "lon": 44.9881602}, {"type": "node", "id": 7296618781, "lat": 39.5639247, "lon": 44.9852162}, {"type": "node", "id": 7296618782, "lat": 39.5622594, "lon": 44.9839736}, {"type": "node", "id": 7296618783, "lat": 39.5613309, "lon": 44.9836104}, {"type": "node", "id": 7296618784, "lat": 39.5607414, "lon": 44.9796342}, {"type": "node", "id": 7296621285, "lat": 39.5610362, "lon": 44.9758873}, {"type": "node", "id": 7296621286, "lat": 39.5591202, "lon": 44.9748168}, {"type": "node", "id": 7296621287, "lat": 39.5596066, "lon": 44.9718346}, {"type": "node", "id": 7296621288, "lat": 39.5550965, "lon": 44.9716052}, {"type": "node", "id": 7296621289, "lat": 39.5540206, "lon": 44.9694259}, {"type": "way", "id": 781522460, "nodes": [7296618746, 7296618747, 7296618748, 7296618749, 7296618750, 7296618751, 7296618752, 7296618753, 7296618754, 7296618755, 7296618756, 7296618757, 7296618758, 7296618759, 7296618760, 7296618761, 7296618762, 7296618763, 7296618764, 7296618765, 7296618766, 7296618767, 7296618768, 7296618769, 7296618770, 7296618771, 7296618772, 7296618773, 7296618774, 7296618775, 7296618776, 7296618777, 7296618778, 7296618779, 7296618780, 7296618781, 7296618782, 7296618783, 7296618784, 7296621285, 7296621286, 7296621287, 7296621288, 7296621289, 7296618746], "tags": {"landuse": "residential", "name": "\u015e\u0259rur", "name:fa": "\u0634\u0631\u0648\u0631", "name:ru": "\u0428\u0430\u0440\u0443\u0440", "place": "town", "population": "7400"}}]}