{"version": 0.6, "generator": "Overpass API 0.7.62.8 e802775f", "osm3s": {"timestamp_osm_base": "2025-12-01T14:37:09Z", "copyright": "The data included in this document is from www.openstreetmap.org. The data is made available under ODbL."}, "elements": [{"type": "node", "id": 210119692, "lat": 40.1390478, "lon": 45.3054735, "tags": {"int_name": "Martuni", "is_in": "Armenia, Gegharkunik", "is_in:country": "Armenia", "is_in:country_code": "AM", "is_in:municipality": "\u0544\u0561\u0580\u057f\u0578\u0582\u0576\u0578\u0582 \u0570\u0561\u0574\u0561\u0575\u0576\u0584", "is_in:region": "\u0533\u0565\u0572\u0561\u0580\u0584\u0578\u0582\u0576\u056b\u0584\u056b \u0574\u0561\u0580\u0566", "name": "\u0544\u0561\u0580\u057f\u0578\u0582\u0576\u056b", "name:az": "A\u015fa\u011f\u0131 Qaranl\u0131q", "name:ckb": "\u0645\u0627\u0631\u062a\u0648\u0646\u06cc", "name:el": "\u039c\u03b1\u03c1\u03c4\u03bf\u03cd\u03bd\u03b9", "name:en": "Martuni", "name:fa": "\u0645\u0627\u0631\u062a\u0648\u0646\u06cc", "name:fr": "Martouni", "name:hy": "\u0544\u0561\u0580\u057f\u0578\u0582\u0576\u056b", "name:ja": "\u30de\u30eb\u30c8\u30a5\u30cb", "name:ku": "Martun\u00ee", "name:ml": "\u0d2e\u0d3e\u0d7c\u0d1f\u0d4d\u0d1f\u0d42\u0d23\u0d3f", "name:ru": "\u041c\u0430\u0440\u0442\u0443\u043d\u0438", "name:sk": "Martuni", "name:uk": "\u041c\u0430\u0440\u0442\u0443\u043d\u0456", "nat_name": "\u0544\u0561\u0580\u057f\u0578\u0582\u0576\u056b", "place": "town", "population": "11399", "population:date": "2022-01-01", "source:population": "Armstat", "wikidata": "Q39603", "wikipedia": "en:Martuni, Armenia"}}, {"type": "node", "id": 590685125, "lat": 40.2483299, "lon": 45.1455126, "tags": {"is_in:country": "Armenia", "is_in:country_code": "AM", "is_in:municipality": "\u0533\u0561\u057e\u0561\u057c\u056b \u0570\u0561\u0574\u0561\u0575\u0576\u0584", "is_in:region": "\u0533\u0565\u0572\u0561\u0580\u0584\u0578\u0582\u0576\u056b\u0584\u056b \u0574\u0561\u0580\u0566", "name": "\u0533\u0565\u0572\u0561\u0580\u0584\u0578\u0582\u0576\u056b\u0584", "name:en": "Gegharkunik", "name:hy": "\u0533\u0565\u0572\u0561\u0580\u0584\u0578\u0582\u0576\u056b\u0584", "name:ru": "\u0413\u0435\u0445\u0430\u0440\u043a\u0443\u043d\u0438\u043a", "place": "village", "population": "1848", "population:date": "2022-01-01", "source:population": "Armstat", "wikidata": "Q1144970", "wikipedia": "en:Gegharkunik (village)"}}, {"type": "node", "id": 1252449729, "lat": 40.4616386, "lon": 45.0627644, "tags": {"is_in:country": "Armenia", "is_in:country_code": "AM", "is_in:municipality": "\u0533\u0561\u057e\u0561\u057c\u056b \u0570\u0561\u0574\u0561\u0575\u0576\u0584", "is_in:region": "\u0533\u0565\u0572\u0561\u0580\u0584\u0578\u0582\u0576\u056b\u0584\u056b \u0574\u0561\u0580\u0566", "name": "\u053c\u0573\u0561\u0583", "name:en": "Lchap", "name:hy": "\u053c\u0573\u0561\u0583", "name:ru": "\u041b\u0447\u0430\u043f", "place": "village", "population": "1182", "population:date": "2022-01-01", "source:population": "Armstat", "wikidata": "Q1529772", "wikipedia": "en:Lchap"}}, {"type": "node", "id": 1438386777, "lat": 40.1289209, "lon": 45.3780084, "tags": {"is_in:country": "Armenia", "is_in:country_code": "AM", "is_in:municipality": "\u0544\u0561\u0580\u057f\u0578\u0582\u0576\u0578\u0582 \u0570\u0561\u0574\u0561\u0575\u0576\u0584", "is_in:region": "\u0533\u0565\u0572\u0561\u0580\u0584\u0578\u0582\u0576\u056b\u0584\u056b \u0574\u0561\u0580\u0566", "name": "\u0536\u0578\u056c\u0561\u0584\u0561\u0580", "name:az": "Zolaxa\u00e7", "name:en": "Zolakar", "name:hy": "\u0536\u0578\u056c\u0561\u0584\u0561\u0580", "name:ru": "\u0417\u043e\u043b\u0430\u043a\u0430\u0440", "place": "village", "population": "6828", "population:date": "2022-01-01", "source:population": "Armstat", "wikidata": "Q2636133", "wikipedia": "en:Zolakar"}}, {"type": "node", "id": 1438386778, "lat": 40.1589519, "lon": 45.4674788, "tags": {"is_in:country": "Armenia", "is_in:country_code": "AM", "is_in:municipality": "\u0544\u0561\u0580\u057f\u0578\u0582\u0576\u0578\u0582 \u0570\u0561\u0574\u0561\u0575\u0576\u0584", "is_in:region": "\u0533\u0565\u0572\u0561\u0580\u0584\u0578\u0582\u0576\u056b\u0584\u056b \u0574\u0561\u0580\u0566", "name": "\u053e\u0578\u057e\u056b\u0576\u0561\u0580", "name:az": "Kolagir\u0259n", "name:en": "Tsovinar", "name:hy": "\u053e\u0578\u057e\u056b\u0576\u0561\u0580", "name:ru": "\u0426\u043e\u0432\u0438\u043d\u0430\u0440", "place": "village", "population": "4583", "population:date": "2022-01-01", "source:population": "Armstat", "wikidata": "Q2636211", "wikipedia": "en:Tsovinar, Armenia"}}, {"type": "node", "id": 1438386779, "lat": 40.125811, "lon": 45.3562778, "tags": {"is_in:country": "Armenia", "is_in:country_code": "AM", "is_in:municipality": "\u0544\u0561\u0580\u057f\u0578\u0582\u0576\u0578\u0582 \u0570\u0561\u0574\u0561\u0575\u0576\u0584", "is_in:region": "\u0533\u0565\u0572\u0561\u0580\u0584\u0578\u0582\u0576\u056b\u0584\u056b \u0574\u0561\u0580\u0566", "name": "\u0531\u057d\u057f\u0572\u0561\u0571\u0578\u0580", "name:az": "A\u011fq\u0131raq", "name:en": "Astghadzor", "name:hy": "\u0531\u057d\u057f\u0572\u0561\u0571\u0578\u0580", "name:ru": "\u0410\u0441\u0442\u0445\u0430\u0434\u0437\u043e\u0440", "place": "village", "population": "4439", "population:date": "2022-01-01", "source:population": "Armstat", "wikidata": "Q2636216", "wikipedia": "en:Astghadzor"}}, {"type": "node", "id": 1438386780, "lat": 40.1354812, "lon": 45.3295706, "tags": {"is_in:country": "Armenia", "is_in:country_code": "AM", "is_in:municipality": "\u0544\u0561\u0580\u057f\u0578\u0582\u0576\u0578\u0582 \u0570\u0561\u0574\u0561\u0575\u0576\u0584", "is_in:region": "\u0533\u0565\u0572\u0561\u0580\u0584\u0578\u0582\u0576\u056b\u0584\u056b \u0574\u0561\u0580\u0566", "name": "\u054e\u0561\u0572\u0561\u0577\u0565\u0576", "name:az": "Abdala\u011fal\u0131", "name:en": "Vaghashen", "name:hy": "\u054e\u0561\u0572\u0561\u0577\u0565\u0576", "name:ru": "\u0412\u0430\u0433\u0430\u0448\u0435\u043d", "place": "village", "population": "4123", "population:date": "2022-01-01", "source:population": "Armstat", "wikidata": "Q2635853", "wikipedia": "en:Vaghashen"}}, {"type": "node", "id": 1438386781, "lat": 40.1391405, "lon": 45.4308968, "tags": {"is_in:country": "Armenia", "is_in:country_code": "AM", "is_in:municipality": "\u0544\u0561\u0580\u057f\u0578\u0582\u0576\u0578\u0582 \u0570\u0561\u0574\u0561\u0575\u0576\u0584", "is_in:region": "\u0533\u0565\u0572\u0561\u0580\u0584\u0578\u0582\u0576\u056b\u0584\u056b \u0574\u0561\u0580\u0566", "name": "\u054e\u0561\u0580\u0564\u0565\u0576\u056b\u056f", "name:az": "A\u015fa\u011f\u0131 G\u00f6z\u0259ld\u0259r\u0259", "name:ckb": "\u06a4\u0627\u0631\u062f\u06ce\u0646\u06cc\u06a9", "name:en": "Vardenik", "name:hy": "\u054e\u0561\u0580\u0564\u0565\u0576\u056b\u056f", "name:ku": "Vard\u00ean\u00eek", "name:ml": "\u0d35\u0d3e\u0d7c\u0d21\u0d46\u0d28\u0d3f\u0d15\u0d4d", "name:ru": "\u0412\u0430\u0440\u0434\u0435\u043d\u0438\u043a", "place": "village", "population": "8212", "population:date": "2022-01-01", "source:population": "Armstat", "wikidata": "Q2636186", "wikipedia": "en:Vardenik"}}, {"type": "node", "id": 1438386782, "lat": 40.1545503, "lon": 45.5081123, "tags": {"is_in:country": "Armenia", "is_in:country_code": "AM", "is_in:municipality": "\u0544\u0561\u0580\u057f\u0578\u0582\u0576\u0578\u0582 \u0570\u0561\u0574\u0561\u0575\u0576\u0584", "is_in:region": "\u0533\u0565\u0572\u0561\u0580\u0584\u0578\u0582\u0576\u056b\u0584\u056b \u0574\u0561\u0580\u0566", "name": "\u0531\u0580\u056e\u057e\u0561\u0576\u056b\u057d\u057f", "name:az": "A\u015fa\u011f\u0131 Al\u00e7al\u0131", "name:en": "Artsvanist", "name:hy": "\u0531\u0580\u056e\u057e\u0561\u0576\u056b\u057d\u057f", "name:ru": "\u0410\u0440\u0446\u0432\u0430\u043d\u0438\u0441\u0442", "place": "village", "population": "3070", "population:date": "2022-01-01", "source:population": "Armstat", "wikidata": "Q2636140", "wikipedia": "en:Artsvanist"}}, {"type": "node", "id": 1438431361, "lat": 40.1703251, "lon": 45.5771163, "tags": {"is_in:country": "Armenia", "is_in:country_code": "AM", "is_in:municipality": "\u054e\u0561\u0580\u0564\u0565\u0576\u056b\u057d\u056b \u0570\u0561\u0574\u0561\u0575\u0576\u0584", "is_in:region": "\u0533\u0565\u0572\u0561\u0580\u0584\u0578\u0582\u0576\u056b\u0584\u056b \u0574\u0561\u0580\u0566", "name": "\u053f\u0561\u0580\u0573\u0561\u0572\u0562\u0575\u0578\u0582\u0580", "name:en": "Karchaghbyur", "name:hy": "\u053f\u0561\u0580\u0573\u0561\u0572\u0562\u0575\u0578\u0582\u0580", "name:ru": "\u041a\u0430\u0440\u0447\u0430\u0445\u043f\u044e\u0440", "place": "village", "population": "2163", "population:date": "2022-01-01", "source:population": "Armstat", "wikidata": "Q549736", "wikipedia": "en:Karchaghbyur"}}, {"type": "node", "id": 1438538505, "lat": 40.3793586, "lon": 45.5327591, "tags": {"is_in:country": "Armenia", "is_in:country_code": "AM", "is_in:municipality": "\u054e\u0561\u0580\u0564\u0565\u0576\u056b\u057d\u056b \u0570\u0561\u0574\u0561\u0575\u0576\u0584", "is_in:region": "\u0533\u0565\u0572\u0561\u0580\u0584\u0578\u0582\u0576\u056b\u0584\u056b \u0574\u0561\u0580\u0566", "name": "\u0553\u0561\u0574\u0562\u0561\u056f", "name:az": "P\u0259mb\u0259k", "name:en": "Pambak", "name:hy": "\u0553\u0561\u0574\u0562\u0561\u056f", "name:ru": "\u041f\u0430\u043c\u0431\u0430\u043a", "place": "village", "population": "312", "population:date": "2022-01-01", "source:population": "Armstat", "wikidata": "Q2536615", "wikipedia": "en:Pambak, Gegharkunik"}}, {"type": "node", "id": 1438538507, "lat": 40.3680392, "lon": 45.5700284, "tags": {"is_in:country": "Armenia", "is_in:country_code": "AM", "is_in:municipality": "\u054e\u0561\u0580\u0564\u0565\u0576\u056b\u057d\u056b \u0570\u0561\u0574\u0561\u0575\u0576\u0584", "is_in:region": "\u0533\u0565\u0572\u0561\u0580\u0584\u0578\u0582\u0576\u056b\u0584\u056b \u0574\u0561\u0580\u0566", "name": "\u0534\u0561\u0580\u0561\u0576\u0561\u056f", "name:en": "Daranak", "name:hy": "\u0534\u0561\u0580\u0561\u0576\u0561\u056f", "name:ru": "\u0414\u0430\u0440\u0430\u043d\u0430\u043a", "place": "village", "population": "169", "population:date": "2022-01-01", "source:population": "Armstat", "wikidata": "Q2672995", "wikipedia": "en:Daranak"}}, {"type": "node", "id": 1438538509, "lat": 40.4521421, "lon": 45.4494685, "tags": {"is_in:country": "Armenia", "is_in:country_code": "AM", "is_in:municipality": "\u0547\u0578\u0572\u0561\u056f\u0561\u0569\u056b \u0570\u0561\u0574\u0561\u0575\u0576\u0584", "is_in:region": "\u0533\u0565\u0572\u0561\u0580\u0584\u0578\u0582\u0576\u056b\u0584\u056b \u0574\u0561\u0580\u0566", "name": "\u054b\u056b\u056c", "name:az": "Cil", "name:en": "Jil", "name:hy": "\u054b\u056b\u056c", "name:ru": "\u0414\u0436\u0438\u043b", "place": "village", "population": "696", "population:date": "2022-01-01", "source:population": "Armstat", "wikidata": "Q1024597", "wikipedia": "en:Jil, Armenia"}}, {"type": "node", "id": 1438538510, "lat": 40.4105639, "lon": 45.4742099, "tags": {"is_in:country": "Armenia", "is_in:country_code": "AM", "is_in:municipality": "\u0547\u0578\u0572\u0561\u056f\u0561\u0569\u056b \u0570\u0561\u0574\u0561\u0575\u0576\u0584", "is_in:region": "\u0533\u0565\u0572\u0561\u0580\u0584\u0578\u0582\u0576\u056b\u0584\u056b \u0574\u0561\u0580\u0566", "name": "\u053e\u0561\u0583\u0561\u0569\u0561\u0572", "name:az": "Babacan", "name:en": "Tsapatagh", "name:hy": "\u053e\u0561\u0583\u0561\u0569\u0561\u0572", "name:ru": "\u0426\u0430\u043f\u0430\u0442\u0430\u0445", "place": "village", "population": "256", "population:date": "2022-01-01", "source:population": "Armstat", "wikidata": "Q545527", "wikipedia": "en:Tsapatagh"}}, {"type": "node", "id": 1503192943, "lat": 40.2724371, "lon": 45.1382962, "tags": {"is_in:country": "Armenia", "is_in:country_code": "AM", "is_in:municipality": "\u0533\u0561\u057e\u0561\u057c\u056b \u0570\u0561\u0574\u0561\u0575\u0576\u0584", "is_in:region": "\u0533\u0565\u0572\u0561\u0580\u0584\u0578\u0582\u0576\u056b\u0584\u056b \u0574\u0561\u0580\u0566", "name": "\u053c\u0561\u0576\u057b\u0561\u0572\u0562\u0575\u0578\u0582\u0580", "name:en": "Lanjaghbyur", "name:hy": "\u053c\u0561\u0576\u057b\u0561\u0572\u0562\u0575\u0578\u0582\u0580", "name:ru": "\u041b\u0430\u043d\u0434\u0436\u0430\u0445\u043f\u044e\u0440", "place": "village", "population": "2640", "population:date": "2022-01-01", "source:population": "Armstat", "wikidata": "Q1528076", "wikipedia": "en:Lanjaghbyur"}}, {"type": "node", "id": 1875756268, "lat": 40.3373539, "lon": 45.1288993}, {"type": "node", "id": 1875756269, "lat": 40.3371971, "lon": 45.125936}, {"type": "node", "id": 1875756270, "lat": 40.3418018, "lon": 45.1135812}, {"type": "node", "id": 1875756271, "lat": 40.3420332, "lon": 45.1300595}, {"type": "node", "id": 1875756272, "lat": 40.3439452, "lon": 45.1367102}, {"type": "node", "id": 1875756273, "lat": 40.3460417, "lon": 45.1078432}, {"type": "node", "id": 1875756274, "lat": 40.3460795, "lon": 45.1445277}, {"type": "node", "id": 1875756275, "lat": 40.3503923, "lon": 45.1542121}, {"type": "node", "id": 1875756276, "lat": 40.3556923, "lon": 45.1077721}, {"type": "node", "id": 1875756277, "lat": 40.3559941, "lon": 45.1542121}, {"type": "node", "id": 1875756278, "lat": 40.3570611, "lon": 45.1575958}, {"type": "node", "id": 1875756279, "lat": 40.3595155, "lon": 45.1032799}, {"type": "node", "id": 1875756280, "lat": 40.362303, "lon": 45.1537841}, {"type": "node", "id": 1875756281, "lat": 40.363256, "lon": 45.1061192}, {"type": "node", "id": 1875756282, "lat": 40.3650968, "lon": 45.1411263}, {"type": "node", "id": 1875756283, "lat": 40.3614247, "lon": 45.1441776}, {"type": "node", "id": 1875756284, "lat": 40.3659721, "lon": 45.1330211}, {"type": "node", "id": 1875756290, "lat": 40.3666313, "lon": 45.1163867}, {"type": "node", "id": 1875756354, "lat": 40.3744239, "lon": 45.1152709}, {"type": "node", "id": 1875756355, "lat": 40.3736315, "lon": 45.1244127}, {"type": "node", "id": 1882609085, "lat": 40.1258704, "lon": 45.2870392}, {"type": "node", "id": 1882609086, "lat": 40.1236736, "lon": 45.2937693}, {"type": "node", "id": 1882609087, "lat": 40.1284279, "lon": 45.3029327}, {"type": "node", "id": 1882609088, "lat": 40.1310869, "lon": 45.3200991}, {"type": "node", "id": 1882609089, "lat": 40.1446188, "lon": 45.3207393}, {"type": "node", "id": 1949860637, "lat": 40.3618477, "lon": 45.1869068}, {"type": "node", "id": 1949860638, "lat": 40.3630498, "lon": 45.1822405}, {"type": "node", "id": 1949860640, "lat": 40.3644124, "lon": 45.1872962}, {"type": "node", "id": 1949860641, "lat": 40.3658185, "lon": 45.1805662}, {"type": "node", "id": 1949860642, "lat": 40.3665344, "lon": 45.188312}, {"type": "node", "id": 1949860643, "lat": 40.3663404, "lon": 45.1667712}, {"type": "node", "id": 1949860652, "lat": 40.366715, "lon": 45.1781028}, {"type": "node", "id": 1949860654, "lat": 40.3660931, "lon": 45.1742162}, {"type": "node", "id": 1949860656, "lat": 40.3696705, "lon": 45.187825}, {"type": "node", "id": 1949860658, "lat": 40.3701241, "lon": 45.1656763}, {"type": "node", "id": 1949860661, "lat": 40.3724987, "lon": 45.1877166}, {"type": "node", "id": 1949860670, "lat": 40.3725923, "lon": 45.183108}, {"type": "node", "id": 1949860681, "lat": 40.3722504, "lon": 45.1651844}, {"type": "node", "id": 1949860698, "lat": 40.3734419, "lon": 45.164338}, {"type": "node", "id": 1949860711, "lat": 40.3744392, "lon": 45.1833533}, {"type": "node", "id": 1949860725, "lat": 40.374636, "lon": 45.1841242}, {"type": "node", "id": 1949860737, "lat": 40.3801976, "lon": 45.1685291}, {"type": "node", "id": 1949860738, "lat": 40.3785439, "lon": 45.1637762}, {"type": "node", "id": 1949860740, "lat": 40.3767165, "lon": 45.184541}, {"type": "node", "id": 1949860741, "lat": 40.3771456, "lon": 45.1838544}, {"type": "node", "id": 1949860743, "lat": 40.3794716, "lon": 45.1845788}, {"type": "node", "id": 1949860744, "lat": 40.3808715, "lon": 45.1700825}, {"type": "node", "id": 1949860750, "lat": 40.384008, "lon": 45.1753391}, {"type": "node", "id": 1949860752, "lat": 40.3857615, "lon": 45.1880589}, {"type": "node", "id": 1949860753, "lat": 40.3874677, "lon": 45.1800712}, {"type": "node", "id": 1949860755, "lat": 40.3873819, "lon": 45.1879322}, {"type": "node", "id": 1949860756, "lat": 40.387377, "lon": 45.1761627}, {"type": "node", "id": 1949860759, "lat": 40.3878207, "lon": 45.1829584}, {"type": "node", "id": 1949860760, "lat": 40.3878125, "lon": 45.1806431}, {"type": "node", "id": 2144085616, "lat": 40.1395827, "lon": 45.3184204}, {"type": "node", "id": 2235511311, "lat": 40.1158647, "lon": 45.2902119, "tags": {"is_in:country": "Armenia", "is_in:country_code": "AM", "is_in:municipality": "\u0544\u0561\u0580\u057f\u0578\u0582\u0576\u0578\u0582 \u0570\u0561\u0574\u0561\u0575\u0576\u0584", "is_in:region": "\u0533\u0565\u0572\u0561\u0580\u0584\u0578\u0582\u0576\u056b\u0584\u056b \u0574\u0561\u0580\u0566", "name": "\u0533\u0565\u0572\u0570\u0578\u057e\u056b\u057f", "name:az": "Qaranl\u0131q", "name:en": "Geghhovit", "name:hy": "\u0533\u0565\u0572\u0570\u0578\u057e\u056b\u057f", "name:ru": "\u0413\u0435\u0445\u043e\u0432\u0438\u0442", "place": "village", "population": "6190", "population:date": "2022-01-01", "source:population": "Armstat", "wikidata": "Q2636125", "wikipedia": "en:Geghhovit"}}, {"type": "node", "id": 2264327696, "lat": 40.1676795, "lon": 45.216951, "tags": {"is_in:country": "Armenia", "is_in:country_code": "AM", "is_in:municipality": "\u0544\u0561\u0580\u057f\u0578\u0582\u0576\u0578\u0582 \u0570\u0561\u0574\u0561\u0575\u0576\u0584", "is_in:region": "\u0533\u0565\u0572\u0561\u0580\u0584\u0578\u0582\u0576\u056b\u0584\u056b \u0574\u0561\u0580\u0566", "name": "\u053e\u0561\u056f\u0584\u0561\u0580", "name:en": "Tsakkar", "name:hy": "\u053e\u0561\u056f\u0584\u0561\u0580", "name:ru": "\u0426\u0430\u043a\u043a\u0430\u0440", "place": "village", "population": "2885", "population:date": "2022-01-01", "source:population": "Armstat", "wikidata": "Q963415", "wikipedia": "en:Tsakkar"}}, {"type": "node", "id": 2278907088, "lat": 40.3746925, "lon": 45.1781113, "tags": {"alt_name:az": "N\u0259r\u0259d\u00fcz", "is_in:country": "Armenia", "is_in:country_code": "AM", "is_in:municipality": "\u0533\u0561\u057e\u0561\u057c\u056b \u0570\u0561\u0574\u0561\u0575\u0576\u0584", "is_in:region": "\u0533\u0565\u0572\u0561\u0580\u0584\u0578\u0582\u0576\u056b\u0584\u056b \u0574\u0561\u0580\u0566", "name": "\u0546\u0578\u0580\u0561\u057f\u0578\u0582\u057d", "name:az": "Norad\u00fcz", "name:en": "Noratus", "name:hy": "\u0546\u0578\u0580\u0561\u057f\u0578\u0582\u057d", "name:ru": "\u041d\u043e\u0440\u0430\u0442\u0443\u0441", "place": "village", "population": "6165", "population:date": "2022-01-01", "source:population": "Armstat", "wikidata": "Q1528182", "wikipedia": "en:Noratus"}}, {"type": "node", "id": 2340471169, "lat": 40.1382034, "lon": 45.190348, "tags": {"is_in:country": "Armenia", "is_in:country_code": "AM", "is_in:municipality": "\u0544\u0561\u0580\u057f\u0578\u0582\u0576\u0578\u0582 \u0570\u0561\u0574\u0561\u0575\u0576\u0584", "is_in:region": "\u0533\u0565\u0572\u0561\u0580\u0584\u0578\u0582\u0576\u056b\u0584\u056b \u0574\u0561\u0580\u0566", "name": "\u053e\u0578\u057e\u0561\u057d\u0561\u0580", "name:en": "Tsovasar", "name:hy": "\u053e\u0578\u057e\u0561\u057d\u0561\u0580", "name:ru": "\u0426\u043e\u0432\u0430\u0441\u0430\u0440", "place": "village", "population": "2956", "population:date": "2022-01-01", "source:population": "Armstat", "wikidata": "Q2636114", "wikipedia": "en:Tsovasar"}}, {"type": "node", "id": 2340471828, "lat": 40.1889717, "lon": 45.1966322, "tags": {"is_in:country": "Armenia", "is_in:country_code": "AM", "is_in:municipality": "\u0544\u0561\u0580\u057f\u0578\u0582\u0576\u0578\u0582 \u0570\u0561\u0574\u0561\u0575\u0576\u0584", "is_in:region": "\u0533\u0565\u0572\u0561\u0580\u0584\u0578\u0582\u0576\u056b\u0584\u056b \u0574\u0561\u0580\u0566", "name": "\u054e\u0561\u0580\u0564\u0561\u0571\u0578\u0580", "name:en": "Vardadzor", "name:hy": "\u054e\u0561\u0580\u0564\u0561\u0571\u0578\u0580", "name:ru": "\u0412\u0430\u0440\u0434\u0430\u0434\u0437\u043e\u0440", "place": "village", "population": "2825", "population:date": "2022-01-01", "source:population": "Armstat", "wikidata": "Q2636168", "wikipedia": "en:Vardadzor"}}, {"type": "node", "id": 2340472071, "lat": 40.2046392, "lon": 45.1982673, "tags": {"is_in:country": "Armenia", "is_in:country_code": "AM", "is_in:municipality": "\u0544\u0561\u0580\u057f\u0578\u0582\u0576\u0578\u0582 \u0570\u0561\u0574\u0561\u0575\u0576\u0584", "is_in:region": "\u0533\u0565\u0572\u0561\u0580\u0584\u0578\u0582\u0576\u056b\u0584\u056b \u0574\u0561\u0580\u0566", "name": "\u0535\u0580\u0561\u0576\u0578\u057d", "name:en": "Yeranos", "name:hy": "\u0535\u0580\u0561\u0576\u0578\u057d", "name:ru": "\u0415\u0440\u0430\u043d\u043e\u0441", "place": "village", "population": "5454", "population:date": "2022-01-01", "source:population": "Armstat", "wikidata": "Q2636149", "wikipedia": "en:Yeranos"}}, {"type": "node", "id": 2340473519, "lat": 40.1572293, "lon": 45.235859, "tags": {"is_in:country": "Armenia", "is_in:country_code": "AM", "is_in:municipality": "\u0544\u0561\u0580\u057f\u0578\u0582\u0576\u0578\u0582 \u0570\u0561\u0574\u0561\u0575\u0576\u0584", "is_in:region": "\u0533\u0565\u0572\u0561\u0580\u0584\u0578\u0582\u0576\u056b\u0584\u056b \u0574\u0561\u0580\u0566", "name": "\u053c\u056b\u0573\u0584", "name:az": "G\u00f6lk\u0259nd", "name:en": "Lichk", "name:hy": "\u053c\u056b\u0573\u0584", "name:ru": "\u041b\u0438\u0447\u043a", "place": "village", "population": "5282", "population:date": "2022-01-01", "source:population": "Armstat", "wikidata": "Q2636159", "wikipedia": "en:Lichk"}}, {"type": "node", "id": 2340474489, "lat": 40.1423514, "lon": 45.2682301, "tags": {"is_in:country": "Armenia", "is_in:country_code": "AM", "is_in:municipality": "\u0544\u0561\u0580\u057f\u0578\u0582\u0576\u0578\u0582 \u0570\u0561\u0574\u0561\u0575\u0576\u0584", "is_in:region": "\u0533\u0565\u0572\u0561\u0580\u0584\u0578\u0582\u0576\u056b\u0584\u056b \u0574\u0561\u0580\u0566", "name": "\u0546\u0565\u0580\u0584\u056b\u0576 \u0533\u0565\u057f\u0561\u0577\u0565\u0576", "name:az": "A\u015fa\u011f\u0131 Adyaman", "name:en": "Nerkin Getashen", "name:hy": "\u0546\u0565\u0580\u0584\u056b\u0576 \u0533\u0565\u057f\u0561\u0577\u0565\u0576", "name:ru": "\u041d\u0435\u0440\u043a\u0438\u043d \u0413\u0435\u0442\u0430\u0448\u0435\u043d", "place": "village", "population": "9231", "population:date": "2022-01-01", "source:population": "Armstat", "wikidata": "Q2670399", "wikipedia": "en:Nerkin Getashen"}}, {"type": "node", "id": 2340474561, "lat": 40.0749619, "lon": 45.2525459, "tags": {"is_in:country": "Armenia", "is_in:country_code": "AM", "is_in:municipality": "\u0544\u0561\u0580\u057f\u0578\u0582\u0576\u0578\u0582 \u0570\u0561\u0574\u0561\u0575\u0576\u0584", "is_in:region": "\u0533\u0565\u0572\u0561\u0580\u0584\u0578\u0582\u0576\u056b\u0584\u056b \u0574\u0561\u0580\u0566", "name": "\u0544\u0561\u0564\u056b\u0576\u0561", "name:en": "Madina", "name:hy": "\u0544\u0561\u0564\u056b\u0576\u0561", "name:ru": "\u041c\u0430\u0434\u0438\u043d\u0430", "place": "village", "population": "1135", "population:date": "2022-01-01", "source:population": "Armstat", "wikidata": "Q2392033", "wikipedia": "en:Madina, Armenia"}}, {"type": "node", "id": 2340474680, "lat": 40.1304265, "lon": 45.2499202, "tags": {"is_in:country": "Armenia", "is_in:country_code": "AM", "is_in:municipality": "\u0544\u0561\u0580\u057f\u0578\u0582\u0576\u0578\u0582 \u0570\u0561\u0574\u0561\u0575\u0576\u0584", "is_in:region": "\u0533\u0565\u0572\u0561\u0580\u0584\u0578\u0582\u0576\u056b\u0584\u056b \u0574\u0561\u0580\u0566", "name": "\u054e\u0565\u0580\u056b\u0576 \u0533\u0565\u057f\u0561\u0577\u0565\u0576", "name:az": "Yuxar\u0131 Adyaman", "name:en": "Verin Getashen", "name:hy": "\u054e\u0565\u0580\u056b\u0576 \u0533\u0565\u057f\u0561\u0577\u0565\u0576", "name:ru": "\u0412\u0435\u0440\u0438\u043d \u0413\u0435\u0442\u0430\u0448\u0435\u043d", "place": "village", "population": "4595", "population:date": "2022-01-01", "source:population": "Armstat", "wikidata": "Q1121968", "wikipedia": "en:Verin Getashen"}}, {"type": "node", "id": 2548286265, "lat": 40.2907166, "lon": 45.1314645, "tags": {"is_in:country": "Armenia", "is_in:country_code": "AM", "is_in:municipality": "\u0533\u0561\u057e\u0561\u057c\u056b \u0570\u0561\u0574\u0561\u0575\u0576\u0584", "is_in:region": "\u0533\u0565\u0572\u0561\u0580\u0584\u0578\u0582\u0576\u056b\u0584\u056b \u0574\u0561\u0580\u0566", "name": "\u054d\u0561\u0580\u0578\u0582\u056d\u0561\u0576", "name:en": "Sarukhan", "name:hy": "\u054d\u0561\u0580\u0578\u0582\u056d\u0561\u0576", "name:ru": "\u0421\u0430\u0440\u0443\u0445\u0430\u043d", "place": "village", "population": "7466", "population:date": "2022-01-01", "source:population": "Armstat", "wikidata": "Q1528514", "wikipedia": "en:Sarukhan"}}, {"type": "node", "id": 2876597867, "lat": 40.3755233, "lon": 45.1857677}, {"type": "node", "id": 2932725610, "lat": 40.3823112, "lon": 45.172095}, {"type": "node", "id": 2940229535, "lat": 40.3031184, "lon": 45.1367098}, {"type": "node", "id": 2968880203, "lat": 40.3266299, "lon": 45.1458397, "tags": {"alt_name:az": "Qulal\u0131", "is_in:country": "Armenia", "is_in:country_code": "AM", "is_in:municipality": "\u0533\u0561\u057e\u0561\u057c\u056b \u0570\u0561\u0574\u0561\u0575\u0576\u0584", "is_in:region": "\u0533\u0565\u0572\u0561\u0580\u0584\u0578\u0582\u0576\u056b\u0584\u056b \u0574\u0561\u0580\u0566", "name": "\u053f\u0561\u0580\u0574\u056b\u0580\u0563\u0575\u0578\u0582\u0572", "name:az": "Qul \u018fli", "name:en": "Karmirgyugh", "name:hy": "\u053f\u0561\u0580\u0574\u056b\u0580\u0563\u0575\u0578\u0582\u0572", "name:ru": "\u041a\u0430\u0440\u043c\u0438\u0440\u0433\u044e\u0445", "place": "village", "population": "6033", "population:date": "2022-01-01", "source:population": "Armstat", "wikidata": "Q1528709", "wikipedia": "en:Karmirgyugh"}}, {"type": "node", "id": 2972000679, "lat": 40.36236, "lon": 45.5722752}, {"type": "node", "id": 2972000680, "lat": 40.3623971, "lon": 45.5711295}, {"type": "node", "id": 2972000682, "lat": 40.3624993, "lon": 45.5732502}, {"type": "node", "id": 2972000683, "lat": 40.3633629, "lon": 45.5707274}, {"type": "node", "id": 2972000685, "lat": 40.3640037, "lon": 45.5731648}, {"type": "node", "id": 2972000686, "lat": 40.3640965, "lon": 45.5708127}, {"type": "node", "id": 2972000687, "lat": 40.3642304, "lon": 45.5655549}, {"type": "node", "id": 2972000688, "lat": 40.3644215, "lon": 45.5729089}, {"type": "node", "id": 2972000689, "lat": 40.3648766, "lon": 45.5702764}, {"type": "node", "id": 2972000690, "lat": 40.3649918, "lon": 45.5686992}, {"type": "node", "id": 2972000691, "lat": 40.365053, "lon": 45.5713977}, {"type": "node", "id": 2972000693, "lat": 40.365248, "lon": 45.5707517}, {"type": "node", "id": 2972000694, "lat": 40.3652573, "lon": 45.5716414}, {"type": "node", "id": 2972000695, "lat": 40.3655304, "lon": 45.5679436}, {"type": "node", "id": 2972000697, "lat": 40.3660094, "lon": 45.573043}, {"type": "node", "id": 2972000698, "lat": 40.3662919, "lon": 45.5637024}, {"type": "node", "id": 2972000699, "lat": 40.3663159, "lon": 45.5717145}, {"type": "node", "id": 2972000700, "lat": 40.3663847, "lon": 45.5699911}, {"type": "node", "id": 2972000701, "lat": 40.3666502, "lon": 45.5705202}, {"type": "node", "id": 2972000702, "lat": 40.3667244, "lon": 45.5649871}, {"type": "node", "id": 2972000703, "lat": 40.3669473, "lon": 45.5725067}, {"type": "node", "id": 2972000704, "lat": 40.3674952, "lon": 45.5659865}, {"type": "node", "id": 2972000705, "lat": 40.368131, "lon": 45.5712366}, {"type": "node", "id": 2972000706, "lat": 40.3681823, "lon": 45.5727017}, {"type": "node", "id": 2972000707, "lat": 40.3682937, "lon": 45.5653771}, {"type": "node", "id": 2972000708, "lat": 40.3683494, "lon": 45.5713002}, {"type": "node", "id": 2972000709, "lat": 40.3687766, "lon": 45.5709224}, {"type": "node", "id": 2972000710, "lat": 40.3690087, "lon": 45.5670224}, {"type": "node", "id": 2972000711, "lat": 40.3696494, "lon": 45.5687286}, {"type": "node", "id": 2972000712, "lat": 40.369668, "lon": 45.5674855}, {"type": "node", "id": 2972000713, "lat": 40.3697237, "lon": 45.5669005}, {"type": "node", "id": 2972000714, "lat": 40.3698258, "lon": 45.571288}, {"type": "node", "id": 2972000716, "lat": 40.3699001, "lon": 45.5682168}, {"type": "node", "id": 2972000717, "lat": 40.3699001, "lon": 45.5690211}, {"type": "node", "id": 2972000727, "lat": 40.3705315, "lon": 45.5707274}, {"type": "node", "id": 2972000835, "lat": 40.3742184, "lon": 45.5317402}, {"type": "node", "id": 2972000836, "lat": 40.374664, "lon": 45.5310333}, {"type": "node", "id": 2972000837, "lat": 40.3761403, "lon": 45.5300705}, {"type": "node", "id": 2972000838, "lat": 40.3764931, "lon": 45.5274868}, {"type": "node", "id": 2972000840, "lat": 40.3771801, "lon": 45.5345189}, {"type": "node", "id": 2972000841, "lat": 40.377765, "lon": 45.5279255}, {"type": "node", "id": 2972000844, "lat": 40.3789906, "lon": 45.5353721}, {"type": "node", "id": 2972000845, "lat": 40.3798354, "lon": 45.5355549}, {"type": "node", "id": 2972000847, "lat": 40.3806895, "lon": 45.5364445}, {"type": "node", "id": 2972000848, "lat": 40.3809959, "lon": 45.5280352}, {"type": "node", "id": 2972000849, "lat": 40.3825834, "lon": 45.5356889}, {"type": "node", "id": 2972000850, "lat": 40.3829083, "lon": 45.529644}, {"type": "node", "id": 2972000851, "lat": 40.3835396, "lon": 45.5292418}, {"type": "node", "id": 2972000852, "lat": 40.3836881, "lon": 45.5356524}, {"type": "node", "id": 2972000853, "lat": 40.3848021, "lon": 45.5294002}, {"type": "node", "id": 2972000854, "lat": 40.3848114, "lon": 45.529973}, {"type": "node", "id": 2972000855, "lat": 40.3849785, "lon": 45.5326299}, {"type": "node", "id": 2972000856, "lat": 40.3851735, "lon": 45.5351771}, {"type": "node", "id": 2972000857, "lat": 40.3855634, "lon": 45.5336171}, {"type": "node", "id": 2972000858, "lat": 40.3861575, "lon": 45.5330443}, {"type": "node", "id": 2972000859, "lat": 40.3868351, "lon": 45.5360789}, {"type": "node", "id": 2972000860, "lat": 40.3873086, "lon": 45.5349942}, {"type": "node", "id": 2972000863, "lat": 40.4467856, "lon": 45.4469651}, {"type": "node", "id": 2972000864, "lat": 40.4468593, "lon": 45.4490416}, {"type": "node", "id": 2972000865, "lat": 40.4472196, "lon": 45.452022}, {"type": "node", "id": 2972000866, "lat": 40.4484642, "lon": 45.4448562}, {"type": "node", "id": 2972000867, "lat": 40.4485051, "lon": 45.45341}, {"type": "node", "id": 2972000868, "lat": 40.4487016, "lon": 45.4473416}, {"type": "node", "id": 2972000869, "lat": 40.4488326, "lon": 45.4458676}, {"type": "node", "id": 2972000870, "lat": 40.4491847, "lon": 45.447417}, {"type": "node", "id": 2972000871, "lat": 40.4494876, "lon": 45.4453942}, {"type": "node", "id": 2972000872, "lat": 40.4503641, "lon": 45.453892}, {"type": "node", "id": 2972000873, "lat": 40.4510105, "lon": 45.4461366}, {"type": "node", "id": 2972000874, "lat": 40.4516737, "lon": 45.4472663}, {"type": "node", "id": 2972000875, "lat": 40.4518211, "lon": 45.4480733}, {"type": "node", "id": 2972000876, "lat": 40.4519524, "lon": 45.4536553}, {"type": "node", "id": 2972000877, "lat": 40.4522963, "lon": 45.4543439}, {"type": "node", "id": 2972000878, "lat": 40.4527912, "lon": 45.4485872}, {"type": "node", "id": 2972000879, "lat": 40.4532457, "lon": 45.4478796}, {"type": "node", "id": 2972000880, "lat": 40.4536469, "lon": 45.4449746}, {"type": "node", "id": 2972000881, "lat": 40.4538355, "lon": 45.4562375}, {"type": "node", "id": 2972000882, "lat": 40.4539501, "lon": 45.4522996}, {"type": "node", "id": 2972000883, "lat": 40.4540484, "lon": 45.4509654}, {"type": "node", "id": 2972000884, "lat": 40.4541463, "lon": 45.4448777}, {"type": "node", "id": 2972000885, "lat": 40.4541794, "lon": 45.4585401}, {"type": "node", "id": 2972000886, "lat": 40.4543104, "lon": 45.4570553}, {"type": "node", "id": 2972000887, "lat": 40.4544577, "lon": 45.4549679}, {"type": "node", "id": 2972000888, "lat": 40.454556, "lon": 45.4583464}, {"type": "node", "id": 2972000889, "lat": 40.4551124, "lon": 45.4428549}, {"type": "node", "id": 2972000890, "lat": 40.4551946, "lon": 45.4481249}, {"type": "node", "id": 2972000891, "lat": 40.4552601, "lon": 45.4580882}, {"type": "node", "id": 2972000892, "lat": 40.455841, "lon": 45.4430163}, {"type": "node", "id": 2972000893, "lat": 40.4566027, "lon": 45.4580451}, {"type": "node", "id": 2972000894, "lat": 40.4567252, "lon": 45.4411012}, {"type": "node", "id": 2972000895, "lat": 40.4569466, "lon": 45.4597451}, {"type": "node", "id": 2972000896, "lat": 40.4575196, "lon": 45.4416692}, {"type": "node", "id": 2972000897, "lat": 40.4576585, "lon": 45.4407353}, {"type": "node", "id": 2972000898, "lat": 40.457798, "lon": 45.4445097}, {"type": "node", "id": 2972000899, "lat": 40.4582728, "lon": 45.4424439}, {"type": "node", "id": 2972000900, "lat": 40.4589441, "lon": 45.4434768}, {"type": "node", "id": 2972000901, "lat": 40.4589769, "lon": 45.4609502}, {"type": "node", "id": 2972000902, "lat": 40.4593043, "lon": 45.4601325}, {"type": "node", "id": 3025503862, "lat": 40.3244223, "lon": 45.1149473, "tags": {"is_in:country": "Armenia", "is_in:country_code": "AM", "is_in:municipality": "\u0533\u0561\u057e\u0561\u057c\u056b \u0570\u0561\u0574\u0561\u0575\u0576\u0584", "is_in:region": "\u0533\u0565\u0572\u0561\u0580\u0584\u0578\u0582\u0576\u056b\u0584\u056b \u0574\u0561\u0580\u0566", "name": "\u0533\u0561\u0576\u0571\u0561\u056f", "name:en": "Gandzak", "name:hy": "\u0533\u0561\u0576\u0571\u0561\u056f", "name:ru": "\u0413\u0430\u043d\u0434\u0437\u0430\u043a", "place": "village", "population": "4338", "population:date": "2022-01-01", "source:population": "Armstat", "wikidata": "Q1528536", "wikipedia": "en:Gandzak, Armenia"}}, {"type": "node", "id": 3621792598, "lat": 40.1414989, "lon": 45.5037939}, {"type": "node", "id": 3621792599, "lat": 40.1419267, "lon": 45.5021402}, {"type": "node", "id": 3621792600, "lat": 40.1443578, "lon": 45.5023438}, {"type": "node", "id": 3621792601, "lat": 40.1448829, "lon": 45.4996724}, {"type": "node", "id": 3621792602, "lat": 40.1450384, "lon": 45.50962}, {"type": "node", "id": 3621792603, "lat": 40.1456024, "lon": 45.5162856}, {"type": "node", "id": 3621792604, "lat": 40.1462774, "lon": 45.5109182}, {"type": "node", "id": 3621792605, "lat": 40.1463414, "lon": 45.5139195}, {"type": "node", "id": 3621792606, "lat": 40.1469443, "lon": 45.498782}, {"type": "node", "id": 3621792607, "lat": 40.147975, "lon": 45.5000286}, {"type": "node", "id": 3621792608, "lat": 40.1480162, "lon": 45.5000035}, {"type": "node", "id": 3621792609, "lat": 40.1487528, "lon": 45.5194912}, {"type": "node", "id": 3621792610, "lat": 40.1513003, "lon": 45.4992654}, {"type": "node", "id": 3621792611, "lat": 40.1515336, "lon": 45.513945}, {"type": "node", "id": 3621792612, "lat": 40.1517476, "lon": 45.4975608}, {"type": "node", "id": 3621792613, "lat": 40.1520003, "lon": 45.4988837}, {"type": "node", "id": 3621792614, "lat": 40.1533411, "lon": 45.4962867}, {"type": "node", "id": 3621792615, "lat": 40.1537115, "lon": 45.5143775}, {"type": "node", "id": 3621792616, "lat": 40.1554616, "lon": 45.5138686}, {"type": "node", "id": 3621792617, "lat": 40.1560375, "lon": 45.5143366}, {"type": "node", "id": 3621792618, "lat": 40.1592019, "lon": 45.5237299}, {"type": "node", "id": 3621792619, "lat": 40.1588403, "lon": 45.4951279}, {"type": "node", "id": 3621792624, "lat": 40.1602448, "lon": 45.5131308}, {"type": "node", "id": 3621792625, "lat": 40.1603389, "lon": 45.4952179}, {"type": "node", "id": 3621792626, "lat": 40.1603615, "lon": 45.508297}, {"type": "node", "id": 3621792632, "lat": 40.1626322, "lon": 45.5056712}, {"type": "node", "id": 3648318254, "lat": 40.1200214, "lon": 45.4378412}, {"type": "node", "id": 3648318255, "lat": 40.1236882, "lon": 45.4418348}, {"type": "node", "id": 3648318256, "lat": 40.124146, "lon": 45.4314673}, {"type": "node", "id": 3648318257, "lat": 40.1246279, "lon": 45.435942}, {"type": "node", "id": 3648318258, "lat": 40.1255194, "lon": 45.442276}, {"type": "node", "id": 3648318259, "lat": 40.1260736, "lon": 45.4438831}, {"type": "node", "id": 3648318260, "lat": 40.1273266, "lon": 45.4236522}, {"type": "node", "id": 3648318261, "lat": 40.127953, "lon": 45.4293559}, {"type": "node", "id": 3648318262, "lat": 40.1286036, "lon": 45.4455848}, {"type": "node", "id": 3648318263, "lat": 40.1296637, "lon": 45.4495238}, {"type": "node", "id": 3648318264, "lat": 40.1302661, "lon": 45.4208791}, {"type": "node", "id": 3648318265, "lat": 40.1321695, "lon": 45.4464041}, {"type": "node", "id": 3648318266, "lat": 40.1341692, "lon": 45.4218875}, {"type": "node", "id": 3648318267, "lat": 40.1372005, "lon": 45.4417589}, {"type": "node", "id": 3648318268, "lat": 40.1398788, "lon": 45.4184211}, {"type": "node", "id": 3648318269, "lat": 40.140192, "lon": 45.4153959}, {"type": "node", "id": 3648318271, "lat": 40.1453471, "lon": 45.4136312}, {"type": "node", "id": 3648318272, "lat": 40.1453768, "lon": 45.4432741}, {"type": "node", "id": 3648318273, "lat": 40.145853, "lon": 45.4161837}, {"type": "node", "id": 3648318274, "lat": 40.1461263, "lon": 45.443898}, {"type": "node", "id": 3648318279, "lat": 40.1485845, "lon": 45.4557164}, {"type": "node", "id": 3648318280, "lat": 40.1488736, "lon": 45.4693928}, {"type": "node", "id": 3648318281, "lat": 40.1490181, "lon": 45.4526282}, {"type": "node", "id": 3648318282, "lat": 40.1490661, "lon": 45.4839625}, {"type": "node", "id": 3648318285, "lat": 40.1495089, "lon": 45.4892657}, {"type": "node", "id": 3648318286, "lat": 40.1503836, "lon": 45.413592}, {"type": "node", "id": 3648318287, "lat": 40.1498836, "lon": 45.4923853}, {"type": "node", "id": 3648318288, "lat": 40.1504151, "lon": 45.4614517}, {"type": "node", "id": 3648318289, "lat": 40.1507042, "lon": 45.4744978}, {"type": "node", "id": 3648318293, "lat": 40.1514165, "lon": 45.494569}, {"type": "node", "id": 3648318296, "lat": 40.1516676, "lon": 45.4664307}, {"type": "node", "id": 3648318298, "lat": 40.1528812, "lon": 45.4776788}, {"type": "node", "id": 3648318302, "lat": 40.1543674, "lon": 45.4386958}, {"type": "node", "id": 3648318303, "lat": 40.1548908, "lon": 45.4909592}, {"type": "node", "id": 3648318305, "lat": 40.1559548, "lon": 45.4483425}, {"type": "node", "id": 3648318307, "lat": 40.1570277, "lon": 45.4480529}, {"type": "node", "id": 3648318308, "lat": 40.1576497, "lon": 45.4910483}, {"type": "node", "id": 3648318316, "lat": 40.160725, "lon": 45.488107}, {"type": "node", "id": 3648318321, "lat": 40.1633967, "lon": 45.4657007}, {"type": "node", "id": 3648425909, "lat": 40.1138504, "lon": 45.2934015}, {"type": "node", "id": 3648425910, "lat": 40.1149635, "lon": 45.2770929}, {"type": "node", "id": 3648425911, "lat": 40.1167966, "lon": 45.2946562}, {"type": "node", "id": 3648425913, "lat": 40.1193318, "lon": 45.2938649}, {"type": "node", "id": 3648425915, "lat": 40.1206021, "lon": 45.2859786}, {"type": "node", "id": 3648425917, "lat": 40.1231156, "lon": 45.2937955}, {"type": "node", "id": 3648427038, "lat": 40.1393867, "lon": 45.2884851}, {"type": "node", "id": 3648427207, "lat": 40.152252, "lon": 45.2965521}, {"type": "node", "id": 3648427326, "lat": 40.1519096, "lon": 45.2999437}, {"type": "node", "id": 3648437532, "lat": 40.1056718, "lon": 45.2888569}, {"type": "node", "id": 3648437533, "lat": 40.1256824, "lon": 45.1822288}, {"type": "node", "id": 3648437534, "lat": 40.1261079, "lon": 45.1835921}, {"type": "node", "id": 3648437535, "lat": 40.1266823, "lon": 45.1808376}, {"type": "node", "id": 3648437536, "lat": 40.1280439, "lon": 45.1803578}, {"type": "node", "id": 3648437539, "lat": 40.1282301, "lon": 45.1842552}, {"type": "node", "id": 3648437542, "lat": 40.1282568, "lon": 45.185686}, {"type": "node", "id": 3648437547, "lat": 40.1300508, "lon": 45.1893167}, {"type": "node", "id": 3648437550, "lat": 40.1311074, "lon": 45.1888509}, {"type": "node", "id": 3648437560, "lat": 40.1345961, "lon": 45.1793561}, {"type": "node", "id": 3648437563, "lat": 40.1354045, "lon": 45.191995}, {"type": "node", "id": 3648437584, "lat": 40.1369786, "lon": 45.1842532}, {"type": "node", "id": 3648437599, "lat": 40.1379996, "lon": 45.1972816}, {"type": "node", "id": 3648437610, "lat": 40.1408499, "lon": 45.1861452}, {"type": "node", "id": 3648437611, "lat": 40.1411051, "lon": 45.1986171}, {"type": "node", "id": 3648437616, "lat": 40.142275, "lon": 45.2005926}, {"type": "node", "id": 3648437617, "lat": 40.1426791, "lon": 45.1862565}, {"type": "node", "id": 3648437618, "lat": 40.1448661, "lon": 45.1914432}, {"type": "node", "id": 3648437620, "lat": 40.1473158, "lon": 45.1971146}, {"type": "node", "id": 3648437621, "lat": 40.1483304, "lon": 45.1988931}, {"type": "node", "id": 3648437622, "lat": 40.1490172, "lon": 45.2054618}, {"type": "node", "id": 3648437623, "lat": 40.1502998, "lon": 45.2007484}, {"type": "node", "id": 3648437624, "lat": 40.1525263, "lon": 45.2076043}, {"type": "node", "id": 3648437654, "lat": 40.1772602, "lon": 45.1997097}, {"type": "node", "id": 3648437657, "lat": 40.1823098, "lon": 45.1935361}, {"type": "node", "id": 3648437658, "lat": 40.1828022, "lon": 45.1920333}, {"type": "node", "id": 3648437659, "lat": 40.183512, "lon": 45.2003005}, {"type": "node", "id": 3648437660, "lat": 40.1857794, "lon": 45.2047253}, {"type": "node", "id": 3648437661, "lat": 40.1847613, "lon": 45.1888607}, {"type": "node", "id": 3648437662, "lat": 40.1861917, "lon": 45.1846516}, {"type": "node", "id": 3648437663, "lat": 40.1862882, "lon": 45.1892849}, {"type": "node", "id": 3648437664, "lat": 40.1870574, "lon": 45.2056427}, {"type": "node", "id": 3648437665, "lat": 40.1879643, "lon": 45.1841659}, {"type": "node", "id": 3648437666, "lat": 40.1891597, "lon": 45.1896161}, {"type": "node", "id": 3648437667, "lat": 40.1894483, "lon": 45.1869719}, {"type": "node", "id": 3648437668, "lat": 40.189572, "lon": 45.1858387}, {"type": "node", "id": 3648437669, "lat": 40.1898193, "lon": 45.1904255}, {"type": "node", "id": 3648437670, "lat": 40.1909112, "lon": 45.207626}, {"type": "node", "id": 3648437671, "lat": 40.191266, "lon": 45.20731}, {"type": "node", "id": 3648437672, "lat": 40.1911384, "lon": 45.1878893}, {"type": "node", "id": 3648437674, "lat": 40.1925811, "lon": 45.208071}, {"type": "node", "id": 3648437675, "lat": 40.192778, "lon": 45.1969236}, {"type": "node", "id": 3648437676, "lat": 40.1929933, "lon": 45.1875655}, {"type": "node", "id": 3648437677, "lat": 40.1928632, "lon": 45.1988603}, {"type": "node", "id": 3648437678, "lat": 40.1937765, "lon": 45.1947424}, {"type": "node", "id": 3648437679, "lat": 40.1943948, "lon": 45.1919364}, {"type": "node", "id": 3648437680, "lat": 40.1944772, "lon": 45.1906953}, {"type": "node", "id": 3648437681, "lat": 40.193446, "lon": 45.199877}, {"type": "node", "id": 3648437682, "lat": 40.1956313, "lon": 45.2060204}, {"type": "node", "id": 3648437683, "lat": 40.1958374, "lon": 45.1977103}, {"type": "node", "id": 3648437684, "lat": 40.1969996, "lon": 45.2053781}, {"type": "node", "id": 3648437685, "lat": 40.1965381, "lon": 45.1956058}, {"type": "node", "id": 3648437686, "lat": 40.195904, "lon": 45.2043753}, {"type": "node", "id": 3648437687, "lat": 40.1975686, "lon": 45.1843278}, {"type": "node", "id": 3648437688, "lat": 40.1987226, "lon": 45.1919364}, {"type": "node", "id": 3648437689, "lat": 40.1989699, "lon": 45.1890225}, {"type": "node", "id": 3648437690, "lat": 40.1997531, "lon": 45.1807663}, {"type": "node", "id": 3648437691, "lat": 40.2016077, "lon": 45.2054808}, {"type": "node", "id": 3648437692, "lat": 40.2034624, "lon": 45.1779603}, {"type": "node", "id": 3648437693, "lat": 40.2039157, "lon": 45.2068838}, {"type": "node", "id": 3648437694, "lat": 40.2056055, "lon": 45.1786618}, {"type": "node", "id": 3648437695, "lat": 40.2052645, "lon": 45.2173937}, {"type": "node", "id": 3648437696, "lat": 40.2083666, "lon": 45.179795}, {"type": "node", "id": 3648437697, "lat": 40.2091496, "lon": 45.1829248}, {"type": "node", "id": 3648437698, "lat": 40.2093969, "lon": 45.186864}, {"type": "node", "id": 3648437699, "lat": 40.21257, "lon": 45.1902636}, {"type": "node", "id": 3648437700, "lat": 40.2133117, "lon": 45.1927458}, {"type": "node", "id": 3648437701, "lat": 40.2136414, "lon": 45.1979262}, {"type": "node", "id": 3648437702, "lat": 40.216155, "lon": 45.2053189}, {"type": "node", "id": 3648437703, "lat": 40.2167731, "lon": 45.2015956}, {"type": "node", "id": 3648479237, "lat": 40.1180601, "lon": 45.2566644}, {"type": "node", "id": 3648479238, "lat": 40.1189406, "lon": 45.2535444}, {"type": "node", "id": 3648479239, "lat": 40.123627, "lon": 45.2585958}, {"type": "node", "id": 3648479240, "lat": 40.1236554, "lon": 45.249793}, {"type": "node", "id": 3648479241, "lat": 40.1239394, "lon": 45.247973}, {"type": "node", "id": 3648479242, "lat": 40.1261547, "lon": 45.2546958}, {"type": "node", "id": 3648479243, "lat": 40.1262399, "lon": 45.2412131}, {"type": "node", "id": 3648479244, "lat": 40.1276031, "lon": 45.2538416}, {"type": "node", "id": 3648479245, "lat": 40.1279155, "lon": 45.2402474}, {"type": "node", "id": 3648479246, "lat": 40.1301874, "lon": 45.2546587}, {"type": "node", "id": 3648479247, "lat": 40.1326013, "lon": 45.2398388}, {"type": "node", "id": 3648479248, "lat": 40.1335366, "lon": 45.2547402}, {"type": "node", "id": 3648479249, "lat": 40.1358385, "lon": 45.2559215}, {"type": "node", "id": 3648479250, "lat": 40.1362331, "lon": 45.2391462}, {"type": "node", "id": 3648479251, "lat": 40.1387349, "lon": 45.2565901}, {"type": "node", "id": 3648479252, "lat": 40.1392813, "lon": 45.2418761}, {"type": "node", "id": 3648479253, "lat": 40.1398925, "lon": 45.2439931}, {"type": "node", "id": 3648479257, "lat": 40.1391178, "lon": 45.256842}, {"type": "node", "id": 3648479264, "lat": 40.1414237, "lon": 45.2471142}, {"type": "node", "id": 3648479266, "lat": 40.1412812, "lon": 45.2505789}, {"type": "node", "id": 3648479275, "lat": 40.148083, "lon": 45.2345719}, {"type": "node", "id": 3648479276, "lat": 40.1482576, "lon": 45.2302975}, {"type": "node", "id": 3648479277, "lat": 40.1498854, "lon": 45.2311295}, {"type": "node", "id": 3648479278, "lat": 40.1509738, "lon": 45.2422409}, {"type": "node", "id": 3648479279, "lat": 40.1531017, "lon": 45.248124}, {"type": "node", "id": 3648479280, "lat": 40.1546273, "lon": 45.253902}, {"type": "node", "id": 3648479281, "lat": 40.1545918, "lon": 45.2093164}, {"type": "node", "id": 3648479282, "lat": 40.1553098, "lon": 45.2307374}, {"type": "node", "id": 3648479283, "lat": 40.1554952, "lon": 45.2063565}, {"type": "node", "id": 3648479284, "lat": 40.1566346, "lon": 45.2558981}, {"type": "node", "id": 3648479285, "lat": 40.1569758, "lon": 45.2559769}, {"type": "node", "id": 3648479286, "lat": 40.157558, "lon": 45.2276908}, {"type": "node", "id": 3648479287, "lat": 40.1590935, "lon": 45.193199}, {"type": "node", "id": 3648479288, "lat": 40.1591287, "lon": 45.2119279}, {"type": "node", "id": 3648479289, "lat": 40.1601144, "lon": 45.1977424}, {"type": "node", "id": 3648479290, "lat": 40.1608758, "lon": 45.1880846}, {"type": "node", "id": 3648479291, "lat": 40.1621745, "lon": 45.2240664}, {"type": "node", "id": 3648479292, "lat": 40.1626486, "lon": 45.2073222}, {"type": "node", "id": 3648479293, "lat": 40.1626606, "lon": 45.185078}, {"type": "node", "id": 3648479294, "lat": 40.1640212, "lon": 45.2467734}, {"type": "node", "id": 3648479295, "lat": 40.1639569, "lon": 45.2040365}, {"type": "node", "id": 3648479296, "lat": 40.1646854, "lon": 45.2014818}, {"type": "node", "id": 3648479297, "lat": 40.1648626, "lon": 45.2171279}, {"type": "node", "id": 3648479298, "lat": 40.1649976, "lon": 45.1841734}, {"type": "node", "id": 3648479299, "lat": 40.165559, "lon": 45.2107541}, {"type": "node", "id": 3648479300, "lat": 40.1665257, "lon": 45.1857458}, {"type": "node", "id": 3648479301, "lat": 40.1663683, "lon": 45.179415}, {"type": "node", "id": 3648479302, "lat": 40.167541, "lon": 45.1829538}, {"type": "node", "id": 3648479303, "lat": 40.1657519, "lon": 45.1859651}, {"type": "node", "id": 3648479304, "lat": 40.1676463, "lon": 45.2113407}, {"type": "node", "id": 3648479305, "lat": 40.1670559, "lon": 45.2123418}, {"type": "node", "id": 3648479308, "lat": 40.169159, "lon": 45.24056}, {"type": "node", "id": 3648479309, "lat": 40.1708797, "lon": 45.224185}, {"type": "node", "id": 3648479310, "lat": 40.1704632, "lon": 45.2117026}, {"type": "node", "id": 3648479311, "lat": 40.1717811, "lon": 45.1745163}, {"type": "node", "id": 3648479312, "lat": 40.172015, "lon": 45.1859281}, {"type": "node", "id": 3648479313, "lat": 40.1726911, "lon": 45.2383276}, {"type": "node", "id": 3648479314, "lat": 40.1728664, "lon": 45.1802081}, {"type": "node", "id": 3648479315, "lat": 40.1731433, "lon": 45.175742}, {"type": "node", "id": 3648479316, "lat": 40.1733105, "lon": 45.2132486}, {"type": "node", "id": 3648479318, "lat": 40.1763855, "lon": 45.2154936}, {"type": "node", "id": 3648479319, "lat": 40.1765241, "lon": 45.2391155}, {"type": "node", "id": 3648479320, "lat": 40.1775374, "lon": 45.2312788}, {"type": "node", "id": 3648479321, "lat": 40.1791209, "lon": 45.205736}, {"type": "node", "id": 3648479322, "lat": 40.1784575, "lon": 45.2175953}, {"type": "node", "id": 3648479323, "lat": 40.1793735, "lon": 45.2396145}, {"type": "node", "id": 3648479324, "lat": 40.1818203, "lon": 45.211801}, {"type": "node", "id": 3648487926, "lat": 40.1824037, "lon": 45.2352326}, {"type": "node", "id": 3648487927, "lat": 40.1825165, "lon": 45.2371374}, {"type": "node", "id": 3648487928, "lat": 40.1809261, "lon": 45.2200993}, {"type": "node", "id": 3648487929, "lat": 40.1828651, "lon": 45.2222576}, {"type": "node", "id": 3648491370, "lat": 40.2442864, "lon": 45.1515637}, {"type": "node", "id": 3648491371, "lat": 40.2446702, "lon": 45.1487147}, {"type": "node", "id": 3648491372, "lat": 40.2454376, "lon": 45.151843}, {"type": "node", "id": 3648491373, "lat": 40.247932, "lon": 45.1448882}, {"type": "node", "id": 3648491374, "lat": 40.2499998, "lon": 45.1521223}, {"type": "node", "id": 3648491375, "lat": 40.2526858, "lon": 45.1494968}, {"type": "node", "id": 3648491376, "lat": 40.2531548, "lon": 45.1446647}, {"type": "node", "id": 3648491377, "lat": 40.2538156, "lon": 45.1420951}, {"type": "node", "id": 3648491378, "lat": 40.2544124, "lon": 45.1385199}, {"type": "node", "id": 3648491379, "lat": 40.2560538, "lon": 45.1486589}, {"type": "node", "id": 3648491380, "lat": 40.2563309, "lon": 45.1386875}, {"type": "node", "id": 3648491381, "lat": 40.2583132, "lon": 45.1420392}, {"type": "node", "id": 3648491382, "lat": 40.2596987, "lon": 45.1418437}, {"type": "node", "id": 3648491383, "lat": 40.2598905, "lon": 45.140112}, {"type": "node", "id": 3648491384, "lat": 40.2601889, "lon": 45.1444134}, {"type": "node", "id": 3648491385, "lat": 40.2605976, "lon": 45.1431122}, {"type": "node", "id": 3648491386, "lat": 40.2630024, "lon": 45.1371513}, {"type": "node", "id": 3648491387, "lat": 40.263475, "lon": 45.1422463}, {"type": "node", "id": 3648491388, "lat": 40.2653043, "lon": 45.1373748}, {"type": "node", "id": 3648491389, "lat": 40.2663735, "lon": 45.1420787}, {"type": "node", "id": 3648491390, "lat": 40.2684585, "lon": 45.1337437}, {"type": "node", "id": 3648491391, "lat": 40.2695064, "lon": 45.1453466}, {"type": "node", "id": 3648491392, "lat": 40.2711438, "lon": 45.1323472}, {"type": "node", "id": 3648491393, "lat": 40.2720638, "lon": 45.1449835}, {"type": "node", "id": 3648491394, "lat": 40.2736408, "lon": 45.1471622}, {"type": "node", "id": 3648491395, "lat": 40.2753632, "lon": 45.1326824}, {"type": "node", "id": 3648491396, "lat": 40.2769438, "lon": 45.1426094}, {"type": "node", "id": 3648491397, "lat": 40.2772385, "lon": 45.1346934}, {"type": "node", "id": 3648491398, "lat": 40.2787094, "lon": 45.142663}, {"type": "node", "id": 3648491399, "lat": 40.2791354, "lon": 45.1214024}, {"type": "node", "id": 3648491400, "lat": 40.2795435, "lon": 45.1378332}, {"type": "node", "id": 3648491401, "lat": 40.2805649, "lon": 45.130975}, {"type": "node", "id": 3648491402, "lat": 40.281404, "lon": 45.13458}, {"type": "node", "id": 3648491403, "lat": 40.2826159, "lon": 45.1193656}, {"type": "node", "id": 3648491404, "lat": 40.2831131, "lon": 45.1159439}, {"type": "node", "id": 3648491405, "lat": 40.2842318, "lon": 45.1129703}, {"type": "node", "id": 3648491406, "lat": 40.2850086, "lon": 45.1406902}, {"type": "node", "id": 3648491407, "lat": 40.2862827, "lon": 45.1145182}, {"type": "node", "id": 3648491408, "lat": 40.2865934, "lon": 45.1187546}, {"type": "node", "id": 3648491409, "lat": 40.2874945, "lon": 45.1199359}, {"type": "node", "id": 3648491410, "lat": 40.2891103, "lon": 45.1179399}, {"type": "node", "id": 3648491411, "lat": 40.289856, "lon": 45.1423604}, {"type": "node", "id": 3648491412, "lat": 40.2923728, "lon": 45.118999}, {"type": "node", "id": 3648491413, "lat": 40.2941904, "lon": 45.1466171}, {"type": "node", "id": 3648491414, "lat": 40.2949516, "lon": 45.121606}, {"type": "node", "id": 3648491415, "lat": 40.2956351, "lon": 45.1218504}, {"type": "node", "id": 3648491416, "lat": 40.297872, "lon": 45.1445804}, {"type": "node", "id": 3648491417, "lat": 40.2995497, "lon": 45.1387961}, {"type": "node", "id": 3648491418, "lat": 40.2998293, "lon": 45.1198952}, {"type": "node", "id": 3648491419, "lat": 40.3040543, "lon": 45.1213209}, {"type": "node", "id": 3648491420, "lat": 40.3047999, "lon": 45.1325637}, {"type": "node", "id": 3648491421, "lat": 40.3051726, "lon": 45.1258832}, {"type": "node", "id": 3659389840, "lat": 40.3005341, "lon": 45.0515002}, {"type": "node", "id": 3659389841, "lat": 40.3011285, "lon": 45.0553971}, {"type": "node", "id": 3659389842, "lat": 40.3013856, "lon": 45.0508893}, {"type": "node", "id": 3659389843, "lat": 40.301739, "lon": 45.0538068}, {"type": "node", "id": 3659389844, "lat": 40.3020683, "lon": 45.0531432}, {"type": "node", "id": 3659389845, "lat": 40.3023575, "lon": 45.0514791}, {"type": "node", "id": 3659389846, "lat": 40.302976, "lon": 45.0599577}, {"type": "node", "id": 3659389847, "lat": 40.3031527, "lon": 45.0585779}, {"type": "node", "id": 3659389848, "lat": 40.3038033, "lon": 45.05308}, {"type": "node", "id": 3659389849, "lat": 40.304719, "lon": 45.055039}, {"type": "node", "id": 3659389850, "lat": 40.3053616, "lon": 45.0640758}, {"type": "node", "id": 3659389851, "lat": 40.305707, "lon": 45.0635071}, {"type": "node", "id": 3659389852, "lat": 40.3068475, "lon": 45.0661191}, {"type": "node", "id": 3659389853, "lat": 40.3080683, "lon": 45.0593257}, {"type": "node", "id": 3659389854, "lat": 40.3085261, "lon": 45.0638546}, {"type": "node", "id": 3659389855, "lat": 40.308735, "lon": 45.0613795}, {"type": "node", "id": 3659389856, "lat": 40.308992, "lon": 45.0687943}, {"type": "node", "id": 3659389857, "lat": 40.3101967, "lon": 45.0681624}, {"type": "node", "id": 3699137862, "lat": 40.3987271, "lon": 45.4801802}, {"type": "node", "id": 3699137863, "lat": 40.3991639, "lon": 45.4807096}, {"type": "node", "id": 3699137864, "lat": 40.3989462, "lon": 45.4781227}, {"type": "node", "id": 3699137865, "lat": 40.3991652, "lon": 45.4794058}, {"type": "node", "id": 3699137866, "lat": 40.3998054, "lon": 45.4804457}, {"type": "node", "id": 3699137870, "lat": 40.4002603, "lon": 45.4815297}, {"type": "node", "id": 3699137883, "lat": 40.4012881, "lon": 45.4814634}, {"type": "node", "id": 3699137902, "lat": 40.4023831, "lon": 45.4801581}, {"type": "node", "id": 3699137916, "lat": 40.4035625, "lon": 45.4796935}, {"type": "node", "id": 3699137924, "lat": 40.4042363, "lon": 45.4747599}, {"type": "node", "id": 3699138425, "lat": 40.4048091, "lon": 45.4800032}, {"type": "node", "id": 3699138426, "lat": 40.407454, "lon": 45.4777687}, {"type": "node", "id": 3699138427, "lat": 40.4070826, "lon": 45.473368}, {"type": "node", "id": 3699138431, "lat": 40.4106884, "lon": 45.4703351}, {"type": "node", "id": 3699138432, "lat": 40.4111938, "lon": 45.4767289}, {"type": "node", "id": 3699138433, "lat": 40.4112275, "lon": 45.4720165}, {"type": "node", "id": 3699138434, "lat": 40.4115475, "lon": 45.4696493}, {"type": "node", "id": 3699138435, "lat": 40.411716, "lon": 45.4756227}, {"type": "node", "id": 3699138436, "lat": 40.411935, "lon": 45.4698927}, {"type": "node", "id": 3699138437, "lat": 40.4122638, "lon": 45.4683265}, {"type": "node", "id": 3699138438, "lat": 40.4135352, "lon": 45.4772156}, {"type": "node", "id": 3699138439, "lat": 40.4136868, "lon": 45.4673484}, {"type": "node", "id": 3699138440, "lat": 40.4141585, "lon": 45.4718617}, {"type": "node", "id": 3699138441, "lat": 40.414647, "lon": 45.4681228}, {"type": "node", "id": 3699138442, "lat": 40.4147817, "lon": 45.4762422}, {"type": "node", "id": 3699138443, "lat": 40.4148323, "lon": 45.4800032}, {"type": "node", "id": 3699138444, "lat": 40.4153667, "lon": 45.4688675}, {"type": "node", "id": 3699138445, "lat": 40.4169041, "lon": 45.4794722}, {"type": "node", "id": 3699138446, "lat": 40.4169883, "lon": 45.4812642}, {"type": "node", "id": 3699138447, "lat": 40.4178473, "lon": 45.4811757}, {"type": "node", "id": 3699169083, "lat": 40.4505072, "lon": 45.0755061}, {"type": "node", "id": 3699169084, "lat": 40.450712, "lon": 45.0711458}, {"type": "node", "id": 3699169085, "lat": 40.4513264, "lon": 45.0647937}, {"type": "node", "id": 3699169086, "lat": 40.45233, "lon": 45.0778747}, {"type": "node", "id": 3699169087, "lat": 40.4524734, "lon": 45.0680774}, {"type": "node", "id": 3699169088, "lat": 40.4530673, "lon": 45.0638517}, {"type": "node", "id": 3699169089, "lat": 40.4546239, "lon": 45.0640401}, {"type": "node", "id": 3699169090, "lat": 40.4563725, "lon": 45.0616907}, {"type": "node", "id": 3699169091, "lat": 40.4573068, "lon": 45.0597336}, {"type": "node", "id": 3699169092, "lat": 40.4585765, "lon": 45.0594375}, {"type": "node", "id": 3699169093, "lat": 40.4588018, "lon": 45.0826657}, {"type": "node", "id": 3699169094, "lat": 40.4611621, "lon": 45.0745089}, {"type": "node", "id": 3699169095, "lat": 40.4615965, "lon": 45.0796856}, {"type": "node", "id": 3699169096, "lat": 40.4618282, "lon": 45.0668199}, {"type": "node", "id": 3699169097, "lat": 40.4619351, "lon": 45.0579302}, {"type": "node", "id": 3699169098, "lat": 40.4622047, "lon": 45.0710831}, {"type": "node", "id": 3699169099, "lat": 40.4624266, "lon": 45.0545658}, {"type": "node", "id": 3699169100, "lat": 40.4635948, "lon": 45.0644979}, {"type": "node", "id": 3699169101, "lat": 40.4681718, "lon": 45.0660967}, {"type": "node", "id": 3699169103, "lat": 40.467894, "lon": 45.0514974}, {"type": "node", "id": 3699169104, "lat": 40.470673, "lon": 45.063895}, {"type": "node", "id": 3699169107, "lat": 40.471621, "lon": 45.0517186}, {"type": "node", "id": 3699169111, "lat": 40.476583, "lon": 45.0583942}, {"type": "node", "id": 3699191918, "lat": 40.4410021, "lon": 45.104595, "tags": {"is_in:country": "Armenia", "is_in:country_code": "AM", "is_in:municipality": "\u0533\u0561\u057e\u0561\u057c\u056b \u0570\u0561\u0574\u0561\u0575\u0576\u0584", "is_in:region": "\u0533\u0565\u0572\u0561\u0580\u0584\u0578\u0582\u0576\u056b\u0584\u056b \u0574\u0561\u0580\u0566", "name": "\u0532\u0565\u0580\u0564\u056f\u0578\u0582\u0576\u0584", "name:en": "Berdkunk", "name:hy": "\u0532\u0565\u0580\u0564\u056f\u0578\u0582\u0576\u0584", "name:ru": "\u0411\u0435\u0440\u0434\u043a\u0443\u043d\u043a", "place": "village", "population": "293", "population:date": "2022-01-01", "source:population": "Armstat", "wikidata": "Q1528566", "wikipedia": "en:Berdkunk"}}, {"type": "node", "id": 3699191919, "lat": 40.4264845, "lon": 45.095376, "tags": {"is_in:country": "Armenia", "is_in:country_code": "AM", "is_in:municipality": "\u0533\u0561\u057e\u0561\u057c\u056b \u0570\u0561\u0574\u0561\u0575\u0576\u0584", "is_in:region": "\u0533\u0565\u0572\u0561\u0580\u0584\u0578\u0582\u0576\u056b\u0584\u056b \u0574\u0561\u0580\u0566", "name": "\u0540\u0561\u0575\u0580\u0561\u057e\u0561\u0576\u0584", "name:en": "Hayravanq", "name:hy": "\u0540\u0561\u0575\u0580\u0561\u057e\u0561\u0576\u0584", "name:ru": "\u0410\u0439\u0440\u0430\u0432\u0430\u043d\u043a", "place": "village", "population": "797", "population:date": "2022-01-01", "source:population": "Armstat", "wikidata": "Q2536423", "wikipedia": "en:Hayravank"}}, {"type": "node", "id": 3699191920, "lat": 40.4199546, "lon": 45.1019445}, {"type": "node", "id": 3699191921, "lat": 40.4203904, "lon": 45.1054367}, {"type": "node", "id": 3699191922, "lat": 40.4209134, "lon": 45.0961052}, {"type": "node", "id": 3699191923, "lat": 40.422526, "lon": 45.0938153}, {"type": "node", "id": 3699191924, "lat": 40.4209088, "lon": 45.107675}, {"type": "node", "id": 3699194725, "lat": 40.4267969, "lon": 45.0919833}, {"type": "node", "id": 3699194726, "lat": 40.4293733, "lon": 45.1011567}, {"type": "node", "id": 3699194727, "lat": 40.4315904, "lon": 45.0882622}, {"type": "node", "id": 3699194729, "lat": 40.4341178, "lon": 45.0910101}, {"type": "node", "id": 3699194731, "lat": 40.4397324, "lon": 45.1074501}, {"type": "node", "id": 3699194733, "lat": 40.4394855, "lon": 45.1082255}, {"type": "node", "id": 3699194734, "lat": 40.4402608, "lon": 45.09886}, {"type": "node", "id": 3699194735, "lat": 40.4392917, "lon": 45.110266}, {"type": "node", "id": 3699194736, "lat": 40.4401081, "lon": 45.111865}, {"type": "node", "id": 3699194737, "lat": 40.4410894, "lon": 45.0988531}, {"type": "node", "id": 3699194738, "lat": 40.4423417, "lon": 45.1120067}, {"type": "node", "id": 3699194739, "lat": 40.4449235, "lon": 45.0971929}, {"type": "node", "id": 3699194740, "lat": 40.445649, "lon": 45.1122659}, {"type": "node", "id": 3699194741, "lat": 40.4478774, "lon": 45.1001488}, {"type": "node", "id": 3699194742, "lat": 40.4477892, "lon": 45.1083355}, {"type": "node", "id": 3699194743, "lat": 40.4493672, "lon": 45.1045779}, {"type": "node", "id": 3699194744, "lat": 40.4497593, "lon": 45.102059}, {"type": "node", "id": 3708358734, "lat": 40.3759951, "lon": 45.1854672}, {"type": "node", "id": 3964764188, "lat": 40.1280687, "lon": 45.1839136}, {"type": "node", "id": 3964764209, "lat": 40.1319263, "lon": 45.1889701}, {"type": "node", "id": 3964764581, "lat": 40.1664452, "lon": 45.1813747}, {"type": "node", "id": 3964764881, "lat": 40.1738179, "lon": 45.1960425}, {"type": "node", "id": 3964764882, "lat": 40.1739548, "lon": 45.1969075}, {"type": "node", "id": 3964764891, "lat": 40.1745251, "lon": 45.1989143}, {"type": "node", "id": 3964764896, "lat": 40.1747454, "lon": 45.1993739}, {"type": "node", "id": 3964764918, "lat": 40.1760097, "lon": 45.1999319}, {"type": "node", "id": 3964764952, "lat": 40.1768293, "lon": 45.2003529}, {"type": "node", "id": 4730806068, "lat": 40.1696406, "lon": 45.5833429}, {"type": "node", "id": 4730806069, "lat": 40.1719689, "lon": 45.5856818}, {"type": "node", "id": 4730806070, "lat": 40.1765924, "lon": 45.5851239}, {"type": "node", "id": 4730806071, "lat": 40.1798713, "lon": 45.5818409}, {"type": "node", "id": 4730806072, "lat": 40.1757399, "lon": 45.5645889}, {"type": "node", "id": 4730806073, "lat": 40.1717967, "lon": 45.5656618}, {"type": "node", "id": 4730806074, "lat": 40.1711531, "lon": 45.5673677}, {"type": "node", "id": 4730806075, "lat": 40.1685831, "lon": 45.5672336}, {"type": "node", "id": 4730806076, "lat": 40.1669761, "lon": 45.5679792}, {"type": "node", "id": 4730806077, "lat": 40.1637622, "lon": 45.5682152}, {"type": "node", "id": 4730806078, "lat": 40.163795, "lon": 45.5699962}, {"type": "node", "id": 4730806079, "lat": 40.1625323, "lon": 45.5719489}, {"type": "node", "id": 4730806080, "lat": 40.163016, "lon": 45.5743521}, {"type": "node", "id": 4730806081, "lat": 40.1637048, "lon": 45.5759507}, {"type": "node", "id": 4730806082, "lat": 40.1636802, "lon": 45.5767876}, {"type": "node", "id": 4730806083, "lat": 40.1630734, "lon": 45.5774098}, {"type": "node", "id": 4730806084, "lat": 40.1625241, "lon": 45.5791586}, {"type": "node", "id": 4730806085, "lat": 40.1613309, "lon": 45.5796679}, {"type": "node", "id": 4730806086, "lat": 40.1624667, "lon": 45.5821734}, {"type": "node", "id": 4730806087, "lat": 40.1619338, "lon": 45.5836862}, {"type": "node", "id": 4730806088, "lat": 40.1612614, "lon": 45.5847269}, {"type": "node", "id": 4730806089, "lat": 40.1619256, "lon": 45.5853599}, {"type": "node", "id": 4730806090, "lat": 40.1620526, "lon": 45.5864972}, {"type": "node", "id": 4730806091, "lat": 40.1651683, "lon": 45.5892438}, {"type": "node", "id": 4730806092, "lat": 40.168087, "lon": 45.5839652}, {"type": "node", "id": 4732792295, "lat": 40.1536234, "lon": 45.4497829}, {"type": "node", "id": 4732792298, "lat": 40.1467072, "lon": 45.4422965}, {"type": "node", "id": 4732792299, "lat": 40.1504221, "lon": 45.4401393}, {"type": "node", "id": 4732792305, "lat": 40.1469103, "lon": 45.4427179}, {"type": "node", "id": 4732792306, "lat": 40.1465448, "lon": 45.4419596}, {"type": "node", "id": 4732792307, "lat": 40.1497707, "lon": 45.4404017}, {"type": "node", "id": 4732792311, "lat": 40.1566158, "lon": 45.4481641}, {"type": "node", "id": 4886229732, "lat": 40.1514159, "lon": 45.3013519}, {"type": "node", "id": 4886229733, "lat": 40.1527749, "lon": 45.3023924}, {"type": "node", "id": 4886229734, "lat": 40.1529926, "lon": 45.3031105}, {"type": "node", "id": 4886229735, "lat": 40.1519932, "lon": 45.3056151}, {"type": "node", "id": 4886229736, "lat": 40.150692, "lon": 45.3050447}, {"type": "node", "id": 4886229765, "lat": 40.1452744, "lon": 45.3207488}, {"type": "node", "id": 4886229766, "lat": 40.1457569, "lon": 45.3206932}, {"type": "node", "id": 4886229767, "lat": 40.1458498, "lon": 45.3176637}, {"type": "node", "id": 4886255773, "lat": 40.1781415, "lon": 45.2305327}, {"type": "node", "id": 4886255774, "lat": 40.179173, "lon": 45.2304029}, {"type": "node", "id": 5022926042, "lat": 40.1248446, "lon": 45.2562582}, {"type": "node", "id": 5062688058, "lat": 40.4145825, "lon": 45.4702824}, {"type": "node", "id": 5201497383, "lat": 40.1006681, "lon": 45.2898288}, {"type": "node", "id": 5201497384, "lat": 40.0996833, "lon": 45.2920604}, {"type": "node", "id": 5201497385, "lat": 40.0990349, "lon": 45.2888417}, {"type": "node", "id": 5201497386, "lat": 40.0784327, "lon": 45.2853441}, {"type": "node", "id": 5201497387, "lat": 40.0835879, "lon": 45.2918672}, {"type": "node", "id": 5201497388, "lat": 40.0873324, "lon": 45.2817184}, {"type": "node", "id": 5201497389, "lat": 40.0967534, "lon": 45.2815461}, {"type": "node", "id": 5201497405, "lat": 40.1026302, "lon": 45.2904849}, {"type": "node", "id": 5201497408, "lat": 40.0973771, "lon": 45.2716112}, {"type": "node", "id": 5201497409, "lat": 40.0940286, "lon": 45.2857732}, {"type": "node", "id": 5201497410, "lat": 40.1020057, "lon": 45.2907514}, {"type": "node", "id": 5201497411, "lat": 40.1056493, "lon": 45.2788639}, {"type": "node", "id": 5489632145, "lat": 40.178654, "lon": 45.5830598}, {"type": "node", "id": 5546280414, "lat": 40.1625573, "lon": 45.2006309}, {"type": "node", "id": 5655879008, "lat": 40.1515133, "lon": 45.2870608}, {"type": "node", "id": 5655879009, "lat": 40.1513052, "lon": 45.2827832}, {"type": "node", "id": 5655879010, "lat": 40.1513052, "lon": 45.2817102}, {"type": "node", "id": 5655879011, "lat": 40.1517936, "lon": 45.2807685}, {"type": "node", "id": 5655879012, "lat": 40.1519831, "lon": 45.2790512}, {"type": "node", "id": 5655879013, "lat": 40.1526326, "lon": 45.2765213}, {"type": "node", "id": 5655879014, "lat": 40.1533301, "lon": 45.2747055}, {"type": "node", "id": 5655879015, "lat": 40.1552578, "lon": 45.270504}, {"type": "node", "id": 5655879016, "lat": 40.156419, "lon": 45.2617716}, {"type": "node", "id": 5655879017, "lat": 40.1435759, "lon": 45.2489412}, {"type": "node", "id": 5655879024, "lat": 40.137934, "lon": 45.2588024}, {"type": "node", "id": 5655879029, "lat": 40.1376526, "lon": 45.2611919}, {"type": "node", "id": 5655879030, "lat": 40.13762, "lon": 45.2644984}, {"type": "node", "id": 5655879031, "lat": 40.1375023, "lon": 45.2653649}, {"type": "node", "id": 5655879032, "lat": 40.136518, "lon": 45.2653219}, {"type": "node", "id": 5655879033, "lat": 40.1358126, "lon": 45.2654078}, {"type": "node", "id": 5655879034, "lat": 40.134451, "lon": 45.2658155}, {"type": "node", "id": 5655879035, "lat": 40.1337948, "lon": 45.2669313}, {"type": "node", "id": 5655879036, "lat": 40.1338276, "lon": 45.2681329}, {"type": "node", "id": 5655879037, "lat": 40.1348612, "lon": 45.268605}, {"type": "node", "id": 5655879038, "lat": 40.1353533, "lon": 45.2694847}, {"type": "node", "id": 5655879039, "lat": 40.1359767, "lon": 45.2703216}, {"type": "node", "id": 5655879040, "lat": 40.1356814, "lon": 45.2712443}, {"type": "node", "id": 5655879041, "lat": 40.1351729, "lon": 45.2722957}, {"type": "node", "id": 5655879042, "lat": 40.1339589, "lon": 45.2732184}, {"type": "node", "id": 5655879043, "lat": 40.1333027, "lon": 45.2731754}, {"type": "node", "id": 5655879044, "lat": 40.1323183, "lon": 45.2736904}, {"type": "node", "id": 5655879045, "lat": 40.1322363, "lon": 45.2745058}, {"type": "node", "id": 5655879046, "lat": 40.1321707, "lon": 45.2755572}, {"type": "node", "id": 5655879047, "lat": 40.1318918, "lon": 45.275922}, {"type": "node", "id": 5655879048, "lat": 40.1313504, "lon": 45.2756002}, {"type": "node", "id": 5655879049, "lat": 40.1293755, "lon": 45.2783076}, {"type": "node", "id": 5655879050, "lat": 40.128316, "lon": 45.2809587}, {"type": "node", "id": 5655879051, "lat": 40.1284465, "lon": 45.2823808}, {"type": "node", "id": 5655879052, "lat": 40.1288074, "lon": 45.2830889}, {"type": "node", "id": 5655879053, "lat": 40.130727, "lon": 45.2843334}, {"type": "node", "id": 5655879054, "lat": 40.1305793, "lon": 45.28605}, {"type": "node", "id": 5655879055, "lat": 40.1329022, "lon": 45.2874674}, {"type": "node", "id": 5655879056, "lat": 40.1434897, "lon": 45.2889254}, {"type": "node", "id": 5655879057, "lat": 40.1455072, "lon": 45.2877881}, {"type": "node", "id": 5655879058, "lat": 40.1473606, "lon": 45.2875395}, {"type": "node", "id": 5655879059, "lat": 40.149132, "lon": 45.2876291}, {"type": "node", "id": 5655879060, "lat": 40.1276241, "lon": 45.2877852}, {"type": "node", "id": 5655879061, "lat": 40.132206, "lon": 45.2892905}, {"type": "node", "id": 5655879062, "lat": 40.1371038, "lon": 45.2881268}, {"type": "node", "id": 5656885148, "lat": 40.1575172, "lon": 45.255728}, {"type": "node", "id": 5717384188, "lat": 40.1687367, "lon": 45.2109327}, {"type": "node", "id": 5717454314, "lat": 40.1661377, "lon": 45.2112781}, {"type": "node", "id": 5717454315, "lat": 40.1646971, "lon": 45.2090375}, {"type": "node", "id": 5717454316, "lat": 40.1634201, "lon": 45.207496}, {"type": "node", "id": 5720510341, "lat": 40.1737693, "lon": 45.1938629}, {"type": "node", "id": 5720510342, "lat": 40.1745603, "lon": 45.1948451}, {"type": "node", "id": 5734708939, "lat": 40.3727875, "lon": 45.1644901}, {"type": "node", "id": 5734773867, "lat": 40.4396476, "lon": 45.1078073}, {"type": "node", "id": 5739576986, "lat": 40.3444227, "lon": 45.1129424}, {"type": "node", "id": 5739576987, "lat": 40.3454968, "lon": 45.1087567}, {"type": "node", "id": 5758624786, "lat": 40.1605337, "lon": 45.4978195}, {"type": "node", "id": 5758624787, "lat": 40.1624929, "lon": 45.5045131}, {"type": "node", "id": 5758624788, "lat": 40.1620349, "lon": 45.5029484}, {"type": "node", "id": 5758624789, "lat": 40.1610299, "lon": 45.5009701}, {"type": "node", "id": 5758624812, "lat": 40.1446431, "lon": 45.3331074}, {"type": "node", "id": 5758624813, "lat": 40.1441793, "lon": 45.3204878}, {"type": "node", "id": 5758624815, "lat": 40.126252, "lon": 45.3225448}, {"type": "node", "id": 5758624816, "lat": 40.1244179, "lon": 45.3248542}, {"type": "node", "id": 5758624817, "lat": 40.1248472, "lon": 45.3271635}, {"type": "node", "id": 5758624818, "lat": 40.1257154, "lon": 45.3293198}, {"type": "node", "id": 5758624819, "lat": 40.1282812, "lon": 45.3311698}, {"type": "node", "id": 5758624820, "lat": 40.1275293, "lon": 45.3348839}, {"type": "node", "id": 5758626621, "lat": 40.1301542, "lon": 45.3358268}, {"type": "node", "id": 5758626622, "lat": 40.1307395, "lon": 45.3366306}, {"type": "node", "id": 5758626623, "lat": 40.1319881, "lon": 45.337613}, {"type": "node", "id": 5758626624, "lat": 40.1327002, "lon": 45.3388761}, {"type": "node", "id": 5758626625, "lat": 40.1359387, "lon": 45.3384934}, {"type": "node", "id": 5758626626, "lat": 40.1374019, "lon": 45.3378427}, {"type": "node", "id": 5758626627, "lat": 40.1385431, "lon": 45.3378937}, {"type": "node", "id": 5758626628, "lat": 40.1398599, "lon": 45.3374089}, {"type": "node", "id": 5758626629, "lat": 40.1406109, "lon": 45.3382892}, {"type": "node", "id": 5758626630, "lat": 40.1411279, "lon": 45.338621}, {"type": "node", "id": 5758626631, "lat": 40.1427372, "lon": 45.338302}, {"type": "node", "id": 5758626632, "lat": 40.1428445, "lon": 45.3367964}, {"type": "node", "id": 5758626633, "lat": 40.1425714, "lon": 45.3345764}, {"type": "node", "id": 5758626634, "lat": 40.129536, "lon": 45.3100576}, {"type": "node", "id": 5758626635, "lat": 40.1277196, "lon": 45.3123726}, {"type": "node", "id": 5758626636, "lat": 40.1267894, "lon": 45.3198605}, {"type": "node", "id": 5758626637, "lat": 40.1259106, "lon": 45.3180456}, {"type": "node", "id": 5759839062, "lat": 40.1688292, "lon": 45.1987898, "tags": {"is_in:country": "Armenia", "is_in:country_code": "AM", "is_in:municipality": "\u0544\u0561\u0580\u057f\u0578\u0582\u0576\u0578\u0582 \u0570\u0561\u0574\u0561\u0575\u0576\u0584", "is_in:region": "\u0533\u0565\u0572\u0561\u0580\u0584\u0578\u0582\u0576\u056b\u0584\u056b \u0574\u0561\u0580\u0566", "name": "\u0541\u0578\u0580\u0561\u0563\u0575\u0578\u0582\u0572", "name:ckb": "\u062f\u0632\u06c6\u0631\u0627\u06af\u06cc\u0648\u063a", "name:en": "Dzoragyugh", "name:hy": "\u0541\u0578\u0580\u0561\u0563\u0575\u0578\u0582\u0572", "name:ru": "\u0414\u0437\u043e\u0440\u0430\u0433\u044e\u0445", "place": "village", "population": "4800", "population:date": "2022-01-01", "source:population": "Armstat", "wikidata": "Q2636104", "wikipedia": "en:Dzoragyugh, Gegharkunik"}}, {"type": "node", "id": 5759858314, "lat": 40.167688, "lon": 45.1778546}, {"type": "node", "id": 5759858315, "lat": 40.182677, "lon": 45.2240831}, {"type": "node", "id": 5768264949, "lat": 40.3321613, "lon": 45.1129701}, {"type": "node", "id": 5768264950, "lat": 40.3321793, "lon": 45.1137832}, {"type": "node", "id": 5768264952, "lat": 40.332213, "lon": 45.1150637}, {"type": "node", "id": 5768265653, "lat": 40.3322332, "lon": 45.1158809}, {"type": "node", "id": 5768265655, "lat": 40.331481, "lon": 45.1180412}, {"type": "node", "id": 5768265656, "lat": 40.3306052, "lon": 45.1206595}, {"type": "node", "id": 5768265657, "lat": 40.329736, "lon": 45.1218239}, {"type": "node", "id": 5768265658, "lat": 40.3295973, "lon": 45.1231704}, {"type": "node", "id": 5768265659, "lat": 40.3291442, "lon": 45.1236677}, {"type": "node", "id": 5768265660, "lat": 40.328164, "lon": 45.1235949}, {"type": "node", "id": 5768265661, "lat": 40.3276091, "lon": 45.1228307}, {"type": "node", "id": 5768265662, "lat": 40.3271005, "lon": 45.1225881}, {"type": "node", "id": 5768265663, "lat": 40.3257411, "lon": 45.1221151}, {"type": "node", "id": 5768265664, "lat": 40.3246869, "lon": 45.1213387}, {"type": "node", "id": 5768265665, "lat": 40.323198, "lon": 45.1206231}, {"type": "node", "id": 5768265666, "lat": 40.3228003, "lon": 45.1203805}, {"type": "node", "id": 5768265667, "lat": 40.3219495, "lon": 45.1206109}, {"type": "node", "id": 5768265668, "lat": 40.3214871, "lon": 45.1199802}, {"type": "node", "id": 5768265669, "lat": 40.3215241, "lon": 45.1193494}, {"type": "node", "id": 5768265670, "lat": 40.3215796, "lon": 45.1187429}, {"type": "node", "id": 5768265671, "lat": 40.3216073, "lon": 45.1175906}, {"type": "node", "id": 5768265672, "lat": 40.3213484, "lon": 45.1166323}, {"type": "node", "id": 5768265673, "lat": 40.3206733, "lon": 45.1161835}, {"type": "node", "id": 5768265674, "lat": 40.3200536, "lon": 45.1161835}, {"type": "node", "id": 5768265675, "lat": 40.3196282, "lon": 45.1162684}, {"type": "node", "id": 5768265676, "lat": 40.3185091, "lon": 45.1163655}, {"type": "node", "id": 5768265677, "lat": 40.3175288, "lon": 45.1163412}, {"type": "node", "id": 5768265678, "lat": 40.3168074, "lon": 45.1147522}, {"type": "node", "id": 5768265679, "lat": 40.3165021, "lon": 45.1144974}, {"type": "node", "id": 5768265680, "lat": 40.3159842, "lon": 45.1127871}, {"type": "node", "id": 5768265681, "lat": 40.3157067, "lon": 45.1098759}, {"type": "node", "id": 5768265682, "lat": 40.3158177, "lon": 45.1088934}, {"type": "node", "id": 5768265683, "lat": 40.3163172, "lon": 45.1077289}, {"type": "node", "id": 5768265684, "lat": 40.3169183, "lon": 45.1074984}, {"type": "node", "id": 5768265685, "lat": 40.3174918, "lon": 45.107462}, {"type": "node", "id": 5768265686, "lat": 40.3182872, "lon": 45.1074984}, {"type": "node", "id": 5768265687, "lat": 40.3191658, "lon": 45.107086}, {"type": "node", "id": 5768265688, "lat": 40.3193045, "lon": 45.1065644}, {"type": "node", "id": 5768265689, "lat": 40.3191103, "lon": 45.1058245}, {"type": "node", "id": 5768265690, "lat": 40.3192583, "lon": 45.1049511}, {"type": "node", "id": 5768265691, "lat": 40.3193785, "lon": 45.104187}, {"type": "node", "id": 5768265692, "lat": 40.319323, "lon": 45.1032893}, {"type": "node", "id": 5768265693, "lat": 40.3191103, "lon": 45.1024888}, {"type": "node", "id": 5768265694, "lat": 40.3186571, "lon": 45.1019186}, {"type": "node", "id": 5768265695, "lat": 40.3184351, "lon": 45.1011423}, {"type": "node", "id": 5768265696, "lat": 40.3179912, "lon": 45.1000992}, {"type": "node", "id": 5768265697, "lat": 40.3181392, "lon": 45.099056}, {"type": "node", "id": 5768265698, "lat": 40.3192768, "lon": 45.0979643}, {"type": "node", "id": 5768265699, "lat": 40.3198132, "lon": 45.0984495}, {"type": "node", "id": 5768265700, "lat": 40.3201646, "lon": 45.0986678}, {"type": "node", "id": 5768265701, "lat": 40.3206085, "lon": 45.0985101}, {"type": "node", "id": 5768265702, "lat": 40.3207565, "lon": 45.0979036}, {"type": "node", "id": 5768265703, "lat": 40.3207842, "lon": 45.0973093}, {"type": "node", "id": 5768265704, "lat": 40.3212374, "lon": 45.0969696}, {"type": "node", "id": 5768265705, "lat": 40.3217461, "lon": 45.0973578}, {"type": "node", "id": 5768265706, "lat": 40.3227356, "lon": 45.0969939}, {"type": "node", "id": 5768265707, "lat": 40.3230593, "lon": 45.0964116}, {"type": "node", "id": 5768265708, "lat": 40.3235864, "lon": 45.0963995}, {"type": "node", "id": 5768265709, "lat": 40.3240581, "lon": 45.0965815}, {"type": "node", "id": 5768265710, "lat": 40.3244372, "lon": 45.0970424}, {"type": "node", "id": 5768265711, "lat": 40.3247979, "lon": 45.0976246}, {"type": "node", "id": 5768265712, "lat": 40.325362, "lon": 45.099153}, {"type": "node", "id": 5768265713, "lat": 40.3254082, "lon": 45.09999}, {"type": "node", "id": 5768265714, "lat": 40.3259169, "lon": 45.1004024}, {"type": "node", "id": 5768265715, "lat": 40.3263885, "lon": 45.0987163}, {"type": "node", "id": 5768265716, "lat": 40.3277109, "lon": 45.0986072}, {"type": "node", "id": 5768265717, "lat": 40.3282195, "lon": 45.099335}, {"type": "node", "id": 5768265718, "lat": 40.3285061, "lon": 45.1030953}, {"type": "node", "id": 5768265719, "lat": 40.329098, "lon": 45.1054485}, {"type": "node", "id": 5768265721, "lat": 40.3454485, "lon": 45.1065673}, {"type": "node", "id": 5768265722, "lat": 40.3447971, "lon": 45.1056501}, {"type": "node", "id": 5768265723, "lat": 40.3443999, "lon": 45.1041074}, {"type": "node", "id": 5768265724, "lat": 40.3439391, "lon": 45.1030025}, {"type": "node", "id": 5768265725, "lat": 40.3432559, "lon": 45.0989791}, {"type": "node", "id": 5768265726, "lat": 40.3423661, "lon": 45.0980618}, {"type": "node", "id": 5768265727, "lat": 40.3412697, "lon": 45.098166}, {"type": "node", "id": 5768265728, "lat": 40.3383491, "lon": 45.0954471}, {"type": "node", "id": 5768265731, "lat": 40.3374339, "lon": 45.0951903}, {"type": "node", "id": 5768265732, "lat": 40.3351336, "lon": 45.09539}, {"type": "node", "id": 5768265733, "lat": 40.332228, "lon": 45.097624}, {"type": "node", "id": 5768265734, "lat": 40.3302044, "lon": 45.1234449}, {"type": "node", "id": 5768265735, "lat": 40.3309262, "lon": 45.1235971}, {"type": "node", "id": 5768265736, "lat": 40.3319767, "lon": 45.1238846}, {"type": "node", "id": 5768265737, "lat": 40.3330658, "lon": 45.1233607}, {"type": "node", "id": 5768265738, "lat": 40.3344158, "lon": 45.1259322}, {"type": "node", "id": 5768265739, "lat": 40.3357288, "lon": 45.1263325}, {"type": "node", "id": 5768265740, "lat": 40.3360616, "lon": 45.126187}, {"type": "node", "id": 5768265741, "lat": 40.3445302, "lon": 45.144022}, {"type": "node", "id": 5768265742, "lat": 40.3428455, "lon": 45.1406752}, {"type": "node", "id": 5768265743, "lat": 40.3428773, "lon": 45.139466}, {"type": "node", "id": 5768265744, "lat": 40.3418445, "lon": 45.1356094}, {"type": "node", "id": 5768265745, "lat": 40.3415902, "lon": 45.1346504}, {"type": "node", "id": 5768265746, "lat": 40.3407004, "lon": 45.1341084}, {"type": "node", "id": 5768265747, "lat": 40.3403826, "lon": 45.1341084}, {"type": "node", "id": 5768265748, "lat": 40.3396994, "lon": 45.1338791}, {"type": "node", "id": 5768265749, "lat": 40.3386347, "lon": 45.1336498}, {"type": "node", "id": 5768265750, "lat": 40.3374906, "lon": 45.1341084}, {"type": "node", "id": 5768265751, "lat": 40.3366643, "lon": 45.1341918}, {"type": "node", "id": 5768265752, "lat": 40.3351388, "lon": 45.133483}, {"type": "node", "id": 5768265853, "lat": 40.3335338, "lon": 45.1337123}, {"type": "node", "id": 5768265854, "lat": 40.3336927, "lon": 45.1352341}, {"type": "node", "id": 5768265855, "lat": 40.3345985, "lon": 45.1358179}, {"type": "node", "id": 5768265856, "lat": 40.3353516, "lon": 45.1372358}, {"type": "node", "id": 5768265857, "lat": 40.3350594, "lon": 45.1378608}, {"type": "node", "id": 5768265858, "lat": 40.3341536, "lon": 45.1385279}, {"type": "node", "id": 5768265859, "lat": 40.3332478, "lon": 45.1384862}, {"type": "node", "id": 5768265860, "lat": 40.332342, "lon": 45.1379234}, {"type": "node", "id": 5768265861, "lat": 40.3316904, "lon": 45.13661}, {"type": "node", "id": 5768265862, "lat": 40.3312295, "lon": 45.1345254}, {"type": "node", "id": 5768265863, "lat": 40.3301807, "lon": 45.1343377}, {"type": "node", "id": 5768265864, "lat": 40.3291, "lon": 45.1348381}, {"type": "node", "id": 5768265865, "lat": 40.3275425, "lon": 45.1353175}, {"type": "node", "id": 5768265866, "lat": 40.3269545, "lon": 45.1351299}, {"type": "node", "id": 5768265867, "lat": 40.326287, "lon": 45.1349214}, {"type": "node", "id": 5768265868, "lat": 40.3257148, "lon": 45.1346504}, {"type": "node", "id": 5768265869, "lat": 40.3253334, "lon": 45.1341084}, {"type": "node", "id": 5768265870, "lat": 40.3247295, "lon": 45.1336289}, {"type": "node", "id": 5768265871, "lat": 40.3239666, "lon": 45.1332745}, {"type": "node", "id": 5768265872, "lat": 40.3232831, "lon": 45.1319612}, {"type": "node", "id": 5768265873, "lat": 40.322854, "lon": 45.1317319}, {"type": "node", "id": 5768265874, "lat": 40.3223454, "lon": 45.1324198}, {"type": "node", "id": 5768265875, "lat": 40.3224885, "lon": 45.1340042}, {"type": "node", "id": 5768265876, "lat": 40.3226792, "lon": 45.1356094}, {"type": "node", "id": 5768265877, "lat": 40.3225997, "lon": 45.1358804}, {"type": "node", "id": 5768265878, "lat": 40.3217573, "lon": 45.1365475}, {"type": "node", "id": 5768265879, "lat": 40.3210421, "lon": 45.1369227}, {"type": "node", "id": 5768265880, "lat": 40.31985, "lon": 45.1373397}, {"type": "node", "id": 5768265881, "lat": 40.3185784, "lon": 45.1376941}, {"type": "node", "id": 5768265882, "lat": 40.3178155, "lon": 45.1379025}, {"type": "node", "id": 5768265883, "lat": 40.3173863, "lon": 45.1385905}, {"type": "node", "id": 5768265884, "lat": 40.3170048, "lon": 45.13907}, {"type": "node", "id": 5768265885, "lat": 40.3166075, "lon": 45.1400289}, {"type": "node", "id": 5768265886, "lat": 40.3162101, "lon": 45.1404458}, {"type": "node", "id": 5768265887, "lat": 40.3157491, "lon": 45.1406335}, {"type": "node", "id": 5768265888, "lat": 40.315304, "lon": 45.1411338}, {"type": "node", "id": 5768265889, "lat": 40.314712, "lon": 45.1413697}, {"type": "node", "id": 5768265890, "lat": 40.3132775, "lon": 45.1437839}, {"type": "node", "id": 5768265891, "lat": 40.3127347, "lon": 45.1443215}, {"type": "node", "id": 5768265892, "lat": 40.3124799, "lon": 45.1448736}, {"type": "node", "id": 5768265893, "lat": 40.312225, "lon": 45.1453531}, {"type": "node", "id": 5768265894, "lat": 40.311937, "lon": 45.1458761}, {"type": "node", "id": 5768265895, "lat": 40.3114481, "lon": 45.1462047}, {"type": "node", "id": 5768265896, "lat": 40.3110381, "lon": 45.1467859}, {"type": "node", "id": 5768265897, "lat": 40.3105285, "lon": 45.1471782}, {"type": "node", "id": 5768265898, "lat": 40.3099967, "lon": 45.1476431}, {"type": "node", "id": 5768265899, "lat": 40.3099191, "lon": 45.1481226}, {"type": "node", "id": 5768265900, "lat": 40.3100853, "lon": 45.1487764}, {"type": "node", "id": 5768265901, "lat": 40.3106614, "lon": 45.1489362}, {"type": "node", "id": 5768265902, "lat": 40.3119688, "lon": 45.1491832}, {"type": "node", "id": 5768265903, "lat": 40.3142179, "lon": 45.1484858}, {"type": "node", "id": 5768265904, "lat": 40.3153257, "lon": 45.1482824}, {"type": "node", "id": 5768265905, "lat": 40.3156692, "lon": 45.1486021}, {"type": "node", "id": 5768265906, "lat": 40.3163079, "lon": 45.149448}, {"type": "node", "id": 5768265907, "lat": 40.3173227, "lon": 45.1499416}, {"type": "node", "id": 5768265908, "lat": 40.3184972, "lon": 45.1497771}, {"type": "node", "id": 5768265909, "lat": 40.3195121, "lon": 45.1501809}, {"type": "node", "id": 5768265910, "lat": 40.3199454, "lon": 45.1510034}, {"type": "node", "id": 5768265911, "lat": 40.3204129, "lon": 45.1516764}, {"type": "node", "id": 5768265912, "lat": 40.3207892, "lon": 45.1517811}, {"type": "node", "id": 5768265913, "lat": 40.3212111, "lon": 45.1522896}, {"type": "node", "id": 5768265914, "lat": 40.3214163, "lon": 45.1529476}, {"type": "node", "id": 5768265915, "lat": 40.3216443, "lon": 45.1537552}, {"type": "node", "id": 5768265916, "lat": 40.3227162, "lon": 45.1538599}, {"type": "node", "id": 5768265917, "lat": 40.324763, "lon": 45.1554155}, {"type": "node", "id": 5768265919, "lat": 40.3264871, "lon": 45.1573591}, {"type": "node", "id": 5768265921, "lat": 40.3295734, "lon": 45.1543368}, {"type": "node", "id": 5768265922, "lat": 40.3317252, "lon": 45.1522194}, {"type": "node", "id": 5768265923, "lat": 40.3353231, "lon": 45.1365714}, {"type": "node", "id": 5768266359, "lat": 40.3137684, "lon": 45.1421076}, {"type": "node", "id": 5789710619, "lat": 40.1632527, "lon": 45.1837973}, {"type": "node", "id": 5789710620, "lat": 40.1643867, "lon": 45.1805041}, {"type": "node", "id": 5789710621, "lat": 40.1650283, "lon": 45.1833245}, {"type": "node", "id": 5790092431, "lat": 40.1776829, "lon": 45.2004121}, {"type": "node", "id": 5793659434, "lat": 40.1599822, "lon": 45.1885473}, {"type": "node", "id": 5806647001, "lat": 40.1476121, "lon": 45.2322464}, {"type": "node", "id": 5820017868, "lat": 40.159511, "lon": 45.1962502}, {"type": "node", "id": 5820017869, "lat": 40.1597958, "lon": 45.1969975}, {"type": "node", "id": 5820017989, "lat": 40.1606239, "lon": 45.1862526}, {"type": "node", "id": 5820017990, "lat": 40.1613823, "lon": 45.1846915}, {"type": "node", "id": 5820017991, "lat": 40.1626942, "lon": 45.1808399}, {"type": "node", "id": 5820017992, "lat": 40.1631452, "lon": 45.1799226}, {"type": "node", "id": 5820017993, "lat": 40.1639938, "lon": 45.1796382}, {"type": "node", "id": 5820017994, "lat": 40.1648711, "lon": 45.1811886}, {"type": "node", "id": 5820018001, "lat": 40.1568972, "lon": 45.1896429}, {"type": "node", "id": 5820018002, "lat": 40.1571883, "lon": 45.1918209}, {"type": "node", "id": 5824788939, "lat": 40.1790829, "lon": 45.2032396}, {"type": "node", "id": 5824808728, "lat": 40.1615747, "lon": 45.199787}, {"type": "node", "id": 5939054197, "lat": 40.1796502, "lon": 45.2275593}, {"type": "node", "id": 5939082753, "lat": 40.1570469, "lon": 45.2055166}, {"type": "node", "id": 5940479929, "lat": 40.1806849, "lon": 45.2011228}, {"type": "node", "id": 6007384503, "lat": 40.176735, "lon": 45.1938786}, {"type": "node", "id": 6007835180, "lat": 40.193118, "lon": 45.1995236}, {"type": "node", "id": 6007835181, "lat": 40.1940023, "lon": 45.2017726}, {"type": "node", "id": 6007835182, "lat": 40.1967783, "lon": 45.2056439}, {"type": "node", "id": 6007835464, "lat": 40.2061399, "lon": 45.2172401}, {"type": "node", "id": 6007835465, "lat": 40.2081477, "lon": 45.2157747}, {"type": "node", "id": 6007835466, "lat": 40.2133266, "lon": 45.2109101}, {"type": "node", "id": 6007835467, "lat": 40.2166945, "lon": 45.2094699}, {"type": "node", "id": 6007835468, "lat": 40.2079565, "lon": 45.2143448}, {"type": "node", "id": 6007835469, "lat": 40.2088661, "lon": 45.2133193}, {"type": "node", "id": 6007835470, "lat": 40.2094885, "lon": 45.2127932}, {"type": "node", "id": 6007835471, "lat": 40.2059131, "lon": 45.2139205}, {"type": "node", "id": 6007835472, "lat": 40.2053176, "lon": 45.2100392}, {"type": "node", "id": 6007835473, "lat": 40.2049947, "lon": 45.2082965}, {"type": "node", "id": 6007835474, "lat": 40.2045996, "lon": 45.2070499}, {"type": "node", "id": 6010136515, "lat": 40.1879292, "lon": 45.2092368}, {"type": "node", "id": 6010136516, "lat": 40.1863117, "lon": 45.2053769}, {"type": "node", "id": 6010136517, "lat": 40.1897064, "lon": 45.2090023}, {"type": "node", "id": 6010136518, "lat": 40.1903876, "lon": 45.2082235}, {"type": "node", "id": 6042128320, "lat": 40.367865, "lon": 45.1161769}, {"type": "node", "id": 6042128321, "lat": 40.3696083, "lon": 45.11272}, {"type": "node", "id": 6042128322, "lat": 40.3681854, "lon": 45.1149399}, {"type": "node", "id": 6042128323, "lat": 40.37672, "lon": 45.1180987}, {"type": "node", "id": 6042128324, "lat": 40.37655, "lon": 45.1222731}, {"type": "node", "id": 6042128325, "lat": 40.3728815, "lon": 45.126664}, {"type": "node", "id": 6123773911, "lat": 40.3513976, "lon": 45.1273162, "tags": {"capital": "4", "is_in:country": "Armenia", "is_in:country_code": "AM", "is_in:municipality": "\u0533\u0561\u057e\u0561\u057c\u056b \u0570\u0561\u0574\u0561\u0575\u0576\u0584", "is_in:region": "\u0533\u0565\u0572\u0561\u0580\u0584\u0578\u0582\u0576\u056b\u0584\u056b \u0574\u0561\u0580\u0566", "name": "\u0533\u0561\u057e\u0561\u057c", "name:ckb": "\u06af\u0627\u06a4\u0627\u0631", "name:en": "Gavar", "name:fa": "\u06af\u0627\u0648\u0627\u0631", "name:hy": "\u0533\u0561\u057e\u0561\u057c", "name:ku": "Gavar", "name:ml": "\u0d17\u0d35\u0d7c", "name:ru": "\u0413\u0430\u0432\u0430\u0440", "name:uk": "\u0490\u0430\u0432\u0430\u0440", "place": "town", "population": "17830", "population:date": "2022-01-01", "source:population": "Armstat", "wikidata": "Q39565", "wikipedia": "en:Gavar"}}, {"type": "node", "id": 6139470976, "lat": 40.3747847, "lon": 45.1616171}, {"type": "node", "id": 6239612044, "lat": 40.1890844, "lon": 45.2096335}, {"type": "node", "id": 6239612045, "lat": 40.1887681, "lon": 45.2100657}, {"type": "node", "id": 6239612046, "lat": 40.1881514, "lon": 45.2100078}, {"type": "node", "id": 6239612047, "lat": 40.192644, "lon": 45.1972281}, {"type": "node", "id": 6239617483, "lat": 40.1680058, "lon": 45.2106306}, {"type": "node", "id": 6363392754, "lat": 40.1941386, "lon": 45.2022883}, {"type": "node", "id": 6363392755, "lat": 40.1945713, "lon": 45.2024555}, {"type": "node", "id": 6363392756, "lat": 40.1947418, "lon": 45.2027843}, {"type": "node", "id": 6363392765, "lat": 40.1939658, "lon": 45.2007367}, {"type": "node", "id": 6382729300, "lat": 40.1586261, "lon": 45.5240106}, {"type": "node", "id": 6382729301, "lat": 40.157172, "lon": 45.5178442}, {"type": "node", "id": 6382729302, "lat": 40.1560729, "lon": 45.5148328}, {"type": "node", "id": 6382729303, "lat": 40.1578971, "lon": 45.5181329}, {"type": "node", "id": 6382729304, "lat": 40.1574159, "lon": 45.519038}, {"type": "node", "id": 6382729305, "lat": 40.1571907, "lon": 45.5200443}, {"type": "node", "id": 6382729306, "lat": 40.1580468, "lon": 45.5228325}, {"type": "node", "id": 6382729307, "lat": 40.158044, "lon": 45.5219262}, {"type": "node", "id": 6382729308, "lat": 40.1586864, "lon": 45.5224482}, {"type": "node", "id": 6382729309, "lat": 40.1583476, "lon": 45.5226812}, {"type": "node", "id": 6382729310, "lat": 40.1580049, "lon": 45.5235433}, {"type": "node", "id": 6382729311, "lat": 40.1583394, "lon": 45.5233525}, {"type": "node", "id": 6382729312, "lat": 40.1578064, "lon": 45.5230693}, {"type": "node", "id": 6382729313, "lat": 40.1572872, "lon": 45.520599}, {"type": "node", "id": 6382729314, "lat": 40.1573903, "lon": 45.5211041}, {"type": "node", "id": 6382729315, "lat": 40.1571126, "lon": 45.5206992}, {"type": "node", "id": 6382729316, "lat": 40.1569776, "lon": 45.5201065}, {"type": "node", "id": 6382729317, "lat": 40.1570955, "lon": 45.5188163}, {"type": "node", "id": 6382729318, "lat": 40.1571002, "lon": 45.5195239}, {"type": "node", "id": 6382729319, "lat": 40.1572998, "lon": 45.5176367}, {"type": "node", "id": 6382729320, "lat": 40.1566291, "lon": 45.5163846}, {"type": "node", "id": 6382729323, "lat": 40.157484, "lon": 45.5200583}, {"type": "node", "id": 6479055878, "lat": 40.1940057, "lon": 45.2020401}, {"type": "node", "id": 6871417211, "lat": 40.1485884, "lon": 45.2359128}, {"type": "node", "id": 6872603290, "lat": 40.1809929, "lon": 45.2259298}, {"type": "node", "id": 6872603291, "lat": 40.1818935, "lon": 45.2285323}, {"type": "node", "id": 6872603292, "lat": 40.1802674, "lon": 45.228146}, {"type": "node", "id": 6872603319, "lat": 40.169937, "lon": 45.2230793}, {"type": "node", "id": 6872603320, "lat": 40.170021, "lon": 45.2235872}, {"type": "node", "id": 6872650780, "lat": 40.1672735, "lon": 45.2426089}, {"type": "node", "id": 6872853768, "lat": 40.4467302, "lon": 45.1005774}, {"type": "node", "id": 6872853769, "lat": 40.4480977, "lon": 45.1014449}, {"type": "node", "id": 6908863540, "lat": 40.1673143, "lon": 45.2117872}, {"type": "node", "id": 7345510769, "lat": 40.1940742, "lon": 45.2022795}, {"type": "node", "id": 7345510770, "lat": 40.1937346, "lon": 45.2002318}, {"type": "node", "id": 7349989902, "lat": 40.1386971, "lon": 45.3605247}, {"type": "node", "id": 7349989903, "lat": 40.1382401, "lon": 45.3620658}, {"type": "node", "id": 7349989904, "lat": 40.1381401, "lon": 45.3631773}, {"type": "node", "id": 7349989905, "lat": 40.1381687, "lon": 45.3641206}, {"type": "node", "id": 7349989906, "lat": 40.1311083, "lon": 45.363508}, {"type": "node", "id": 7349989907, "lat": 40.1295195, "lon": 45.3644687}, {"type": "node", "id": 7349989908, "lat": 40.129432, "lon": 45.3645364}, {"type": "node", "id": 7349989909, "lat": 40.1288455, "lon": 45.3644587}, {"type": "node", "id": 7349989910, "lat": 40.1286322, "lon": 45.3641476}, {"type": "node", "id": 7349989911, "lat": 40.1279677, "lon": 45.3638043}, {"type": "node", "id": 7349989912, "lat": 40.1272951, "lon": 45.3639437}, {"type": "node", "id": 7349989913, "lat": 40.1264255, "lon": 45.3636648}, {"type": "node", "id": 7349989914, "lat": 40.1254028, "lon": 45.3636004}, {"type": "node", "id": 7349989915, "lat": 40.1224658, "lon": 45.3639781}, {"type": "node", "id": 7349989916, "lat": 40.1213665, "lon": 45.3640218}, {"type": "node", "id": 7349989917, "lat": 40.1189462, "lon": 45.3643227}, {"type": "node", "id": 7349989918, "lat": 40.1170838, "lon": 45.3624203}, {"type": "node", "id": 7349989919, "lat": 40.1179617, "lon": 45.3627546}, {"type": "node", "id": 7349989920, "lat": 40.1161238, "lon": 45.3621384}, {"type": "node", "id": 7349989921, "lat": 40.1150162, "lon": 45.3611604}, {"type": "node", "id": 7349989922, "lat": 40.1156931, "lon": 45.3619605}, {"type": "node", "id": 7349989923, "lat": 40.11445, "lon": 45.3599378}, {"type": "node", "id": 7349989924, "lat": 40.1140644, "lon": 45.3591283}, {"type": "node", "id": 7349989925, "lat": 40.1130962, "lon": 45.3577692}, {"type": "node", "id": 7349989926, "lat": 40.1126367, "lon": 45.3574732}, {"type": "node", "id": 7349989927, "lat": 40.1123331, "lon": 45.3572998}, {"type": "node", "id": 7349989928, "lat": 40.1165177, "lon": 45.3526204}, {"type": "node", "id": 7349989929, "lat": 40.112251, "lon": 45.3553463}, {"type": "node", "id": 7349989930, "lat": 40.1117177, "lon": 45.3576051}, {"type": "node", "id": 7349989931, "lat": 40.1117464, "lon": 45.3566099}, {"type": "node", "id": 7349989932, "lat": 40.1114695, "lon": 45.3571933}, {"type": "node", "id": 7349989933, "lat": 40.1127433, "lon": 45.3549221}, {"type": "node", "id": 7349989934, "lat": 40.1145895, "lon": 45.3534387}, {"type": "node", "id": 7349989935, "lat": 40.1160541, "lon": 45.3527184}, {"type": "node", "id": 7349989936, "lat": 40.1198241, "lon": 45.3525365}, {"type": "node", "id": 7349989937, "lat": 40.1212434, "lon": 45.3501951}, {"type": "node", "id": 7349989938, "lat": 40.1223017, "lon": 45.3484204}, {"type": "node", "id": 7349989939, "lat": 40.122474, "lon": 45.3461518}, {"type": "node", "id": 7349989940, "lat": 40.1225314, "lon": 45.3433649}, {"type": "node", "id": 7349989941, "lat": 40.1241148, "lon": 45.3433395}, {"type": "node", "id": 7349989942, "lat": 40.1257637, "lon": 45.3435322}, {"type": "node", "id": 7349989943, "lat": 40.1294307, "lon": 45.3469989}, {"type": "node", "id": 7349989944, "lat": 40.1287867, "lon": 45.3466496}, {"type": "node", "id": 7349989945, "lat": 40.130873, "lon": 45.3502642}, {"type": "node", "id": 7349989946, "lat": 40.1360564, "lon": 45.3555125}, {"type": "node", "id": 7349989947, "lat": 40.133801, "lon": 45.3538754}, {"type": "node", "id": 7349989948, "lat": 40.139296, "lon": 45.3562376}, {"type": "node", "id": 7349989949, "lat": 40.1333507, "lon": 45.3632993}, {"type": "node", "id": 7349989950, "lat": 40.1383879, "lon": 45.3671624}, {"type": "node", "id": 7349989951, "lat": 40.1386422, "lon": 45.3690829}, {"type": "node", "id": 7349989952, "lat": 40.1391097, "lon": 45.3731828}, {"type": "node", "id": 7349989953, "lat": 40.1410782, "lon": 45.3731077}, {"type": "node", "id": 7349989954, "lat": 40.141316, "lon": 45.3770667}, {"type": "node", "id": 7349989955, "lat": 40.141234, "lon": 45.3836878}, {"type": "node", "id": 7349989956, "lat": 40.1411274, "lon": 45.3858534}, {"type": "node", "id": 7349989957, "lat": 40.1401432, "lon": 45.3861002}, {"type": "node", "id": 7349989958, "lat": 40.1389867, "lon": 45.3872803}, {"type": "node", "id": 7349989959, "lat": 40.1378384, "lon": 45.3892544}, {"type": "node", "id": 7349989960, "lat": 40.1368541, "lon": 45.3917989}, {"type": "node", "id": 7349989961, "lat": 40.1359765, "lon": 45.3935155}, {"type": "node", "id": 7349989962, "lat": 40.1351398, "lon": 45.3943953}, {"type": "node", "id": 7349989963, "lat": 40.1342272, "lon": 45.3935906}, {"type": "node", "id": 7349989964, "lat": 40.1318402, "lon": 45.3927645}, {"type": "node", "id": 7349989965, "lat": 40.1279294, "lon": 45.3931615}, {"type": "node", "id": 7349989966, "lat": 40.126904, "lon": 45.3926787}, {"type": "node", "id": 7349989967, "lat": 40.126338, "lon": 45.3918847}, {"type": "node", "id": 7349989968, "lat": 40.1238272, "lon": 45.3916916}, {"type": "node", "id": 7349989969, "lat": 40.1232201, "lon": 45.3912946}, {"type": "node", "id": 7349989970, "lat": 40.1205473, "lon": 45.3908655}, {"type": "node", "id": 7349989971, "lat": 40.1199237, "lon": 45.3893742}, {"type": "node", "id": 7349989972, "lat": 40.1198827, "lon": 45.38843}, {"type": "node", "id": 7349989973, "lat": 40.1198663, "lon": 45.3870246}, {"type": "node", "id": 7349989974, "lat": 40.1192838, "lon": 45.3846021}, {"type": "node", "id": 7349989975, "lat": 40.1183649, "lon": 45.3843124}, {"type": "node", "id": 7349989976, "lat": 40.115837, "lon": 45.384173}, {"type": "node", "id": 7349989977, "lat": 40.115033, "lon": 45.3823705}, {"type": "node", "id": 7349989978, "lat": 40.1152545, "lon": 45.3811903}, {"type": "node", "id": 7349989979, "lat": 40.1164442, "lon": 45.3784895}, {"type": "node", "id": 7349989980, "lat": 40.1170021, "lon": 45.3768587}, {"type": "node", "id": 7349989981, "lat": 40.1180031, "lon": 45.375936}, {"type": "node", "id": 7349989982, "lat": 40.1194142, "lon": 45.3748095}, {"type": "node", "id": 7349989983, "lat": 40.1193732, "lon": 45.3738868}, {"type": "node", "id": 7349989984, "lat": 40.1174369, "lon": 45.37202}, {"type": "node", "id": 7349996385, "lat": 40.1170924, "lon": 45.3718805}, {"type": "node", "id": 7349996386, "lat": 40.1164688, "lon": 45.3713012}, {"type": "node", "id": 7349996387, "lat": 40.1164524, "lon": 45.3708613}, {"type": "node", "id": 7349996388, "lat": 40.1166657, "lon": 45.3703248}, {"type": "node", "id": 7349996389, "lat": 40.1170595, "lon": 45.3700459}, {"type": "node", "id": 7349996390, "lat": 40.1194565, "lon": 45.3700781}, {"type": "node", "id": 7349996391, "lat": 40.1190319, "lon": 45.3688684}, {"type": "node", "id": 7349996392, "lat": 40.1187591, "lon": 45.3673422}, {"type": "node", "id": 7349996393, "lat": 40.1185376, "lon": 45.3666878}, {"type": "node", "id": 7349996394, "lat": 40.1176679, "lon": 45.3665376}, {"type": "node", "id": 7349996395, "lat": 40.1172905, "lon": 45.3657436}, {"type": "node", "id": 7349996396, "lat": 40.1170198, "lon": 45.3646815}, {"type": "node", "id": 7349996397, "lat": 40.1173726, "lon": 45.3644025}, {"type": "node", "id": 7349996398, "lat": 40.1180946, "lon": 45.3641558}, {"type": "node", "id": 7350004635, "lat": 40.3627367, "lon": 45.1731793}, {"type": "node", "id": 7350004636, "lat": 40.3637177, "lon": 45.170819}, {"type": "node", "id": 7350004637, "lat": 40.3610036, "lon": 45.1680938}, {"type": "node", "id": 7350004638, "lat": 40.3585347, "lon": 45.1662699}, {"type": "node", "id": 7350004639, "lat": 40.3549316, "lon": 45.1638023}, {"type": "node", "id": 7350004640, "lat": 40.3538687, "lon": 45.1623003}, {"type": "node", "id": 7350004641, "lat": 40.3545555, "lon": 45.1589958}, {"type": "node", "id": 7350004642, "lat": 40.3552259, "lon": 45.1565496}, {"type": "node", "id": 7350004643, "lat": 40.3554712, "lon": 45.1542121}, {"type": "node", "id": 7350004644, "lat": 40.3486567, "lon": 45.1551839}, {"type": "node", "id": 7350004645, "lat": 40.3472504, "lon": 45.1559134}, {"type": "node", "id": 7350004646, "lat": 40.3462364, "lon": 45.1577588}, {"type": "node", "id": 7350004647, "lat": 40.3464, "lon": 45.1608058}, {"type": "node", "id": 7350004648, "lat": 40.3463672, "lon": 45.1642605}, {"type": "node", "id": 7350004649, "lat": 40.3463836, "lon": 45.1709128}, {"type": "node", "id": 7350004650, "lat": 40.3472994, "lon": 45.1748824}, {"type": "node", "id": 7350004651, "lat": 40.3493763, "lon": 45.1794958}, {"type": "node", "id": 7350004652, "lat": 40.351329, "lon": 45.1821236}, {"type": "node", "id": 7350004653, "lat": 40.3528825, "lon": 45.1840762}, {"type": "node", "id": 7350004654, "lat": 40.3566434, "lon": 45.1830677}, {"type": "node", "id": 7350004655, "lat": 40.3584556, "lon": 45.1816086}, {"type": "node", "id": 7350004656, "lat": 40.3596642, "lon": 45.1772438}, {"type": "node", "id": 7350004657, "lat": 40.354889, "lon": 45.172937}, {"type": "node", "id": 7350004658, "lat": 40.3573658, "lon": 45.1711377}, {"type": "node", "id": 7350004659, "lat": 40.355854, "lon": 45.1746183}, {"type": "node", "id": 7350004660, "lat": 40.3586451, "lon": 45.1691115}, {"type": "node", "id": 7353442836, "lat": 40.1768176, "lon": 45.5682845}, {"type": "node", "id": 7353442837, "lat": 40.1772175, "lon": 45.5711442}, {"type": "node", "id": 7353442838, "lat": 40.1769432, "lon": 45.5696724}, {"type": "node", "id": 7353442839, "lat": 40.176771, "lon": 45.5649716}, {"type": "node", "id": 7829557887, "lat": 40.1837302, "lon": 45.1912857}, {"type": "node", "id": 7829557888, "lat": 40.1854657, "lon": 45.1896948}, {"type": "node", "id": 7829557889, "lat": 40.1839855, "lon": 45.18987}, {"type": "node", "id": 7829557981, "lat": 40.1789349, "lon": 45.2009708}, {"type": "node", "id": 7843008605, "lat": 40.4351478, "lon": 45.0937334}, {"type": "node", "id": 7843008606, "lat": 40.437933, "lon": 45.0960606}, {"type": "node", "id": 7843008607, "lat": 40.4356063, "lon": 45.1059127}, {"type": "node", "id": 7843008608, "lat": 40.4315425, "lon": 45.1023545}, {"type": "node", "id": 7843008609, "lat": 40.4281875, "lon": 45.1013152}, {"type": "node", "id": 7843008610, "lat": 40.4234292, "lon": 45.1056646}, {"type": "node", "id": 7843008611, "lat": 40.451694, "lon": 45.1051591}, {"type": "node", "id": 7843008612, "lat": 40.4518339, "lon": 45.1064398}, {"type": "node", "id": 7843008613, "lat": 40.4514205, "lon": 45.1065104}, {"type": "node", "id": 7843008614, "lat": 40.4487893, "lon": 45.1072101}, {"type": "node", "id": 7843008615, "lat": 40.4482155, "lon": 45.1076889}, {"type": "node", "id": 7843008655, "lat": 40.4471814, "lon": 45.1095228}, {"type": "node", "id": 7865520816, "lat": 40.1531344, "lon": 45.2924216}, {"type": "node", "id": 7865520819, "lat": 40.1528835, "lon": 45.2941056}, {"type": "node", "id": 7865607355, "lat": 40.36208, "lon": 45.1861793}, {"type": "node", "id": 7907610289, "lat": 40.1398073, "lon": 45.2885511}, {"type": "node", "id": 8110397789, "lat": 40.0839836, "lon": 45.2619417}, {"type": "node", "id": 8110397790, "lat": 40.0861709, "lon": 45.2615109}, {"type": "node", "id": 8110397791, "lat": 40.0872346, "lon": 45.2605514}, {"type": "node", "id": 8110397792, "lat": 40.0878638, "lon": 45.258182}, {"type": "node", "id": 8110397793, "lat": 40.0859762, "lon": 45.2565959}, {"type": "node", "id": 8110397794, "lat": 40.0848825, "lon": 45.2560281}, {"type": "node", "id": 8110397795, "lat": 40.081991, "lon": 45.2553036}, {"type": "node", "id": 8110397796, "lat": 40.0805869, "lon": 45.2539524}, {"type": "node", "id": 8110397797, "lat": 40.0780099, "lon": 45.2501145}, {"type": "node", "id": 8110397798, "lat": 40.0763617, "lon": 45.2490375}, {"type": "node", "id": 8110397799, "lat": 40.0748034, "lon": 45.2494095}, {"type": "node", "id": 8110397800, "lat": 40.0731756, "lon": 45.249155}, {"type": "node", "id": 8110397801, "lat": 40.0721417, "lon": 45.249292}, {"type": "node", "id": 8110397802, "lat": 40.070898, "lon": 45.2499774}, {"type": "node", "id": 8110397803, "lat": 40.0696392, "lon": 45.252288}, {"type": "node", "id": 8110397804, "lat": 40.0691747, "lon": 45.2536783}, {"type": "node", "id": 8110397805, "lat": 40.0689649, "lon": 45.2569288}, {"type": "node", "id": 8110397806, "lat": 40.0701787, "lon": 45.256498}, {"type": "node", "id": 8110397807, "lat": 40.070838, "lon": 45.2570659}, {"type": "node", "id": 8110397808, "lat": 40.0723215, "lon": 45.2569876}, {"type": "node", "id": 8110397809, "lat": 40.07373, "lon": 45.2561847}, {"type": "node", "id": 8110397810, "lat": 40.0744942, "lon": 45.2562631}, {"type": "node", "id": 8110397811, "lat": 40.0750936, "lon": 45.2569092}, {"type": "node", "id": 8110397812, "lat": 40.0751535, "lon": 45.2586716}, {"type": "node", "id": 8110397813, "lat": 40.0762469, "lon": 45.2603948}, {"type": "node", "id": 8110397814, "lat": 40.0763218, "lon": 45.2613151}, {"type": "node", "id": 8110397815, "lat": 40.0784045, "lon": 45.2633124}, {"type": "node", "id": 8110397816, "lat": 40.0795432, "lon": 45.2629404}, {"type": "node", "id": 8110415017, "lat": 40.0804257, "lon": 45.2636257}, {"type": "node", "id": 8110415018, "lat": 40.0811899, "lon": 45.2631753}, {"type": "node", "id": 8110415019, "lat": 40.0820289, "lon": 45.2633124}, {"type": "node", "id": 8110415020, "lat": 40.0828529, "lon": 45.2629404}, {"type": "node", "id": 8110415021, "lat": 40.0833323, "lon": 45.2623529}, {"type": "node", "id": 8110415022, "lat": 40.0762794, "lon": 45.2651649}, {"type": "node", "id": 8110415023, "lat": 40.0763993, "lon": 45.2624235}, {"type": "node", "id": 8110415024, "lat": 40.07574, "lon": 45.261699}, {"type": "node", "id": 8110415025, "lat": 40.075725, "lon": 45.2607395}, {"type": "node", "id": 8110415026, "lat": 40.0746762, "lon": 45.2589184}, {"type": "node", "id": 8110415027, "lat": 40.0743615, "lon": 45.2568819}, {"type": "node", "id": 8110415028, "lat": 40.0740019, "lon": 45.2567057}, {"type": "node", "id": 8110415029, "lat": 40.0730129, "lon": 45.2573127}, {"type": "node", "id": 8110415030, "lat": 40.0706603, "lon": 45.2574106}, {"type": "node", "id": 8110415031, "lat": 40.0701509, "lon": 45.2570778}, {"type": "node", "id": 8110415032, "lat": 40.0678197, "lon": 45.2575477}, {"type": "node", "id": 8110415033, "lat": 40.065347, "lon": 45.2597408}, {"type": "node", "id": 8110415034, "lat": 40.0653021, "lon": 45.2604066}, {"type": "node", "id": 8110415035, "lat": 40.0657367, "lon": 45.2619731}, {"type": "node", "id": 8110415036, "lat": 40.0665009, "lon": 45.2630501}, {"type": "node", "id": 8110415037, "lat": 40.06743, "lon": 45.2636571}, {"type": "node", "id": 8110415038, "lat": 40.0687488, "lon": 45.2636767}, {"type": "node", "id": 8110415039, "lat": 40.0703522, "lon": 45.2646166}, {"type": "node", "id": 8110415040, "lat": 40.0750675, "lon": 45.2660269}, {"type": "node", "id": 8150678994, "lat": 40.1516002, "lon": 45.4147886}, {"type": "node", "id": 8150678995, "lat": 40.1532939, "lon": 45.425328}, {"type": "node", "id": 8150678996, "lat": 40.1533153, "lon": 45.4308304}, {"type": "node", "id": 8150678997, "lat": 40.1546896, "lon": 45.4377526}, {"type": "node", "id": 8264713638, "lat": 40.1257255, "lon": 45.1830029}, {"type": "node", "id": 8264713639, "lat": 40.1257771, "lon": 45.1808923}, {"type": "node", "id": 8264713640, "lat": 40.1256214, "lon": 45.1815174}, {"type": "node", "id": 8306195685, "lat": 40.3400618, "lon": 45.1466723}, {"type": "node", "id": 8306195686, "lat": 40.345293, "lon": 45.1485711}, {"type": "node", "id": 8306195687, "lat": 40.3421664, "lon": 45.1481796}, {"type": "node", "id": 8306195688, "lat": 40.3450912, "lon": 45.1526294}, {"type": "node", "id": 8306195689, "lat": 40.3428724, "lon": 45.1526522}, {"type": "node", "id": 8306195690, "lat": 40.3362779, "lon": 45.1516238}, {"type": "node", "id": 8306195691, "lat": 40.3343287, "lon": 45.1529623}, {"type": "node", "id": 8324632006, "lat": 40.1194037, "lon": 45.2507321}, {"type": "node", "id": 8324632007, "lat": 40.1206154, "lon": 45.2489438}, {"type": "node", "id": 8324632008, "lat": 40.1222014, "lon": 45.2496272}, {"type": "node", "id": 8378206922, "lat": 40.0890239, "lon": 45.281471}, {"type": "node", "id": 8378206924, "lat": 40.0909035, "lon": 45.2816802}, {"type": "node", "id": 8408032040, "lat": 40.145039, "lon": 45.288052}, {"type": "node", "id": 8408032041, "lat": 40.1404299, "lon": 45.3191517}, {"type": "node", "id": 8408032042, "lat": 40.1431099, "lon": 45.3193613}, {"type": "node", "id": 8496402116, "lat": 40.4376879, "lon": 45.1065879}, {"type": "node", "id": 8690008336, "lat": 40.3619929, "lon": 45.1482748}, {"type": "node", "id": 8690008337, "lat": 40.3636211, "lon": 45.1506045}, {"type": "node", "id": 8690008338, "lat": 40.3628354, "lon": 45.1493462}, {"type": "node", "id": 8926709772, "lat": 40.1524521, "lon": 45.287173}, {"type": "node", "id": 8926709773, "lat": 40.152962, "lon": 45.2890287}, {"type": "node", "id": 8926709774, "lat": 40.15317, "lon": 45.2907678}, {"type": "node", "id": 8926709775, "lat": 40.1531363, "lon": 45.289877}, {"type": "node", "id": 8926709776, "lat": 40.1530092, "lon": 45.2935465}, {"type": "node", "id": 8948418528, "lat": 40.1457987, "lon": 45.3228099}, {"type": "node", "id": 8948418529, "lat": 40.1454914, "lon": 45.3284754}, {"type": "node", "id": 8948418530, "lat": 40.1455145, "lon": 45.3249434}, {"type": "node", "id": 8948418531, "lat": 40.1457696, "lon": 45.3324908}, {"type": "node", "id": 8948418534, "lat": 40.1426971, "lon": 45.3195361}, {"type": "node", "id": 8948418535, "lat": 40.1423634, "lon": 45.3202335}, {"type": "node", "id": 8948418536, "lat": 40.1419093, "lon": 45.3200893}, {"type": "node", "id": 8948418537, "lat": 40.1393201, "lon": 45.3200502}, {"type": "node", "id": 8948418538, "lat": 40.1371293, "lon": 45.3192913}, {"type": "node", "id": 8948418539, "lat": 40.1358878, "lon": 45.3192675}, {"type": "node", "id": 8948418540, "lat": 40.1348741, "lon": 45.3191144}, {"type": "node", "id": 8948418541, "lat": 40.1331644, "lon": 45.3191993}, {"type": "node", "id": 8948418542, "lat": 40.1289711, "lon": 45.3208733}, {"type": "node", "id": 9004605301, "lat": 40.0865475, "lon": 45.2820257}, {"type": "node", "id": 9004605302, "lat": 40.0850908, "lon": 45.2817912}, {"type": "node", "id": 9066561774, "lat": 40.3625919, "lon": 45.1843055}, {"type": "node", "id": 9066561775, "lat": 40.1520307, "lon": 45.2864709}, {"type": "node", "id": 9220983363, "lat": 40.1376099, "lon": 45.256142}, {"type": "node", "id": 9220983364, "lat": 40.1347186, "lon": 45.2555666}, {"type": "node", "id": 9220983365, "lat": 40.1325582, "lon": 45.2545043}, {"type": "node", "id": 9220983366, "lat": 40.1376192, "lon": 45.2598833}, {"type": "node", "id": 9220983367, "lat": 40.1514908, "lon": 45.2848588}, {"type": "node", "id": 9220983368, "lat": 40.1522426, "lon": 45.287146}, {"type": "node", "id": 9220983369, "lat": 40.1529056, "lon": 45.2755638}, {"type": "node", "id": 9220983370, "lat": 40.1557835, "lon": 45.2680111}, {"type": "node", "id": 9220983371, "lat": 40.155502, "lon": 45.2698593}, {"type": "node", "id": 9220983372, "lat": 40.1557235, "lon": 45.2688498}, {"type": "node", "id": 9220983373, "lat": 40.1556003, "lon": 45.2695294}, {"type": "node", "id": 9220983374, "lat": 40.1558942, "lon": 45.2665679}, {"type": "node", "id": 9220983375, "lat": 40.1566509, "lon": 45.2606577}, {"type": "node", "id": 9220983376, "lat": 40.1544355, "lon": 45.2560184}, {"type": "node", "id": 9220983377, "lat": 40.1405476, "lon": 45.2528933}, {"type": "node", "id": 9220983378, "lat": 40.1397954, "lon": 45.2549367}, {"type": "node", "id": 9220983379, "lat": 40.1473641, "lon": 45.2494762}, {"type": "node", "id": 9220983380, "lat": 40.1509106, "lon": 45.2522801}, {"type": "node", "id": 9220992340, "lat": 40.1404461, "lon": 45.2454652}, {"type": "node", "id": 9220992341, "lat": 40.1426991, "lon": 45.2488116}, {"type": "node", "id": 9220992359, "lat": 40.1380007, "lon": 45.240766}, {"type": "node", "id": 9220992360, "lat": 40.141524, "lon": 45.2499961}, {"type": "node", "id": 9220992424, "lat": 40.1455539, "lon": 45.2492046}, {"type": "node", "id": 9220992425, "lat": 40.1468164, "lon": 45.2493729}, {"type": "node", "id": 9220992426, "lat": 40.1459738, "lon": 45.2489879}, {"type": "node", "id": 9220992427, "lat": 40.1464976, "lon": 45.2489284}, {"type": "node", "id": 9220992428, "lat": 40.1466881, "lon": 45.2491059}, {"type": "node", "id": 9570934522, "lat": 40.1403866, "lon": 45.3191143}, {"type": "node", "id": 9570934529, "lat": 40.1426275, "lon": 45.3196815}, {"type": "node", "id": 9570934531, "lat": 40.1434123, "lon": 45.3196798}, {"type": "node", "id": 9570934535, "lat": 40.1455423, "lon": 45.3207179}, {"type": "node", "id": 9901258385, "lat": 40.4735019, "lon": 45.0613249}, {"type": "node", "id": 9901259236, "lat": 40.456877, "lon": 45.0605749}, {"type": "node", "id": 10688624732, "lat": 40.1446269, "lon": 45.1944015}, {"type": "node", "id": 11089426983, "lat": 40.1286436, "lon": 45.4457334}, {"type": "node", "id": 11368547869, "lat": 40.1813879, "lon": 45.2304975}, {"type": "node", "id": 11368547870, "lat": 40.1825011, "lon": 45.2302605}, {"type": "node", "id": 11368547871, "lat": 40.1821473, "lon": 45.2315492}, {"type": "node", "id": 11368547872, "lat": 40.182435, "lon": 45.231238}, {"type": "node", "id": 11854228141, "lat": 40.3367001, "lon": 45.1105559, "tags": {"name": "\u0540\u0561\u0581\u0561\u057c\u0561\u057f", "name:en": "Hatsarat", "name:hy": "\u0540\u0561\u0581\u0561\u057c\u0561\u057f", "name:ru": "\u0410\u0446\u0430\u0440\u0430\u0442", "place": "village"}}, {"type": "node", "id": 11854228142, "lat": 40.3401421, "lon": 45.0976966}, {"type": "node", "id": 11854228165, "lat": 40.3514272, "lon": 45.1692351, "tags": {"name": "\u0531\u0580\u056e\u057e\u0561\u0584\u0561\u0580", "name:en": "Artsvakar", "name:hy": "\u0531\u0580\u056e\u057e\u0561\u0584\u0561\u0580", "name:ru": "\u0410\u0440\u0446\u0432\u0430\u043a\u0430\u0440", "place": "village"}}, {"type": "node", "id": 11854247574, "lat": 40.3652592, "lon": 45.1708757}, {"type": "node", "id": 11854247575, "lat": 40.3657909, "lon": 45.1688074}, {"type": "node", "id": 11854247576, "lat": 40.3671314, "lon": 45.1666894}, {"type": "node", "id": 11854247577, "lat": 40.3691216, "lon": 45.1665559}, {"type": "node", "id": 11854247578, "lat": 40.3747014, "lon": 45.159281}, {"type": "node", "id": 11854247579, "lat": 40.3752068, "lon": 45.1578532}, {"type": "node", "id": 11854247580, "lat": 40.3765127, "lon": 45.1567628}, {"type": "node", "id": 11854247581, "lat": 40.3768917, "lon": 45.1574788}, {"type": "node", "id": 11854247582, "lat": 40.3776227, "lon": 45.161355}, {"type": "node", "id": 11854247583, "lat": 40.3796748, "lon": 45.1593404}, {"type": "node", "id": 11854247584, "lat": 40.379404, "lon": 45.1574596}, {"type": "node", "id": 11854247585, "lat": 40.3782959, "lon": 45.1566407}, {"type": "node", "id": 12727075662, "lat": 40.1249908, "lon": 45.2880249}, {"type": "node", "id": 12779853023, "lat": 40.1317285, "lon": 45.1795475}, {"type": "node", "id": 12779853152, "lat": 40.1284384, "lon": 45.1847159}, {"type": "node", "id": 12779853154, "lat": 40.1289234, "lon": 45.1868605}, {"type": "node", "id": 12779853155, "lat": 40.1296962, "lon": 45.1886182}, {"type": "node", "id": 12779853156, "lat": 40.1305791, "lon": 45.1891047}, {"type": "node", "id": 12779853157, "lat": 40.1309886, "lon": 45.1886603}, {"type": "node", "id": 12779853158, "lat": 40.1308547, "lon": 45.1886067}, {"type": "node", "id": 12779853207, "lat": 40.1315019, "lon": 45.189432}, {"type": "node", "id": 12779853209, "lat": 40.1328063, "lon": 45.1897354}, {"type": "node", "id": 12779853210, "lat": 40.1323724, "lon": 45.1892529}, {"type": "node", "id": 12779853211, "lat": 40.1341054, "lon": 45.1908652}, {"type": "node", "id": 12779853212, "lat": 40.1332849, "lon": 45.1897014}, {"type": "node", "id": 12804350968, "lat": 40.2786857, "lon": 45.140673}, {"type": "node", "id": 12804350969, "lat": 40.2787727, "lon": 45.141292}, {"type": "node", "id": 12804350970, "lat": 40.2787901, "lon": 45.1418899}, {"type": "way", "id": 177106778, "nodes": [1875756281, 1875756290, 6042128320, 6042128322, 6042128321, 1875756354, 6042128323, 6042128324, 1875756355, 6042128325, 1875756284, 1875756282, 1875756283, 8690008336, 8690008338, 8690008337, 1875756280, 1875756278, 1875756277, 7350004643, 1875756275, 1875756274, 1875756272, 1875756271, 1875756268, 1875756269, 1875756270, 5739576986, 5739576987, 1875756273, 1875756276, 1875756279, 1875756281], "tags": {"admin_level": "6", "boundary": "administrative", "name": "\u0533\u0561\u057e\u0561\u057c", "name:en": "Gavar boundary", "name:ru": "\u0413\u0430\u0432\u0430\u0440"}}, {"type": "way", "id": 177856555, "nodes": [1882609089, 5758624813, 9570934531, 8408032042, 8948418534, 9570934529, 8948418535, 8948418536, 8408032041, 9570934522, 2144085616, 8948418537, 8948418538, 8948418539, 8948418540, 8948418541, 1882609088, 8948418542, 5758626636, 5758626637, 5758626635, 5758626634, 1882609087, 1882609086, 12727075662, 1882609085, 5655879060, 5655879061, 5655879055, 5655879062, 3648427038, 7907610289, 5655879056, 8408032040, 5655879057, 5655879058, 5655879059, 5655879008, 9220983368, 8926709772, 8926709773, 8926709775, 8926709774, 7865520816, 8926709776, 7865520819, 3648427207, 3648427326, 4886229732, 4886229733, 4886229734, 4886229735, 4886229736, 4886229767, 4886229766, 9570934535, 4886229765, 1882609089], "tags": {"landuse": "residential", "name": "\u0544\u0561\u0580\u057f\u0578\u0582\u0576\u056b", "name:az": "A\u015fa\u011f\u0131 Qaranl\u0131q", "name:en": "Martuni", "name:hy": "\u0544\u0561\u0580\u057f\u0578\u0582\u0576\u056b", "name:ru": "\u041c\u0430\u0440\u0442\u0443\u043d\u0438", "place": "town", "wikidata": "Q39603", "wikipedia": "en:Martuni, Armenia"}}, {"type": "way", "id": 184489918, "nodes": [1949860750, 2932725610, 1949860744, 1949860737, 1949860738, 11854247582, 11854247583, 11854247584, 11854247585, 11854247581, 11854247580, 11854247579, 11854247578, 6139470976, 1949860698, 5734708939, 1949860681, 1949860658, 11854247577, 11854247576, 1949860643, 11854247575, 11854247574, 1949860654, 1949860652, 1949860641, 1949860638, 9066561774, 7865607355, 1949860637, 1949860640, 1949860642, 1949860656, 1949860661, 1949860670, 1949860711, 1949860725, 2876597867, 3708358734, 1949860740, 1949860741, 1949860743, 1949860752, 1949860755, 1949860759, 1949860760, 1949860753, 1949860756, 1949860750], "tags": {"alt_name:az": "N\u0259r\u0259d\u00fcz", "landuse": "residential", "name": "\u0546\u0578\u0580\u0561\u057f\u0578\u0582\u057d", "name:az": "Norad\u00fcz", "name:en": "Noraduz", "name:fr": "Noradouz", "name:hy": "\u0546\u0578\u0580\u0561\u057f\u0578\u0582\u057d", "name:ru": "\u041d\u043e\u0440\u0430\u0442\u0443\u0441", "place": "village", "population": "5893", "wikidata": "Q1528182", "wikipedia": "hy:\u0546\u0578\u0580\u0561\u057f\u0578\u0582\u057d", "wikipedia:en": "Noraduz"}}, {"type": "way", "id": 293586404, "nodes": [2972000698, 2972000687, 2972000695, 2972000690, 2972000700, 2972000701, 2972000699, 2972000694, 2972000691, 2972000693, 2972000689, 2972000686, 2972000683, 2972000680, 2972000679, 2972000682, 2972000685, 2972000688, 2972000697, 2972000703, 2972000706, 2972000705, 2972000708, 2972000709, 2972000714, 2972000727, 2972000717, 2972000711, 2972000716, 2972000712, 2972000713, 2972000710, 2972000707, 2972000704, 2972000702, 2972000698], "tags": {"landuse": "residential", "name": "\u0534\u0561\u0580\u0561\u0576\u0561\u056f", "name:en": "Daranak", "name:hy": "\u0534\u0561\u0580\u0561\u0576\u0561\u056f", "name:ru": "\u0414\u0430\u0440\u0430\u043d\u0430\u043a", "place": "village", "wikidata": "Q2672995", "wikipedia": "en:Daranak"}}, {"type": "way", "id": 293586405, "nodes": [2972000897, 2972000894, 2972000892, 2972000889, 2972000884, 2972000880, 2972000879, 2972000878, 2972000875, 2972000874, 2972000873, 2972000871, 2972000869, 2972000870, 2972000868, 2972000866, 2972000863, 2972000864, 2972000865, 2972000867, 2972000872, 2972000876, 2972000877, 2972000881, 2972000886, 2972000885, 2972000888, 2972000891, 2972000895, 2972000901, 2972000902, 2972000893, 2972000887, 2972000882, 2972000883, 2972000890, 2972000898, 2972000900, 2972000899, 2972000896, 2972000897], "tags": {"landuse": "residential", "name": "\u054b\u056b\u056c", "name:az": "Cil", "name:en": "Jil", "name:hy": "\u054b\u056b\u056c", "name:ru": "\u0414\u0436\u0438\u043b", "place": "village", "wikidata": "Q1024597", "wikipedia": "en:Jil, Armenia"}}, {"type": "way", "id": 293586406, "nodes": [2972000841, 2972000838, 2972000837, 2972000836, 2972000835, 2972000840, 2972000844, 2972000845, 2972000847, 2972000849, 2972000852, 2972000856, 2972000859, 2972000860, 2972000858, 2972000857, 2972000855, 2972000854, 2972000853, 2972000851, 2972000850, 2972000848, 2972000841], "tags": {"landuse": "residential", "name": "\u0553\u0561\u0574\u0562\u0561\u056f", "name:az": "P\u0259mb\u0259k", "name:en": "Pambak", "name:hy": "\u0553\u0561\u0574\u0562\u0561\u056f", "name:ru": "\u041f\u0430\u043c\u0431\u0430\u043a", "place": "village", "wikidata": "Q2536615", "wikipedia": "en:Pambak, Gegharkunik"}}, {"type": "way", "id": 356777467, "nodes": [3621792608, 3621792610, 3621792613, 3621792612, 3621792614, 3621792619, 3621792625, 5758624786, 5758624789, 5758624788, 5758624787, 3621792632, 3621792626, 3621792624, 6382729303, 6382729304, 6382729323, 6382729307, 6382729309, 6382729308, 3621792618, 6382729300, 6382729311, 6382729310, 6382729312, 6382729306, 6382729314, 6382729313, 6382729315, 6382729316, 6382729305, 6382729318, 6382729317, 6382729301, 6382729319, 6382729320, 6382729302, 3621792617, 3621792616, 3621792615, 3621792611, 3621792609, 3621792603, 3621792605, 3621792604, 3621792602, 3621792598, 3621792599, 3621792600, 3621792601, 3621792606, 3621792607, 3621792608], "tags": {"landuse": "residential", "name": "\u0531\u0580\u056e\u057e\u0561\u0576\u056b\u057d\u057f", "name:az": "A\u015fa\u011f\u0131 Al\u00e7al\u0131", "name:en": "Artsvanist", "name:hy": "\u0531\u0580\u056e\u057e\u0561\u0576\u056b\u057d\u057f", "name:ru": "\u0410\u0440\u0446\u0432\u0430\u043d\u0438\u0441\u0442", "place": "village", "wikidata": "Q2636140", "wikipedia": "en:Artsvanist"}}, {"type": "way", "id": 360244815, "nodes": [3648318316, 3648318321, 3648318307, 4732792311, 3648318305, 4732792295, 3648318281, 3648318279, 3648318288, 3648318296, 3648318280, 3648318289, 3648318298, 3648318282, 3648318285, 3648318287, 3648318293, 3648318303, 3648318308, 3648318316], "tags": {"landuse": "residential", "name": "\u053e\u0578\u057e\u056b\u0576\u0561\u0580", "name:az": "Kolagir\u0259n", "name:en": "Tsovinar", "name:hy": "\u053e\u0578\u057e\u056b\u0576\u0561\u0580", "name:ru": "\u0426\u043e\u0432\u0438\u043d\u0430\u0440", "place": "village", "wikidata": "Q2636211", "wikipedia": "en:Tsovinar, Armenia"}}, {"type": "way", "id": 360244816, "nodes": [3648318286, 3648318273, 3648318271, 3648318269, 3648318268, 3648318266, 3648318264, 3648318260, 3648318261, 3648318256, 3648318257, 3648318254, 3648318255, 3648318258, 3648318259, 3648318262, 11089426983, 3648318263, 3648318265, 3648318267, 3648318272, 3648318274, 4732792305, 4732792298, 4732792306, 4732792307, 4732792299, 3648318302, 8150678997, 8150678996, 8150678995, 8150678994, 3648318286], "tags": {"landuse": "residential", "name": "\u054e\u0561\u0580\u0564\u0565\u0576\u056b\u056f", "name:az": "A\u015fa\u011f\u0131 G\u00f6z\u0259ld\u0259r\u0259", "name:en": "Vardenik", "name:hy": "\u054e\u0561\u0580\u0564\u0565\u0576\u056b\u056f", "name:ru": "\u0412\u0430\u0440\u0434\u0435\u043d\u0438\u043a", "place": "village", "wikidata": "Q2636186", "wikipedia": "en:Vardenik"}}, {"type": "way", "id": 360261073, "nodes": [1882609086, 3648425917, 3648425913, 3648425911, 3648425909, 3648437532, 5201497405, 5201497410, 5201497383, 5201497384, 5201497385, 5201497409, 5201497387, 5201497386, 9004605302, 9004605301, 5201497388, 8378206922, 8378206924, 5201497389, 5201497408, 5201497411, 3648425910, 3648425915, 1882609085, 12727075662, 1882609086], "tags": {"landuse": "residential", "name": "\u0533\u0565\u0572\u0570\u0578\u057e\u056b\u057f", "name:az": "Qaranl\u0131q", "name:en": "Geghhovit", "name:hy": "\u0533\u0565\u0572\u0570\u0578\u057e\u056b\u057f", "name:ru": "\u0413\u0435\u0445\u043e\u0432\u0438\u0442", "place": "village", "wikidata": "Q2636125", "wikipedia": "en:Geghhovit"}}, {"type": "way", "id": 360262190, "nodes": [3648437692, 3648437690, 3648437687, 3648437689, 3648437688, 3648437685, 3648437683, 3648437681, 7345510770, 6363392765, 6007835181, 6479055878, 7345510769, 6363392754, 6363392755, 6363392756, 3648437686, 3648437684, 3648437691, 3648437693, 6007835474, 6007835473, 6007835472, 6007835471, 3648437695, 6007835464, 6007835465, 6007835468, 6007835469, 6007835470, 6007835466, 6007835467, 3648437702, 3648437703, 3648437701, 3648437700, 3648437699, 3648437698, 3648437697, 3648437696, 3648437694, 3648437692], "tags": {"landuse": "residential", "name": "\u0535\u0580\u0561\u0576\u0578\u057d", "name:en": "Yeranos", "name:hy": "\u0535\u0580\u0561\u0576\u0578\u057d", "name:ru": "\u0415\u0440\u0430\u043d\u043e\u0441", "place": "village", "wikidata": "Q2636149", "wikipedia": "en:Yeranos"}}, {"type": "way", "id": 360262191, "nodes": [3648437536, 12779853023, 3648437560, 3648437584, 3648437610, 3648437617, 3648437618, 10688624732, 3648437620, 3648437621, 3648437623, 3648437624, 3648437622, 3648437616, 3648437611, 3648437599, 3648437563, 12779853211, 12779853212, 12779853209, 12779853210, 3964764209, 12779853207, 3648437550, 12779853157, 12779853158, 12779853156, 3648437547, 12779853155, 12779853154, 3648437542, 12779853152, 3648437539, 3964764188, 3648437534, 8264713638, 3648437533, 8264713640, 8264713639, 3648437535, 3648437536], "tags": {"landuse": "residential", "name": "\u053e\u0578\u057e\u0561\u057d\u0561\u0580", "name:en": "Tsovasar", "name:hy": "\u053e\u0578\u057e\u0561\u057d\u0561\u0580", "name:ru": "\u0426\u043e\u0432\u0430\u0441\u0430\u0440", "place": "village", "wikidata": "Q2636114", "wikipedia": "en:Tsovasar"}}, {"type": "way", "id": 360262192, "nodes": [3648437662, 3648437663, 7829557888, 3648437661, 7829557889, 7829557887, 3648437658, 3648437657, 6007384503, 3648437654, 7829557981, 5940479929, 3648437659, 3648437660, 6010136516, 3648437664, 6010136515, 6239612046, 6239612045, 6239612044, 6010136517, 6010136518, 3648437670, 3648437671, 3648437674, 3648437682, 6007835182, 3648437684, 3648437686, 6363392756, 6363392755, 6363392754, 7345510769, 6479055878, 6007835181, 6363392765, 7345510770, 3648437681, 6007835180, 3648437677, 6239612047, 3648437675, 3648437678, 3648437679, 3648437680, 3648437676, 3648437672, 3648437669, 3648437666, 3648437667, 3648437668, 3648437665, 3648437662], "tags": {"landuse": "residential", "name": "\u054e\u0561\u0580\u0564\u0561\u0571\u0578\u0580", "name:en": "Vardadzor", "name:hy": "\u054e\u0561\u0580\u0564\u0561\u0571\u0578\u0580", "name:ru": "\u0412\u0430\u0440\u0434\u0430\u0434\u0437\u043e\u0440", "place": "village", "wikidata": "Q2636168", "wikipedia": "en:Vardadzor"}}, {"type": "way", "id": 360267336, "nodes": [3648479292, 5939082753, 3648479283, 3648479281, 3648479288, 3648479297, 6872603319, 6872603320, 3648479309, 5939054197, 6872603292, 11368547869, 11368547871, 11368547872, 11368547870, 6872603291, 6872603290, 5759858315, 3648487929, 3648487928, 3648479322, 3648479318, 3648479316, 3648479310, 5717384188, 6239617483, 3648479304, 6908863540, 3648479305, 5717454314, 3648479299, 5717454315, 5717454316, 3648479292], "tags": {"landuse": "residential", "name": "\u053e\u0561\u056f\u0584\u0561\u0580", "name:en": "Tsakkar", "name:hy": "\u053e\u0561\u056f\u0584\u0561\u0580", "name:ru": "\u0426\u0430\u043a\u043a\u0430\u0440", "place": "village", "wikidata": "Q963415", "wikipedia": "en:Tsakkar"}}, {"type": "way", "id": 360267338, "nodes": [3648487926, 4886255774, 4886255773, 3648479320, 3648479291, 3648479286, 3648479282, 3648479277, 3648479276, 5806647001, 3648479275, 6871417211, 3648479278, 3648479279, 3648479280, 3648479284, 3648479285, 5656885148, 3648479294, 6872650780, 3648479308, 3648479313, 3648479319, 3648479323, 3648487927, 3648487926], "tags": {"landuse": "residential", "name": "\u053c\u056b\u0573\u0584", "name:az": "G\u00f6lk\u0259nd", "name:en": "Lichk", "name:hy": "\u053c\u056b\u0573\u0584", "name:ru": "\u041b\u0438\u0447\u043a", "place": "village", "wikidata": "Q2636159", "wikipedia": "en:Lichk"}}, {"type": "way", "id": 360267339, "nodes": [3648479247, 3648479245, 3648479243, 3648479241, 3648479240, 8324632008, 8324632007, 8324632006, 3648479238, 3648479237, 3648479239, 5022926042, 3648479242, 3648479244, 3648479246, 9220983365, 3648479248, 9220983364, 3648479249, 9220983363, 3648479251, 3648479257, 9220983378, 9220983377, 3648479266, 9220992360, 9220992341, 3648479264, 9220992340, 3648479253, 3648479252, 9220992359, 3648479250, 3648479247], "tags": {"landuse": "residential", "name": "\u054e\u0565\u0580\u056b\u0576 \u0533\u0565\u057f\u0561\u0577\u0565\u0576", "name:az": "Yuxar\u0131 Adyaman", "name:en": "Verin Getashen", "name:hy": "\u054e\u0565\u0580\u056b\u0576 \u0533\u0565\u057f\u0561\u0577\u0565\u0576", "name:ru": "\u0412\u0435\u0440\u0438\u043d \u0413\u0435\u0442\u0430\u0448\u0435\u043d", "place": "village", "wikidata": "Q1121968", "wikipedia": "en:Verin Getashen"}}, {"type": "way", "id": 360267340, "nodes": [3648479315, 3648479311, 5759858314, 3648479301, 3964764581, 3648479302, 3648479300, 3648479303, 3648479298, 5789710621, 5820017994, 5789710620, 5820017993, 5820017992, 5820017991, 5789710619, 3648479293, 5820017990, 5820017989, 3648479290, 5793659434, 5820018001, 5820018002, 3648479287, 5820017868, 5820017869, 3648479289, 5824808728, 5546280414, 3648479296, 3648479295, 5717454316, 5717454315, 3648479299, 5717454314, 3648479305, 6908863540, 3648479304, 6239617483, 5717384188, 3648479310, 3648479316, 3648479318, 3648479322, 3648479324, 3648479321, 5824788939, 5790092431, 3964764952, 3964764918, 3964764896, 3964764891, 3964764882, 3964764881, 5720510342, 5720510341, 3648479312, 3648479314, 3648479315], "tags": {"landuse": "residential", "name": "\u0541\u0578\u0580\u0561\u0563\u0575\u0578\u0582\u0572", "name:en": "Dzoragyugh", "name:hy": "\u0541\u0578\u0580\u0561\u0563\u0575\u0578\u0582\u0572", "name:ru": "\u0414\u0437\u043e\u0440\u0430\u0433\u044e\u0445", "place": "village", "wikidata": "Q2636104", "wikipedia": "en:Dzoragyugh, Gegharkunik"}}, {"type": "way", "id": 360267626, "nodes": [3648491370, 3648491371, 3648491373, 3648491376, 3648491377, 3648491378, 3648491380, 3648491381, 3648491382, 3648491384, 3648491379, 3648491375, 3648491374, 3648491372, 3648491370], "tags": {"landuse": "residential", "name": "\u0533\u0565\u0572\u0561\u0580\u0584\u0578\u0582\u0576\u056b\u0584", "name:en": "Gegharkunik", "name:hy": "\u0533\u0565\u0572\u0561\u0580\u0584\u0578\u0582\u0576\u056b\u0584", "name:ru": "\u0413\u0435\u0445\u0430\u0440\u043a\u0443\u043d\u0438\u043a", "place": "village", "wikidata": "Q1144970", "wikipedia": "en:Gegharkunik (village)"}}, {"type": "way", "id": 360267630, "nodes": [3648491383, 3648491386, 3648491388, 3648491390, 3648491392, 3648491395, 3648491397, 3648491400, 12804350968, 12804350969, 12804350970, 3648491398, 3648491396, 3648491394, 3648491393, 3648491391, 3648491389, 3648491387, 3648491385, 3648491383], "tags": {"landuse": "residential", "name": "\u053c\u0561\u0576\u057b\u0561\u0572\u0562\u0575\u0578\u0582\u0580", "name:en": "Lanjaghbyur", "name:hy": "\u053c\u0561\u0576\u057b\u0561\u0572\u0562\u0575\u0578\u0582\u0580", "name:ru": "\u041b\u0430\u043d\u0434\u0436\u0430\u0445\u043f\u044e\u0440", "place": "village", "wikidata": "Q1528076", "wikipedia": "en:Lanjaghbyur"}}, {"type": "way", "id": 360267634, "nodes": [3648491401, 3648491399, 3648491403, 3648491404, 3648491405, 3648491407, 3648491408, 3648491409, 3648491410, 3648491412, 3648491414, 3648491415, 3648491418, 3648491419, 3648491421, 3648491420, 2940229535, 3648491417, 3648491416, 3648491413, 3648491411, 3648491406, 3648491402, 3648491401], "tags": {"landuse": "residential", "name": "\u054d\u0561\u0580\u0578\u0582\u056d\u0561\u0576", "name:en": "Sarukhan", "name:hy": "\u054d\u0561\u0580\u0578\u0582\u056d\u0561\u0576", "name:ru": "\u0421\u0430\u0440\u0443\u0445\u0430\u043d", "place": "village", "wikidata": "Q1528514", "wikipedia": "en:Sarukhan"}}, {"type": "way", "id": 361469364, "nodes": [3659389841, 3659389847, 3659389846, 3659389851, 3659389850, 3659389852, 3659389856, 3659389857, 3659389854, 3659389855, 3659389853, 3659389849, 3659389848, 3659389845, 3659389842, 3659389840, 3659389844, 3659389843, 3659389841], "tags": {"landuse": "residential", "name": "\u053e\u0561\u0572\u056f\u0561\u0577\u0565\u0576", "name:en": "Tsaghkashen", "name:hy": "\u053e\u0561\u0572\u056f\u0561\u0577\u0565\u0576", "name:ru": "\u0422\u0441\u0430\u0445\u043a\u0430\u0448\u0435\u043d", "place": "village", "wikidata": "Q1528497", "wikipedia": "en:Tsaghkashen, Gegharkunik"}}, {"type": "way", "id": 365917053, "nodes": [3699137864, 3699137924, 3699138427, 3699138433, 3699138431, 3699138434, 3699138436, 3699138437, 3699138439, 3699138441, 3699138444, 5062688058, 3699138440, 3699138442, 3699138445, 3699138447, 3699138446, 3699138443, 3699138438, 3699138435, 3699138432, 3699138426, 3699138425, 3699137916, 3699137902, 3699137883, 3699137870, 3699137866, 3699137863, 3699137862, 3699137865, 3699137864], "tags": {"landuse": "residential", "name": "\u053e\u0561\u0583\u0561\u0569\u0561\u0572", "name:az": "Babacan", "name:en": "Tsapatagh", "name:hy": "\u053e\u0561\u0583\u0561\u0569\u0561\u0572", "name:ru": "\u0426\u0430\u043f\u0430\u0442\u0430\u0445", "place": "village", "wikidata": "Q545527", "wikipedia": "en:Tsapatagh"}}, {"type": "way", "id": 365918397, "nodes": [3699169093, 3699169086, 3699169083, 3699169084, 3699169087, 3699169085, 3699169088, 3699169089, 3699169090, 9901259236, 3699169091, 3699169092, 3699169097, 3699169099, 3699169103, 3699169107, 3699169111, 9901258385, 3699169104, 3699169101, 3699169100, 3699169096, 3699169098, 3699169094, 3699169095, 3699169093], "tags": {"landuse": "residential", "name": "\u053c\u0573\u0561\u0583", "name:en": "Lchap", "name:hy": "\u053c\u0573\u0561\u0583", "name:ru": "\u041b\u0447\u0430\u043f", "place": "village", "wikidata": "Q1529772", "wikipedia": "en:Lchap"}}, {"type": "way", "id": 365919863, "nodes": [3699194734, 3699194731, 8496402116, 7843008607, 7843008608, 3699194726, 7843008609, 7843008610, 3699191924, 3699191921, 3699191920, 3699191922, 3699191923, 3699194725, 3699194727, 3699194729, 7843008605, 7843008606, 3699194734], "tags": {"landuse": "residential", "name": "\u0540\u0561\u0575\u0580\u0561\u057e\u0561\u0576\u0584", "name:en": "Hayravanq", "name:hy": "\u0540\u0561\u0575\u0580\u0561\u057e\u0561\u0576\u0584", "name:ru": "\u0410\u0439\u0440\u0430\u0432\u0430\u043d\u043a", "place": "village", "wikidata": "Q2536423", "wikipedia": "en:Hayravank"}}, {"type": "way", "id": 365919864, "nodes": [3699194734, 3699194737, 3699194739, 6872853768, 3699194741, 6872853769, 3699194744, 3699194743, 7843008611, 7843008612, 7843008613, 7843008614, 7843008615, 3699194742, 7843008655, 3699194740, 3699194738, 3699194736, 3699194735, 3699194733, 5734773867, 3699194731, 3699194734], "tags": {"landuse": "residential", "name": "\u0532\u0565\u0580\u0564\u056f\u0578\u0582\u0576\u0584", "name:en": "Berdkunk", "name:hy": "\u0532\u0565\u0580\u0564\u056f\u0578\u0582\u0576\u0584", "name:ru": "\u0411\u0435\u0440\u0434\u043a\u0443\u043d\u043a", "place": "village", "wikidata": "Q1528566", "wikipedia": "en:Berdkunk"}}, {"type": "way", "id": 480055763, "nodes": [4730806092, 4730806091, 4730806090, 4730806089, 4730806088, 4730806087, 4730806086, 4730806085, 4730806084, 4730806083, 4730806082, 4730806081, 4730806080, 4730806079, 4730806078, 4730806077, 4730806076, 4730806075, 4730806074, 4730806073, 4730806072, 7353442839, 7353442836, 7353442838, 7353442837, 4730806071, 5489632145, 4730806070, 4730806069, 4730806068, 4730806092], "tags": {"landuse": "residential", "name": "\u053f\u0561\u0580\u0573\u0561\u0572\u0562\u0575\u0578\u0582\u0580", "name:en": "Karchaghbyur", "name:hy": "\u053f\u0561\u0580\u0573\u0561\u0572\u0562\u0575\u0578\u0582\u0580", "name:ru": "\u041a\u0430\u0440\u0447\u0430\u0445\u043f\u044e\u0440", "place": "village", "wikidata": "Q549736", "wikipedia": "en:Karchaghbyur"}}, {"type": "way", "id": 592662598, "nodes": [5655879008, 9220983368, 9066561775, 9220983367, 5655879009, 5655879010, 5655879011, 5655879012, 5655879013, 9220983369, 5655879014, 5655879015, 9220983371, 9220983373, 9220983372, 9220983370, 9220983374, 5655879016, 9220983375, 9220983376, 9220983380, 9220983379, 9220992425, 9220992428, 9220992427, 9220992426, 9220992424, 5655879017, 9220992341, 9220992360, 3648479266, 9220983377, 9220983378, 3648479257, 5655879024, 9220983366, 5655879029, 5655879030, 5655879031, 5655879032, 5655879033, 5655879034, 5655879035, 5655879036, 5655879037, 5655879038, 5655879039, 5655879040, 5655879041, 5655879042, 5655879043, 5655879044, 5655879045, 5655879046, 5655879047, 5655879048, 5655879049, 5655879050, 5655879051, 5655879052, 5655879053, 5655879054, 5655879055, 5655879062, 3648427038, 7907610289, 5655879056, 8408032040, 5655879057, 5655879058, 5655879059, 5655879008], "tags": {"landuse": "residential", "name": "\u0546\u0565\u0580\u0584\u056b\u0576 \u0533\u0565\u057f\u0561\u0577\u0565\u0576", "name:az": "A\u015fa\u011f\u0131 Adyaman", "name:en": "Nerkin Getashen", "name:hy": "\u0546\u0565\u0580\u0584\u056b\u0576 \u0533\u0565\u057f\u0561\u0577\u0565\u0576", "name:ru": "\u041d\u0435\u0440\u043a\u0438\u043d \u0413\u0435\u0442\u0430\u0448\u0435\u043d", "place": "village", "wikidata": "Q2670399", "wikipedia": "en:Nerkin Getashen"}}, {"type": "way", "id": 607698889, "nodes": [5758624812, 8948418531, 8948418529, 8948418530, 8948418528, 4886229766, 9570934535, 4886229765, 1882609089, 5758624813, 9570934531, 8408032042, 8948418534, 9570934529, 8948418535, 8948418536, 8408032041, 9570934522, 2144085616, 8948418537, 8948418538, 8948418539, 8948418540, 8948418541, 1882609088, 8948418542, 5758626636, 5758624815, 5758624816, 5758624817, 5758624818, 5758624819, 5758624820, 5758626621, 5758626622, 5758626623, 5758626624, 5758626625, 5758626626, 5758626627, 5758626628, 5758626629, 5758626630, 5758626631, 5758626632, 5758626633, 5758624812], "tags": {"landuse": "residential", "name": "\u054e\u0561\u0572\u0561\u0577\u0565\u0576", "name:az": "Abdala\u011fal\u0131", "name:en": "Vaghashen", "name:hy": "\u054e\u0561\u0572\u0561\u0577\u0565\u0576", "name:ru": "\u0412\u0430\u0433\u0430\u0448\u0435\u043d", "place": "village", "wikidata": "Q2635853", "wikipedia": "en:Vaghashen"}}, {"type": "way", "id": 608945096, "nodes": [5768264949, 5768264950, 5768264952, 5768265653, 5768265655, 5768265656, 5768265657, 5768265658, 5768265659, 5768265660, 5768265661, 5768265662, 5768265663, 5768265664, 5768265665, 5768265666, 5768265667, 5768265668, 5768265669, 5768265670, 5768265671, 5768265672, 5768265673, 5768265674, 5768265675, 5768265676, 5768265677, 5768265678, 5768265679, 5768265680, 5768265681, 5768265682, 5768265683, 5768265684, 5768265685, 5768265686, 5768265687, 5768265688, 5768265689, 5768265690, 5768265691, 5768265692, 5768265693, 5768265694, 5768265695, 5768265696, 5768265697, 5768265698, 5768265699, 5768265700, 5768265701, 5768265702, 5768265703, 5768265704, 5768265705, 5768265706, 5768265707, 5768265708, 5768265709, 5768265710, 5768265711, 5768265712, 5768265713, 5768265714, 5768265715, 5768265716, 5768265717, 5768265718, 5768265719, 5768264949], "tags": {"landuse": "residential", "name": "\u0533\u0561\u0576\u0571\u0561\u056f", "name:en": "Gandzak", "name:hy": "\u0533\u0561\u0576\u0571\u0561\u056f", "name:ru": "\u0413\u0430\u043d\u0434\u0437\u0430\u043a", "place": "village", "wikidata": "Q1528536", "wikipedia": "en:Gandzak, Armenia"}}, {"type": "way", "id": 608945098, "nodes": [1875756269, 1875756270, 5739576986, 5739576987, 5768265721, 5768265722, 5768265723, 5768265724, 5768265725, 5768265726, 5768265727, 11854228142, 5768265728, 5768265731, 5768265732, 5768265733, 5768265717, 5768265718, 5768265719, 5768264949, 5768264952, 5768265653, 5768265656, 5768265657, 5768265658, 5768265734, 5768265735, 5768265736, 5768265737, 5768265738, 5768265739, 5768265740, 1875756269], "tags": {"is_in": "\u0533\u0561\u057e\u0561\u057c", "landuse": "residential", "name": "\u0540\u0561\u0581\u0561\u057c\u0561\u057f", "name:en": "Hatsarat", "name:hy": "\u0540\u0561\u0581\u0561\u057c\u0561\u057f", "name:ru": "\u0410\u0446\u0430\u0440\u0430\u0442", "place": "village", "wikidata": "Q4817735", "wikipedia": "en:Hatsarat"}}, {"type": "way", "id": 608945099, "nodes": [5768265741, 5768265742, 5768265743, 5768265744, 5768265745, 5768265746, 5768265747, 5768265748, 5768265749, 5768265750, 5768265751, 5768265752, 5768265853, 5768265854, 5768265855, 5768265923, 5768265856, 5768265857, 5768265858, 5768265859, 5768265860, 5768265861, 5768265862, 5768265863, 5768265864, 5768265865, 5768265866, 5768265867, 5768265868, 5768265869, 5768265870, 5768265871, 5768265872, 5768265873, 5768265874, 5768265875, 5768265876, 5768265877, 5768265878, 5768265879, 5768265880, 5768265881, 5768265882, 5768265883, 5768265884, 5768265885, 5768265886, 5768265887, 5768265888, 5768265889, 5768266359, 5768265890, 5768265891, 5768265892, 5768265893, 5768265894, 5768265895, 5768265896, 5768265897, 5768265898, 5768265899, 5768265900, 5768265901, 5768265902, 5768265903, 5768265904, 5768265905, 5768265906, 5768265907, 5768265908, 5768265909, 5768265910, 5768265911, 5768265912, 5768265913, 5768265914, 5768265915, 5768265916, 5768265917, 5768265919, 5768265921, 5768265922, 8306195691, 8306195690, 8306195685, 8306195687, 8306195689, 8306195688, 8306195686, 5768265741], "tags": {"alt_name:az": "Qulal\u0131", "landuse": "residential", "name": "\u053f\u0561\u0580\u0574\u056b\u0580\u0563\u0575\u0578\u0582\u0572", "name:az": "Qul \u018fli", "name:en": "Karmirgyugh", "name:hy": "\u053f\u0561\u0580\u0574\u056b\u0580\u0563\u0575\u0578\u0582\u0572", "name:ru": "\u041a\u0430\u0440\u043c\u0438\u0440\u0433\u044e\u0445", "place": "village", "wikidata": "Q1528709", "wikipedia": "en:Karmirgyugh"}}, {"type": "way", "id": 786124397, "nodes": [7349989902, 7349989903, 7349989904, 7349989905, 7349989949, 7349989906, 7349989907, 7349989908, 7349989909, 7349989910, 7349989911, 7349989912, 7349989913, 7349989914, 7349989915, 7349989916, 7349989917, 7349989919, 7349989918, 7349989920, 7349989922, 7349989921, 7349989923, 7349989924, 7349989925, 7349989926, 7349989927, 7349989930, 7349989932, 7349989931, 7349989929, 7349989933, 7349989934, 7349989935, 7349989928, 7349989936, 7349989937, 7349989938, 7349989939, 7349989940, 7349989941, 7349989942, 7349989944, 7349989943, 7349989945, 7349989947, 7349989946, 7349989948, 7349989902], "tags": {"landuse": "residential", "name": "\u0531\u057d\u057f\u0572\u0561\u0571\u0578\u0580", "name:az": "A\u011fq\u0131raq", "name:en": "Astghadzor", "name:hy": "\u0531\u057d\u057f\u0572\u0561\u0571\u0578\u0580", "name:ru": "\u0410\u0441\u0442\u0445\u0430\u0434\u0437\u043e\u0440", "place": "village", "wikidata": "Q2636216", "wikipedia": "en:Astghadzor"}}, {"type": "way", "id": 786124398, "nodes": [7349989905, 7349989950, 7349989951, 7349989952, 7349989953, 7349989954, 7349989955, 7349989956, 7349989957, 7349989958, 7349989959, 7349989960, 7349989961, 7349989962, 7349989963, 7349989964, 7349989965, 7349989966, 7349989967, 7349989968, 7349989969, 7349989970, 7349989971, 7349989972, 7349989973, 7349989974, 7349989975, 7349989976, 7349989977, 7349989978, 7349989979, 7349989980, 7349989981, 7349989982, 7349989983, 7349989984, 7349996385, 7349996386, 7349996387, 7349996388, 7349996389, 7349996390, 7349996391, 7349996392, 7349996393, 7349996394, 7349996395, 7349996396, 7349996397, 7349996398, 7349989917, 7349989916, 7349989915, 7349989914, 7349989913, 7349989912, 7349989911, 7349989910, 7349989909, 7349989908, 7349989907, 7349989906, 7349989949, 7349989905], "tags": {"landuse": "residential", "name": "\u0536\u0578\u056c\u0561\u0584\u0561\u0580", "name:az": "Zolaxa\u00e7", "name:en": "Zolaqar", "name:hy": "\u0536\u0578\u056c\u0561\u0584\u0561\u0580", "name:ru": "\u0417\u043e\u043b\u0430\u043a\u0430\u0440", "place": "village", "wikidata": "Q2636133", "wikipedia": "en:Zolakar"}}, {"type": "way", "id": 786127773, "nodes": [7350004635, 7350004636, 7350004637, 7350004638, 7350004639, 7350004640, 7350004641, 7350004642, 7350004643, 1875756275, 7350004644, 7350004645, 7350004646, 7350004647, 7350004648, 7350004649, 7350004650, 7350004651, 7350004652, 7350004653, 7350004654, 7350004655, 7350004656, 7350004659, 7350004657, 7350004658, 7350004660, 7350004635], "tags": {"name": "\u0531\u0580\u056e\u057e\u0561\u0584\u0561\u0580", "name:en": "Artsvakar", "name:hy": "\u0531\u0580\u056e\u057e\u0561\u0584\u0561\u0580", "name:ru": "\u0410\u0440\u0446\u0432\u0430\u043a\u0430\u0440", "place": "village", "wikidata": "Q4801564", "wikipedia": "en:Artsvakar"}}, {"type": "way", "id": 870645438, "nodes": [8110397789, 8110397790, 8110397791, 8110397792, 8110397793, 8110397794, 8110397795, 8110397796, 8110397797, 8110397798, 8110397799, 8110397800, 8110397801, 8110397802, 8110397803, 8110397804, 8110397805, 8110397806, 8110397807, 8110397808, 8110397809, 8110397810, 8110397811, 8110397812, 8110397813, 8110397814, 8110397815, 8110397816, 8110415017, 8110415018, 8110415019, 8110415020, 8110415021, 8110397789], "tags": {"landuse": "residential", "name": "\u0544\u0561\u0564\u056b\u0576\u0561", "name:en": "Madina", "name:hy": "\u0544\u0561\u0564\u056b\u0576\u0561", "name:ru": "\u041c\u0430\u0434\u0438\u043d\u0430", "place": "village", "wikidata": "Q2392033", "wikipedia": "en:Madina, Armenia"}}, {"type": "way", "id": 870645439, "nodes": [8110415022, 8110415023, 8110415024, 8110415025, 8110415026, 8110415027, 8110415028, 8110415029, 8110415030, 8110415031, 8110415032, 8110415033, 8110415034, 8110415035, 8110415036, 8110415037, 8110415038, 8110415039, 8110415040, 8110415022], "tags": {"landuse": "residential", "name": "\u053c\u0565\u057c\u0576\u0561\u056f\u0565\u0580\u057f", "name:en": "Lernakert", "name:hy": "\u053c\u0565\u057c\u0576\u0561\u056f\u0565\u0580\u057f", "name:ru": "\u041b\u0435\u0440\u043d\u0430\u043a\u0435\u0440\u0442", "old_name": "\u053c\u0565\u057c\u0576\u0561\u0570\u0578\u057e\u056b\u057f", "old_name:en": "Lernahovit", "old_name:hy": "\u053c\u0565\u057c\u0576\u0561\u0570\u0578\u057e\u056b\u057f", "old_name:ru": "\u041b\u0435\u0440\u043d\u0430\u043e\u0432\u0438\u0442", "place": "village", "wikidata": "Q6528841", "wikipedia": "en:Lernahovit, Gegharkunik"}}, {"type": "relation", "id": 7868352, "members": [{"type": "way", "ref": 177856555, "role": "outer"}, {"type": "node", "ref": 210119692, "role": "admin_centre"}], "tags": {"admin_level": "7", "boundary": "administrative", "name": "\u0544\u0561\u0580\u057f\u0578\u0582\u0576\u056b", "name:el": "\u039c\u03b1\u03c1\u03c4\u03bf\u03cd\u03bd\u03b9", "name:en": "Martuni", "name:fr": "Martouni", "name:hy": "\u0544\u0561\u0580\u057f\u0578\u0582\u0576\u056b", "name:ja": "\u30de\u30eb\u30c8\u30a5\u30cb", "name:ru": "\u041c\u0430\u0440\u0442\u0443\u043d\u0438", "old_name:ru": "\u0413\u0435\u0433\u0430\u0440\u043a\u0443\u043d\u0438\u043a", "place": "town", "type": "boundary", "wikidata": "Q39603", "wikipedia": "en:Martuni, Armenia"}}, {"type": "relation", "id": 8896914, "members": [{"type": "way", "ref": 177106778, "role": "outer"}, {"type": "node", "ref": 6123773911, "role": "admin_centre"}], "tags": {"admin_level": "6", "alt_name": "Kyavar", "boundary": "administrative", "name": "\u0533\u0561\u057e\u0561\u057c", "name:de": "Gawar", "name:el": "\u0393\u03ba\u03b1\u03b2\u03ac\u03c1", "name:en": "Gavar", "name:fr": "Gavar", "name:hy": "\u0533\u0561\u057e\u0561\u057c", "name:it": "Gavar", "name:ja": "\u30ac\u30d0\u30eb (\u30a2\u30eb\u30e1\u30cb\u30a2)", "name:ka": "\u10d2\u10d0\u10d5\u10d0\u10e0\u10d8 (\u10e1\u10dd\u10db\u10ee\u10d4\u10d7\u10d8)", "name:ko": "\uac00\ubc14\ub974", "name:lt": "Gavaras (miestas)", "name:ru": "\u0413\u0430\u0432\u0430\u0440", "old_name": "Nor Bayezet", "place": "town", "type": "boundary", "wikidata": "Q39565", "wikipedia": "en:Gavar"}}]}