{"version": 0.6, "generator": "Overpass API 0.7.62.8 e802775f", "osm3s": {"timestamp_osm_base": "2025-12-01T14:26:56Z", "copyright": "The data included in this document is from www.openstreetmap.org. The data is made available under ODbL."}, "elements": [{"type": "node", "id": 210212587, "lat": 39.8388185, "lon": 45.6712635, "tags": {"ele": "2080", "int_name": "Jermuk", "is_in:country": "Armenia", "is_in:country_code": "AM", "is_in:municipality": "\u054b\u0565\u0580\u0574\u0578\u0582\u056f\u056b \u0570\u0561\u0574\u0561\u0575\u0576\u0584", "is_in:region": "\u054e\u0561\u0575\u0578\u0581 \u0571\u0578\u0580\u056b \u0574\u0561\u0580\u0566", "name": "\u054b\u0565\u0580\u0574\u0578\u0582\u056f", "name:ckb": "\u062c\u06ce\u0631\u0645\u0648\u0648\u06a9", "name:cs": "D\u017eermuk", "name:de": "Dschermuk", "name:el": "\u03a4\u03b6\u03b5\u03c1\u03bc\u03bf\u03cd\u03ba", "name:en": "Jermuk", "name:fa": "\u062c\u0631\u0645\u0648\u06a9", "name:fr": "Djermouk", "name:hr": "D\u017eermuk", "name:hy": "\u054b\u0565\u0580\u0574\u0578\u0582\u056f", "name:ka": "\u10ef\u10d4\u10e0\u10db\u10e3\u10d9\u10d8", "name:ku": "C\u00earm\u00fbk", "name:ml": "\u0d1c\u0d46\u0d7c\u0d2e\u0d41\u0d15\u0d4d\u0d15\u0d4d", "name:pl": "D\u017cermuk", "name:ru": "\u0414\u0436\u0435\u0440\u043c\u0443\u043a", "name:sr": "\u040f\u0435\u0440\u043c\u0443\u043a", "name:uk": "\u0414\u0436\u0435\u0440\u043c\u0443\u043a", "place": "town", "population": "3902", "population:date": "2022-01-01", "source:population": "Armstat", "wikidata": "Q39556", "wikipedia": "hy:\u054b\u0565\u0580\u0574\u0578\u0582\u056f (\u0584\u0561\u0572\u0561\u0584)"}}, {"type": "node", "id": 1876496592, "lat": 39.8098112, "lon": 45.665761}, {"type": "node", "id": 1876496593, "lat": 39.8099142, "lon": 45.6633709}, {"type": "node", "id": 1876496594, "lat": 39.810195, "lon": 45.6720374}, {"type": "node", "id": 1876496595, "lat": 39.8132173, "lon": 45.6799688}, {"type": "node", "id": 1876496596, "lat": 39.8169697, "lon": 45.6583367}, {"type": "node", "id": 1876496597, "lat": 39.8299256, "lon": 45.6833313}, {"type": "node", "id": 1876496598, "lat": 39.835148, "lon": 45.6590432}, {"type": "node", "id": 1876496615, "lat": 39.8402343, "lon": 45.6882772}, {"type": "node", "id": 1876496616, "lat": 39.8434893, "lon": 45.6607213}, {"type": "node", "id": 1876496617, "lat": 39.8508805, "lon": 45.6904852}, {"type": "node", "id": 1876496618, "lat": 39.8522366, "lon": 45.6689351}, {"type": "node", "id": 1876496619, "lat": 39.8555961, "lon": 45.680039}, {"type": "way", "id": 177199402, "nodes": [1876496592, 1876496594, 1876496595, 1876496597, 1876496615, 1876496617, 1876496619, 1876496618, 1876496616, 1876496598, 1876496596, 1876496593, 1876496592], "tags": {"alt_name:en": "Dzhermuk", "name": "\u054b\u0565\u0580\u0574\u0578\u0582\u056f", "name:az": "\u0130stisu \u015f\u0259h\u0259ri", "name:cs": "D\u017eermuk", "name:en": "Jermuk", "name:hy": "\u054b\u0565\u0580\u0574\u0578\u0582\u056f", "name:pl": "Jermuk", "name:ru": "\u0414\u0436\u0435\u0440\u043c\u0443\u043a", "place": "town", "wikidata": "Q39556", "wikipedia": "en:Jermuk"}}]}