{"version": 0.6, "generator": "Overpass API 0.7.62.8 e802775f", "osm3s": {"timestamp_osm_base": "2025-12-01T14:32:02Z", "copyright": "The data included in this document is from www.openstreetmap.org. The data is made available under ODbL."}, "elements": [{"type": "node", "id": 183527020, "lat": 40.5353903, "lon": 44.9726589}, {"type": "node", "id": 183527021, "lat": 40.5351752, "lon": 44.9720889}, {"type": "node", "id": 183527023, "lat": 40.535268, "lon": 44.9713165}, {"type": "node", "id": 183527025, "lat": 40.5357837, "lon": 44.9693169}, {"type": "node", "id": 183527026, "lat": 40.5348552, "lon": 44.9671134}, {"type": "node", "id": 183527028, "lat": 40.5345667, "lon": 44.9668466}, {"type": "node", "id": 183527030, "lat": 40.5351507, "lon": 44.9664335}, {"type": "node", "id": 183527031, "lat": 40.5367377, "lon": 44.9630204}, {"type": "node", "id": 183527032, "lat": 40.5346136, "lon": 44.959791}, {"type": "node", "id": 183527033, "lat": 40.5344159, "lon": 44.957947}, {"type": "node", "id": 183527035, "lat": 40.5335994, "lon": 44.9564758}, {"type": "node", "id": 183527036, "lat": 40.531994, "lon": 44.9552259}, {"type": "node", "id": 208818390, "lat": 40.5485209, "lon": 44.957243, "tags": {"is_in:country": "Armenia", "is_in:country_code": "AM", "is_in:municipality": "\u054d\u0587\u0561\u0576\u056b \u0570\u0561\u0574\u0561\u0575\u0576\u0584", "is_in:region": "\u0533\u0565\u0572\u0561\u0580\u0584\u0578\u0582\u0576\u056b\u0584\u056b \u0574\u0561\u0580\u0566", "name": "\u054d\u0587\u0561\u0576", "name:ckb": "\u0633\u06ce\u06a4\u0627\u0646", "name:de": "Sewan", "name:el": "\u03a3\u03b5\u03b2\u03ac\u03bd", "name:en": "Sevan", "name:es": "Sevan", "name:fa": "\u0633\u0648\u0627\u0646", "name:hy": "\u054d\u0587\u0561\u0576", "name:ku": "S\u00eavan", "name:lt": "Sevanas", "name:ml": "\u0d38\u0d46\u0d35\u0d3e\u0d7b", "name:ru": "\u0421\u0435\u0432\u0430\u043d", "place": "town", "population": "18870", "population:date": "2022-01-01", "source:population": "Armstat", "wikidata": "Q39625", "wikipedia": "en:Sevan, Armenia"}}, {"type": "node", "id": 208845055, "lat": 40.7417126, "lon": 44.872221, "tags": {"is_in:country": "Armenia", "is_in:country_code": "AM", "is_in:municipality": "\u0534\u056b\u056c\u056b\u057b\u0561\u0576\u056b \u0570\u0561\u0574\u0561\u0575\u0576\u0584", "is_in:region": "\u054f\u0561\u057e\u0578\u0582\u0577\u056b \u0574\u0561\u0580\u0566", "name": "\u0534\u056b\u056c\u056b\u057b\u0561\u0576", "name:ar": "\u062f\u064a\u0644\u064a\u062c\u0627\u0646", "name:az": "Dilican", "name:be": "\u0414\u044b\u043b\u0456\u0436\u0430\u043d", "name:bg": "\u0414\u0438\u043b\u0438\u0434\u0436\u0430\u043d", "name:ca": "Dilidjan", "name:ce": "\u0414\u0438\u043b\u0438\u0436\u0430\u043d", "name:ckb": "\u062f\u06cc\u0644\u06cc\u062c\u0627\u0646", "name:cs": "Dilid\u017ean", "name:de": "Dilidschan", "name:el": "\u039d\u03c4\u03b9\u03bb\u03b9\u03c4\u03b6\u03ac\u03bd", "name:en": "Dilijan", "name:eo": "Dili\u011dano", "name:es": "Dilijan", "name:et": "Dilid\u017ean", "name:fa": "\u062f\u06cc\u0644\u06cc\u062c\u0627\u0646", "name:fr": "Dilidjan", "name:hi": "\u0921\u093f\u0932\u093f\u091c\u093e\u0928", "name:hy": "\u0534\u056b\u056c\u056b\u057b\u0561\u0576", "name:id": "Dilijan", "name:it": "Dilijan", "name:ka": "\u10d3\u10d8\u10da\u10d8\u10ef\u10d0\u10dc\u10d8", "name:kk": "\u0414\u0438\u043b\u0438\u0436\u0430\u043d", "name:ko": "\ub51c\ub9ac\uc794", "name:ku": "D\u00eel\u00eecan", "name:lt": "Dili\u017eanas", "name:lv": "Dili\u017eana", "name:ml": "\u0d21\u0d3f\u0d32\u0d3f\u0d1c\u0d3e\u0d7b", "name:ms": "Dilijan", "name:nb": "Dilijan", "name:nl": "Dilidzjan", "name:os": "\u0414\u0438\u043b\u0438\u0436\u0430\u043d", "name:pl": "Dilid\u017can", "name:pt": "Dilij\u00e3", "name:ro": "Dilijan", "name:ru": "\u0414\u0438\u043b\u0438\u0436\u0430\u043d", "name:sl": "Dilid\u017ean", "name:sr": "\u0414\u0438\u043b\u0438\u045f\u0430\u043d", "name:sv": "Dilidzjan", "name:sw": "Dilijan", "name:tr": "Dilican", "name:uk": "\u0414\u0456\u043b\u0456\u0436\u0430\u043d", "name:uz": "Dilijan", "name:vi": "Dilijan", "name:zh": "\u8fea\u5229\u7136", "nat_name": "\u0534\u056b\u056c\u056b\u057b\u0561\u0576", "place": "town", "population": "17045", "population:date": "2022-01-01", "source:population": "Armstat", "wikidata": "Q39569", "wikipedia": "en:Dilijan"}}, {"type": "node", "id": 208853190, "lat": 40.8112384, "lon": 44.4851821, "tags": {"capital": "4", "int_name": "Vanadzor", "is_in:country": "Armenia", "is_in:country_code": "AM", "is_in:municipality": "\u054e\u0561\u0576\u0561\u0571\u0578\u0580\u056b \u0570\u0561\u0574\u0561\u0575\u0576\u0584", "is_in:region": "\u053c\u0578\u057c\u0578\u0582 \u0574\u0561\u0580\u0566", "name": "\u054e\u0561\u0576\u0561\u0571\u0578\u0580", "name:ar": "\u0648\u0627\u0646\u0627\u062f\u0632\u0648\u0631", "name:az": "B\u00f6y\u00fck Qarakils\u0259", "name:be": "\u0412\u0430\u043d\u0430\u0434\u0437\u043e\u0440", "name:bg": "\u0412\u0430\u043d\u0430\u0434\u0437\u043e\u0440", "name:ca": "Vanadzor", "name:ce": "\u0412\u0430\u043d\u0430\u0434\u0437\u043e\u0440", "name:ckb": "\u06a4\u0627\u0646\u0627\u062f\u0632\u06c6\u0631", "name:cs": "Vanadzor", "name:de": "Wanadsor", "name:el": "\u0392\u03b1\u03bd\u03b1\u03c4\u03b6\u03cc\u03c1", "name:en": "Vanadzor", "name:eo": "Vanadzor", "name:es": "Vanadzor", "name:et": "Vanadzor", "name:eu": "Vanadzor", "name:fa": "\u0648\u0627\u0646\u0627\u062f\u0632\u0648\u0631", "name:fi": "Vanadzor", "name:fr": "Vanadzor", "name:he": "\u05d5\u05e0\u05d3\u05d6\u05d5\u05e8", "name:hr": "Vanadzor", "name:hu": "Vanadzor", "name:hy": "\u054e\u0561\u0576\u0561\u0571\u0578\u0580", "name:id": "Vanadzor", "name:it": "Vanadzor", "name:ja": "\u30f4\u30a1\u30ca\u30be\u30eb", "name:ka": "\u10d5\u10d0\u10dc\u10d0\u10eb\u10dd\u10e0\u10d8", "name:ko": "\ubc14\ub098\uc870\ub974", "name:lt": "Vanadzoras", "name:lv": "Vanadzora", "name:ml": "\u0d35\u0d28\u0d3e\u0d21\u0d4d\u0d38\u0d4b\u0d7c", "name:mn": "\u0412\u0430\u043d\u0430\u0434\u0437\u043e\u0440", "name:ms": "Vanadzor", "name:nb": "Vanadzor", "name:nl": "Vanadzor", "name:nn": "Vanadzor", "name:os": "\u0412\u0430\u043d\u0430\u0434\u0437\u043e\u0440", "name:pa": "\u0a35\u0a28\u0a3e\u0a26\u0a1c\u0a3c\u0a4b\u0a30", "name:pl": "Wanadzor", "name:pt": "Vanazor", "name:ro": "Vanadzor", "name:ru": "\u0412\u0430\u043d\u0430\u0434\u0437\u043e\u0440", "name:sl": "Vanadzor", "name:sq": "Vanadzor", "name:sr": "\u0412\u0430\u043d\u0430\u0434\u0437\u043e\u0440", "name:sv": "Vanadzor", "name:tr": "Karakilise", "name:uk": "\u0412\u0430\u043d\u0430\u0434\u0437\u043e\u0440", "name:uz": "Vanadzor", "name:vi": "Vanadzor", "name:zh": "\u74e6\u7eb3\u4f50\u5c14", "old_name": "Gharakilisa, Kirovakan", "old_name:ru": "\u041a\u0430\u0440\u0430\u043a\u043b\u0438\u0441;\u041a\u0430\u0440\u0430\u043a\u0438\u043b\u0438\u0441\u0435;\u041a\u0438\u0440\u043e\u0432\u0430\u043a\u0430\u043d", "place": "city", "population": "76220", "population:date": "2022-01-01", "source:population": "Armstat", "website": "https://www.vanadzor.am/", "wikidata": "Q62337", "wikipedia": "en:Vanadzor"}}, {"type": "node", "id": 210063748, "lat": 40.5196871, "lon": 44.7500706, "tags": {"capital": "4", "is_in:country": "Armenia", "is_in:country_code": "AM", "is_in:municipality": "\u0540\u0580\u0561\u0566\u0564\u0561\u0576\u056b \u0570\u0561\u0574\u0561\u0575\u0576\u0584", "is_in:region": "\u053f\u0578\u057f\u0561\u0575\u0584\u056b \u0574\u0561\u0580\u0566", "name": "\u0540\u0580\u0561\u0566\u0564\u0561\u0576", "name:ar": "\u0647\u0631\u0627\u0632\u062f\u0627\u0646", "name:az": "Hrazdan", "name:be": "\u0420\u0430\u0437\u0434\u0430\u043d", "name:bg": "\u0420\u0430\u0437\u0434\u0430\u043d", "name:ca": "Hrazdan", "name:ce": "\u0420\u0430\u0437\u0434\u0430\u043d", "name:ckb": "\u06be\u0631\u0627\u0632\u062f\u0627\u0646", "name:cs": "Hrazdan", "name:de": "Hrasdan", "name:el": "\u03a7\u03c1\u03b1\u03b6\u03bd\u03c4\u03ac\u03bd", "name:en": "Hrazdan", "name:eo": "Hrazdan", "name:es": "Hrazdan", "name:et": "Hrazdan", "name:eu": "Hrazdan", "name:fa": "\u0647\u0631\u0627\u0632\u062f\u0627\u0646", "name:fi": "Hrazdan", "name:fr": "Hrazdan", "name:he": "\u05d4\u05e8\u05d6\u05d3\u05d0\u05df", "name:hi": "\u0939\u094d\u0930\u091c\u093c\u0926\u093e\u0928", "name:hr": "Hrazdan", "name:hu": "Hrazdan", "name:hy": "\u0540\u0580\u0561\u0566\u0564\u0561\u0576", "name:id": "Hrazdan", "name:it": "Hrazdan", "name:ja": "\u30d5\u30e9\u30ba\u30c0\u30f3", "name:ka": "\u10e0\u10d0\u10d6\u10d3\u10d0\u10dc\u10d8", "name:ko": "\ud750\ub77c\uc988\ub2e8", "name:lt": "Hrazdanas", "name:ml": "\u0d39\u0d4d\u0d30\u0d3e\u0d38\u0d4d\u0d21\u0d3e\u0d7b", "name:mn": "\u0420\u0430\u0437\u0434\u0430\u043d", "name:ms": "Hrazdan", "name:nb": "Hrazdan", "name:nl": "Hrazdan", "name:os": "\u0420\u0430\u0437\u0434\u0430\u043d", "name:pa": "\u0a39\u0a30\u0a3e\u0a1c\u0a26\u0a3e\u0a28", "name:pl": "Hrazdan", "name:pt": "Razd\u00e3", "name:ro": "Hrazdan", "name:ru": "\u0420\u0430\u0437\u0434\u0430\u043d", "name:sr": "\u0425\u0440\u0430\u0437\u0434\u0430\u043d", "name:sv": "Hrazdan", "name:sw": "Hrazdan", "name:tr": "Hrazdan", "name:uk": "\u0420\u0430\u0437\u0434\u0430\u043d", "name:ur": "\u06c1\u0631\u0627\u0632\u062f\u0627\u0646", "name:uz": "Razdan", "name:vi": "Hrazdan", "name:zh": "\u8d6b\u62c9\u8332\u4e39", "old_name": "Akhta", "place": "town", "population": "39957", "population:date": "2022-01-01", "source:population": "Armstat", "wikidata": "Q31610", "wikipedia": "en:Hrazdan"}}, {"type": "node", "id": 210071730, "lat": 40.5335474, "lon": 44.7201571, "tags": {"is_in:country": "Armenia", "is_in:country_code": "AM", "is_in:municipality": "\u053e\u0561\u0572\u056f\u0561\u0571\u0578\u0580\u056b \u0570\u0561\u0574\u0561\u0575\u0576\u0584", "is_in:region": "\u053f\u0578\u057f\u0561\u0575\u0584\u056b \u0574\u0561\u0580\u0566", "name": "\u053e\u0561\u0572\u056f\u0561\u200e\u0571\u0578\u0580", "name:ckb": "\u062a\u0633\u0627\u063a\u06a9\u0627\u062f\u0632\u06c6\u0631", "name:el": "\u03a4\u03c3\u03b1\u03c7\u03ba\u03b1\u03bd\u03c4\u03b6\u03cc\u03c1", "name:en": "Tsakhkadzor", "name:fa": "\u062a\u0633\u0627\u063a\u06a9\u0627\u062f\u0632\u0648\u0631", "name:hy": "\u053e\u0561\u0572\u056f\u0561\u200e\u0571\u0578\u0580", "name:ru": "\u0426\u0430\u0445\u043a\u0430\u0434\u0437\u043e\u0440", "place": "town", "population": "1165", "population:date": "2022-01-01", "source:population": "Armstat", "website": "http://www.tsakhkadzor.am", "wikidata": "Q140342", "wikipedia": "en:Tsaghkadzor"}}, {"type": "node", "id": 891857500, "lat": 40.8137724, "lon": 44.4586202}, {"type": "node", "id": 891857501, "lat": 40.8212004, "lon": 44.4548576}, {"type": "node", "id": 891857503, "lat": 40.8234494, "lon": 44.4423885}, {"type": "node", "id": 891857505, "lat": 40.8301771, "lon": 44.4376856}, {"type": "node", "id": 891857506, "lat": 40.8363938, "lon": 44.4311809}, {"type": "node", "id": 891857507, "lat": 40.8424701, "lon": 44.4242042}, {"type": "node", "id": 891857508, "lat": 40.8453774, "lon": 44.4199857}, {"type": "node", "id": 891857509, "lat": 40.8481453, "lon": 44.4252331}, {"type": "node", "id": 891857510, "lat": 40.8487868, "lon": 44.4306729}, {"type": "node", "id": 891857516, "lat": 40.8486579, "lon": 44.4356681}, {"type": "node", "id": 891857517, "lat": 40.8464507, "lon": 44.4409171}, {"type": "node", "id": 891857521, "lat": 40.8444272, "lon": 44.4486544}, {"type": "node", "id": 891857536, "lat": 40.8434728, "lon": 44.4572502}, {"type": "node", "id": 891857538, "lat": 40.8419528, "lon": 44.4583853}, {"type": "node", "id": 891857539, "lat": 40.8406594, "lon": 44.4599432}, {"type": "node", "id": 891857541, "lat": 40.8373555, "lon": 44.4615571}, {"type": "node", "id": 891857542, "lat": 40.8347715, "lon": 44.4612954}, {"type": "node", "id": 891857543, "lat": 40.8319016, "lon": 44.4619268}, {"type": "node", "id": 891857544, "lat": 40.8280943, "lon": 44.4621936}, {"type": "node", "id": 891857546, "lat": 40.8275345, "lon": 44.4626032}, {"type": "node", "id": 891857548, "lat": 40.826432, "lon": 44.4702514}, {"type": "node", "id": 891857549, "lat": 40.8258682, "lon": 44.4766457}, {"type": "node", "id": 891857550, "lat": 40.8228338, "lon": 44.4842781}, {"type": "node", "id": 891857551, "lat": 40.8195124, "lon": 44.4907734}, {"type": "node", "id": 891857552, "lat": 40.8162861, "lon": 44.4995123}, {"type": "node", "id": 891857553, "lat": 40.8116366, "lon": 44.5003789}, {"type": "node", "id": 891857554, "lat": 40.8125584, "lon": 44.5029781}, {"type": "node", "id": 891857555, "lat": 40.8088986, "lon": 44.5087612}, {"type": "node", "id": 891857558, "lat": 40.8077727, "lon": 44.5130509}, {"type": "node", "id": 891857560, "lat": 40.8060841, "lon": 44.5175354}, {"type": "node", "id": 891857561, "lat": 40.806624, "lon": 44.5260697}, {"type": "node", "id": 891857562, "lat": 40.8040917, "lon": 44.523986}, {"type": "node", "id": 891857564, "lat": 40.799611, "lon": 44.5296699}, {"type": "node", "id": 891857565, "lat": 40.7982977, "lon": 44.5326119}, {"type": "node", "id": 891857567, "lat": 40.7959433, "lon": 44.5360039}, {"type": "node", "id": 891857568, "lat": 40.7933927, "lon": 44.5408763}, {"type": "node", "id": 891857569, "lat": 40.7808598, "lon": 44.5352491}, {"type": "node", "id": 891857570, "lat": 40.7833222, "lon": 44.5304643}, {"type": "node", "id": 891857571, "lat": 40.7812434, "lon": 44.5201775}, {"type": "node", "id": 891857572, "lat": 40.7864521, "lon": 44.5243996}, {"type": "node", "id": 891857574, "lat": 40.7872998, "lon": 44.5215442}, {"type": "node", "id": 891857576, "lat": 40.7883791, "lon": 44.5129832}, {"type": "node", "id": 891857577, "lat": 40.790757, "lon": 44.5077399}, {"type": "node", "id": 891857578, "lat": 40.7905052, "lon": 44.503553}, {"type": "node", "id": 891857579, "lat": 40.7960169, "lon": 44.4975178}, {"type": "node", "id": 891857581, "lat": 40.7937271, "lon": 44.4858216}, {"type": "node", "id": 891857582, "lat": 40.7993477, "lon": 44.4833397}, {"type": "node", "id": 891857583, "lat": 40.8037128, "lon": 44.4752035}, {"type": "node", "id": 891857588, "lat": 40.8078953, "lon": 44.4714607}, {"type": "node", "id": 891857589, "lat": 40.8073558, "lon": 44.4685689}, {"type": "node", "id": 891857590, "lat": 40.8086183, "lon": 44.4665869}, {"type": "node", "id": 891857591, "lat": 40.8145821, "lon": 44.4651409}, {"type": "node", "id": 1863095128, "lat": 40.5364707, "lon": 44.964045}, {"type": "node", "id": 1863095129, "lat": 40.5358285, "lon": 44.9694201}, {"type": "node", "id": 1863095130, "lat": 40.5361159, "lon": 44.9677177}, {"type": "node", "id": 1863095163, "lat": 40.535693, "lon": 44.9672717}, {"type": "node", "id": 1863095164, "lat": 40.5360416, "lon": 44.9686342}, {"type": "node", "id": 1863095165, "lat": 40.5359967, "lon": 44.9649677}, {"type": "node", "id": 1863095170, "lat": 40.5365379, "lon": 44.9624383}, {"type": "node", "id": 1863095177, "lat": 40.5360222, "lon": 44.9616699}, {"type": "node", "id": 1863095180, "lat": 40.5357867, "lon": 44.9703106}, {"type": "node", "id": 1863095181, "lat": 40.5354606, "lon": 44.9737734}, {"type": "node", "id": 1875918777, "lat": 40.7568958, "lon": 44.8778199}, {"type": "node", "id": 1883221540, "lat": 40.4882569, "lon": 44.7454527}, {"type": "node", "id": 1883221541, "lat": 40.5105762, "lon": 44.7373303}, {"type": "node", "id": 1883221542, "lat": 40.4823071, "lon": 44.761698}, {"type": "node", "id": 1883221544, "lat": 40.491581, "lon": 44.7755824}, {"type": "node", "id": 1883221545, "lat": 40.5583317, "lon": 44.7532695}, {"type": "node", "id": 1883221546, "lat": 40.5061639, "lon": 44.7964451}, {"type": "node", "id": 1883221547, "lat": 40.5464691, "lon": 44.7810937}, {"type": "node", "id": 1883221548, "lat": 40.524515, "lon": 44.7784941}, {"type": "node", "id": 1883221549, "lat": 40.5144609, "lon": 44.7657262}, {"type": "node", "id": 1883222659, "lat": 40.5344696, "lon": 44.9429547}, {"type": "node", "id": 1883222662, "lat": 40.5343988, "lon": 44.9453918}, {"type": "node", "id": 1883222664, "lat": 40.534781, "lon": 44.9398314}, {"type": "node", "id": 1883222666, "lat": 40.5352297, "lon": 44.951539}, {"type": "node", "id": 1883222668, "lat": 40.5379288, "lon": 44.9745491}, {"type": "node", "id": 1883222670, "lat": 40.5399181, "lon": 44.9306413}, {"type": "node", "id": 1883222672, "lat": 40.5423422, "lon": 44.9750519}, {"type": "node", "id": 1883222674, "lat": 40.5447523, "lon": 44.9232366}, {"type": "node", "id": 1883222676, "lat": 40.546736, "lon": 44.9238363}, {"type": "node", "id": 1883222677, "lat": 40.5471596, "lon": 44.9764595}, {"type": "node", "id": 1883222683, "lat": 40.5506495, "lon": 44.928302}, {"type": "node", "id": 1883222685, "lat": 40.55054, "lon": 44.9429654}, {"type": "node", "id": 1883222690, "lat": 40.5522598, "lon": 44.9614689}, {"type": "node", "id": 1883222692, "lat": 40.5524602, "lon": 44.9643456}, {"type": "node", "id": 1883222694, "lat": 40.5512233, "lon": 44.9489381}, {"type": "node", "id": 1883222698, "lat": 40.5524981, "lon": 44.965011}, {"type": "node", "id": 1883222700, "lat": 40.5501671, "lon": 44.9732564}, {"type": "node", "id": 1890403453, "lat": 40.8022735, "lon": 44.4824001}, {"type": "node", "id": 1928606036, "lat": 40.7784419, "lon": 44.5195426}, {"type": "node", "id": 1928606041, "lat": 40.7784321, "lon": 44.5203808}, {"type": "node", "id": 1928606044, "lat": 40.7790345, "lon": 44.5193332}, {"type": "node", "id": 1928606047, "lat": 40.7795046, "lon": 44.5212151}, {"type": "node", "id": 1928606048, "lat": 40.7796257, "lon": 44.519548}, {"type": "node", "id": 1928606059, "lat": 40.7798247, "lon": 44.5400979}, {"type": "node", "id": 1928606061, "lat": 40.7798703, "lon": 44.5393039}, {"type": "node", "id": 1928606064, "lat": 40.780672, "lon": 44.5501459}, {"type": "node", "id": 1928606066, "lat": 40.7809398, "lon": 44.5344412}, {"type": "node", "id": 1928606068, "lat": 40.7809662, "lon": 44.5405705}, {"type": "node", "id": 1928606071, "lat": 40.7812568, "lon": 44.482603}, {"type": "node", "id": 1928606074, "lat": 40.7810573, "lon": 44.5537485}, {"type": "node", "id": 1928606077, "lat": 40.7812274, "lon": 44.5336025}, {"type": "node", "id": 1928606081, "lat": 40.7812485, "lon": 44.5391312}, {"type": "node", "id": 1928606084, "lat": 40.7812816, "lon": 44.5525322}, {"type": "node", "id": 1928606087, "lat": 40.7813034, "lon": 44.5365812}, {"type": "node", "id": 1928606090, "lat": 40.7813153, "lon": 44.5490069}, {"type": "node", "id": 1928606093, "lat": 40.781428, "lon": 44.5388173}, {"type": "node", "id": 1928606096, "lat": 40.7815423, "lon": 44.5382275}, {"type": "node", "id": 1928606100, "lat": 40.7815681, "lon": 44.5506406}, {"type": "node", "id": 1928606102, "lat": 40.7815942, "lon": 44.536691}, {"type": "node", "id": 1928606104, "lat": 40.7816272, "lon": 44.5409779}, {"type": "node", "id": 1928606106, "lat": 40.7816475, "lon": 44.5538541}, {"type": "node", "id": 1928606108, "lat": 40.7840166, "lon": 44.4764437}, {"type": "node", "id": 1928606115, "lat": 40.7818162, "lon": 44.5480273}, {"type": "node", "id": 1928606118, "lat": 40.7817106, "lon": 44.5513117}, {"type": "node", "id": 1928606120, "lat": 40.7817001, "lon": 44.5508622}, {"type": "node", "id": 1928606122, "lat": 40.7819059, "lon": 44.5438107}, {"type": "node", "id": 1928606124, "lat": 40.7819357, "lon": 44.5418316}, {"type": "node", "id": 1928606126, "lat": 40.7819602, "lon": 44.5445647}, {"type": "node", "id": 1928606128, "lat": 40.7820085, "lon": 44.542415}, {"type": "node", "id": 1928606130, "lat": 40.7820376, "lon": 44.5475933}, {"type": "node", "id": 1928606132, "lat": 40.7821244, "lon": 44.5453908}, {"type": "node", "id": 1928606134, "lat": 40.7821563, "lon": 44.5471467}, {"type": "node", "id": 1928606136, "lat": 40.7821954, "lon": 44.5458425}, {"type": "node", "id": 1928606138, "lat": 40.782214, "lon": 44.5466972}, {"type": "node", "id": 1928606140, "lat": 40.7822352, "lon": 44.5463335}, {"type": "node", "id": 1928606142, "lat": 40.7822454, "lon": 44.532313}, {"type": "node", "id": 1928606146, "lat": 40.7826964, "lon": 44.5253062}, {"type": "node", "id": 1928606147, "lat": 40.783371, "lon": 44.4825942}, {"type": "node", "id": 1928606148, "lat": 40.7827531, "lon": 44.5219474}, {"type": "node", "id": 1928606149, "lat": 40.7828314, "lon": 44.5520569}, {"type": "node", "id": 1928606155, "lat": 40.7827286, "lon": 44.5271434}, {"type": "node", "id": 1928606157, "lat": 40.7828737, "lon": 44.5280145}, {"type": "node", "id": 1928606159, "lat": 40.7831553, "lon": 44.5261552}, {"type": "node", "id": 1928606161, "lat": 40.783573, "lon": 44.551639}, {"type": "node", "id": 1928606163, "lat": 40.7836401, "lon": 44.5287759}, {"type": "node", "id": 1928606165, "lat": 40.7837516, "lon": 44.4850245}, {"type": "node", "id": 1928606168, "lat": 40.7838989, "lon": 44.5228981}, {"type": "node", "id": 1928606170, "lat": 40.7841651, "lon": 44.5508159}, {"type": "node", "id": 1928606172, "lat": 40.784433, "lon": 44.5375246}, {"type": "node", "id": 1928606173, "lat": 40.7849379, "lon": 44.5439097}, {"type": "node", "id": 1928606175, "lat": 40.7849917, "lon": 44.5419621}, {"type": "node", "id": 1928606177, "lat": 40.7850064, "lon": 44.5495812}, {"type": "node", "id": 1928606180, "lat": 40.7850766, "lon": 44.5467974}, {"type": "node", "id": 1928606182, "lat": 40.7850861, "lon": 44.5482189}, {"type": "node", "id": 1928606184, "lat": 40.7851876, "lon": 44.5434829}, {"type": "node", "id": 1928606185, "lat": 40.7851969, "lon": 44.5431411}, {"type": "node", "id": 1928606186, "lat": 40.7852025, "lon": 44.48382}, {"type": "node", "id": 1928606187, "lat": 40.7853092, "lon": 44.5238293}, {"type": "node", "id": 1928606188, "lat": 40.785519, "lon": 44.48648}, {"type": "node", "id": 1928606193, "lat": 40.7853517, "lon": 44.4876328}, {"type": "node", "id": 1928606195, "lat": 40.7854029, "lon": 44.5445492}, {"type": "node", "id": 1928606197, "lat": 40.7855352, "lon": 44.5351912}, {"type": "node", "id": 1928606199, "lat": 40.7859742, "lon": 44.5451597}, {"type": "node", "id": 1928606201, "lat": 40.785995, "lon": 44.5465315}, {"type": "node", "id": 1928606203, "lat": 40.78602, "lon": 44.534357}, {"type": "node", "id": 1928606205, "lat": 40.7864969, "lon": 44.5462853}, {"type": "node", "id": 1928606207, "lat": 40.7864416, "lon": 44.5457702}, {"type": "node", "id": 1928606209, "lat": 40.7865194, "lon": 44.5342199}, {"type": "node", "id": 1928606211, "lat": 40.7869454, "lon": 44.5344928}, {"type": "node", "id": 1928606213, "lat": 40.7870537, "lon": 44.4878924}, {"type": "node", "id": 1928606215, "lat": 40.7872453, "lon": 44.5234911}, {"type": "node", "id": 1928606217, "lat": 40.7874742, "lon": 44.5354046}, {"type": "node", "id": 1928606219, "lat": 40.7876722, "lon": 44.5183212}, {"type": "node", "id": 1928606221, "lat": 40.7879007, "lon": 44.536552}, {"type": "node", "id": 1928606223, "lat": 40.7879319, "lon": 44.517114}, {"type": "node", "id": 1928606224, "lat": 40.7881036, "lon": 44.4848725}, {"type": "node", "id": 1928606225, "lat": 40.7879827, "lon": 44.5159717}, {"type": "node", "id": 1928606226, "lat": 40.788258, "lon": 44.5149719}, {"type": "node", "id": 1928606227, "lat": 40.7885188, "lon": 44.5139735}, {"type": "node", "id": 1928606233, "lat": 40.7888299, "lon": 44.4888588}, {"type": "node", "id": 1928606235, "lat": 40.7886973, "lon": 44.485075}, {"type": "node", "id": 1928606238, "lat": 40.7892075, "lon": 44.5367627}, {"type": "node", "id": 1928606240, "lat": 40.7892482, "lon": 44.4849469}, {"type": "node", "id": 1928606242, "lat": 40.789848, "lon": 44.5371869}, {"type": "node", "id": 1928606244, "lat": 40.7902072, "lon": 44.5055828}, {"type": "node", "id": 1928606246, "lat": 40.7901454, "lon": 44.4849041}, {"type": "node", "id": 1928606248, "lat": 40.7905001, "lon": 44.5371507}, {"type": "node", "id": 1928606250, "lat": 40.7906603, "lon": 44.5033018}, {"type": "node", "id": 1928606253, "lat": 40.7907246, "lon": 44.4848792}, {"type": "node", "id": 1928606255, "lat": 40.7909496, "lon": 44.5375555}, {"type": "node", "id": 1928606257, "lat": 40.7915392, "lon": 44.4856851}, {"type": "node", "id": 1928606259, "lat": 40.7917995, "lon": 44.4857542}, {"type": "node", "id": 1928606261, "lat": 40.7924668, "lon": 44.4859099}, {"type": "node", "id": 1928606262, "lat": 40.792034, "lon": 44.4892277}, {"type": "node", "id": 1928606263, "lat": 40.7923744, "lon": 44.5393986}, {"type": "node", "id": 1928606264, "lat": 40.7932748, "lon": 44.5038644}, {"type": "node", "id": 1928606265, "lat": 40.7945922, "lon": 44.538545}, {"type": "node", "id": 1928606266, "lat": 40.7948669, "lon": 44.4899419}, {"type": "node", "id": 1928606274, "lat": 40.79495, "lon": 44.5007264}, {"type": "node", "id": 1928606276, "lat": 40.7958169, "lon": 44.4910864}, {"type": "node", "id": 1928606278, "lat": 40.7957641, "lon": 44.4939361}, {"type": "node", "id": 1928606280, "lat": 40.796575, "lon": 44.5357125}, {"type": "node", "id": 1928606282, "lat": 40.7971388, "lon": 44.4855333}, {"type": "node", "id": 1928606285, "lat": 40.797674, "lon": 44.5340828}, {"type": "node", "id": 1928606287, "lat": 40.7985725, "lon": 44.4847093}, {"type": "node", "id": 1928606289, "lat": 40.7995257, "lon": 44.4831023}, {"type": "node", "id": 1928606291, "lat": 40.7987582, "lon": 44.5315247}, {"type": "node", "id": 1928606293, "lat": 40.8001595, "lon": 44.4824965}, {"type": "node", "id": 1928606298, "lat": 40.8014413, "lon": 44.4831155}, {"type": "node", "id": 1928606300, "lat": 40.8034013, "lon": 44.4794019}, {"type": "node", "id": 1928606301, "lat": 40.8061205, "lon": 44.4752978}, {"type": "node", "id": 1928606302, "lat": 40.8061698, "lon": 44.5261533}, {"type": "node", "id": 1928606303, "lat": 40.8061666, "lon": 44.5195808}, {"type": "node", "id": 1928606304, "lat": 40.8063467, "lon": 44.5201427}, {"type": "node", "id": 1928606311, "lat": 40.8067579, "lon": 44.5203561}, {"type": "node", "id": 1928606318, "lat": 40.8072792, "lon": 44.5216948}, {"type": "node", "id": 1928606320, "lat": 40.8074113, "lon": 44.52023}, {"type": "node", "id": 1928606322, "lat": 40.8074736, "lon": 44.5244504}, {"type": "node", "id": 1928606324, "lat": 40.8076131, "lon": 44.5225685}, {"type": "node", "id": 1928606326, "lat": 40.8077197, "lon": 44.5211321}, {"type": "node", "id": 1928606329, "lat": 40.8077567, "lon": 44.4677459}, {"type": "node", "id": 1928606331, "lat": 40.8079914, "lon": 44.5196577}, {"type": "node", "id": 1928606333, "lat": 40.8082665, "lon": 44.5198427}, {"type": "node", "id": 1928606335, "lat": 40.8085918, "lon": 44.5109134}, {"type": "node", "id": 1928606336, "lat": 40.809027, "lon": 44.4649191}, {"type": "node", "id": 1928606337, "lat": 40.8091205, "lon": 44.5075085}, {"type": "node", "id": 1928606338, "lat": 40.8098253, "lon": 44.5065676}, {"type": "node", "id": 1928606339, "lat": 40.8104273, "lon": 44.5061214}, {"type": "node", "id": 1928606340, "lat": 40.8114427, "lon": 44.5048229}, {"type": "node", "id": 1928606341, "lat": 40.8117032, "lon": 44.5006791}, {"type": "node", "id": 1928606342, "lat": 40.8118299, "lon": 44.5009728}, {"type": "node", "id": 1928606343, "lat": 40.8117306, "lon": 44.4998235}, {"type": "node", "id": 1928606344, "lat": 40.8118113, "lon": 44.4659337}, {"type": "node", "id": 1928606358, "lat": 40.8119525, "lon": 44.5042472}, {"type": "node", "id": 1928606360, "lat": 40.8120054, "lon": 44.5015159}, {"type": "node", "id": 1928606362, "lat": 40.8121773, "lon": 44.5019568}, {"type": "node", "id": 1928606364, "lat": 40.8121874, "lon": 44.499412}, {"type": "node", "id": 1928606367, "lat": 40.8125541, "lon": 44.5024319}, {"type": "node", "id": 1928606369, "lat": 40.8135413, "lon": 44.4988385}, {"type": "node", "id": 1928606371, "lat": 40.8141513, "lon": 44.465319}, {"type": "node", "id": 1928606372, "lat": 40.8143185, "lon": 44.4561464}, {"type": "node", "id": 1928606373, "lat": 40.8146389, "lon": 44.497823}, {"type": "node", "id": 1928606374, "lat": 40.8151707, "lon": 44.4991949}, {"type": "node", "id": 1928606375, "lat": 40.8152278, "lon": 44.4993115}, {"type": "node", "id": 1928606376, "lat": 40.8152589, "lon": 44.4977133}, {"type": "node", "id": 1928606378, "lat": 40.8147299, "lon": 44.4645242}, {"type": "node", "id": 1928606379, "lat": 40.8144274, "lon": 44.4637858}, {"type": "node", "id": 1928606380, "lat": 40.8164611, "lon": 44.4991001}, {"type": "node", "id": 1928606381, "lat": 40.8166905, "lon": 44.4987242}, {"type": "node", "id": 1928606382, "lat": 40.8167419, "lon": 44.4976838}, {"type": "node", "id": 1928606385, "lat": 40.8167419, "lon": 44.4982173}, {"type": "node", "id": 1928606387, "lat": 40.8167687, "lon": 44.4973495}, {"type": "node", "id": 1928606403, "lat": 40.8168392, "lon": 44.4970484}, {"type": "node", "id": 1928606406, "lat": 40.8174617, "lon": 44.4954627}, {"type": "node", "id": 1928606408, "lat": 40.8175343, "lon": 44.4951197}, {"type": "node", "id": 1928606410, "lat": 40.8175359, "lon": 44.4947288}, {"type": "node", "id": 1928606413, "lat": 40.8179403, "lon": 44.4933825}, {"type": "node", "id": 1928606414, "lat": 40.8183802, "lon": 44.4921446}, {"type": "node", "id": 1928606415, "lat": 40.8184615, "lon": 44.4919275}, {"type": "node", "id": 1928606416, "lat": 40.8185569, "lon": 44.4907731}, {"type": "node", "id": 1928606417, "lat": 40.8187111, "lon": 44.491229}, {"type": "node", "id": 1928606418, "lat": 40.8187258, "lon": 44.4902396}, {"type": "node", "id": 1928606420, "lat": 40.8189093, "lon": 44.4900747}, {"type": "node", "id": 1928606421, "lat": 40.8190373, "lon": 44.4920088}, {"type": "node", "id": 1928606422, "lat": 40.8190782, "lon": 44.491685}, {"type": "node", "id": 1928606423, "lat": 40.8192328, "lon": 44.4905889}, {"type": "node", "id": 1928606424, "lat": 40.8193424, "lon": 44.4897061}, {"type": "node", "id": 1928606425, "lat": 40.8193718, "lon": 44.489192}, {"type": "node", "id": 1928606427, "lat": 40.8198857, "lon": 44.4883092}, {"type": "node", "id": 1928606429, "lat": 40.8199004, "lon": 44.4874168}, {"type": "node", "id": 1928606431, "lat": 40.819931, "lon": 44.4868321}, {"type": "node", "id": 1928606433, "lat": 40.8201953, "lon": 44.4865314}, {"type": "node", "id": 1928606449, "lat": 40.820621, "lon": 44.4856584}, {"type": "node", "id": 1928606451, "lat": 40.8208339, "lon": 44.4851248}, {"type": "node", "id": 1928606454, "lat": 40.8215019, "lon": 44.4849114}, {"type": "node", "id": 1928606456, "lat": 40.8220305, "lon": 44.484601}, {"type": "node", "id": 1928606457, "lat": 40.8222924, "lon": 44.4827846}, {"type": "node", "id": 1928606458, "lat": 40.8224198, "lon": 44.4834454}, {"type": "node", "id": 1928606459, "lat": 40.822452, "lon": 44.4816502}, {"type": "node", "id": 1928606461, "lat": 40.8227436, "lon": 44.4838898}, {"type": "node", "id": 1928606462, "lat": 40.8226598, "lon": 44.4814161}, {"type": "node", "id": 1928606463, "lat": 40.822856, "lon": 44.4812634}, {"type": "node", "id": 1928606464, "lat": 40.8235723, "lon": 44.4808038}, {"type": "node", "id": 1928606465, "lat": 40.8239999, "lon": 44.4786381}, {"type": "node", "id": 1928606466, "lat": 40.8260979, "lon": 44.4743332}, {"type": "node", "id": 1928606467, "lat": 40.8256758, "lon": 44.4717024}, {"type": "node", "id": 1928606469, "lat": 40.8270558, "lon": 44.466697}, {"type": "node", "id": 1928606471, "lat": 40.8230796, "lon": 44.4408496}, {"type": "node", "id": 1928606473, "lat": 40.8276265, "lon": 44.4621488}, {"type": "node", "id": 1928606475, "lat": 40.8219603, "lon": 44.4393231}, {"type": "node", "id": 1928606477, "lat": 40.8283391, "lon": 44.4627358}, {"type": "node", "id": 1928606490, "lat": 40.8222881, "lon": 44.4389049}, {"type": "node", "id": 1928606493, "lat": 40.827372, "lon": 44.4406762}, {"type": "node", "id": 1928606495, "lat": 40.8277214, "lon": 44.4402965}, {"type": "node", "id": 1928606497, "lat": 40.8286041, "lon": 44.4396877}, {"type": "node", "id": 1928606500, "lat": 40.8292594, "lon": 44.461959}, {"type": "node", "id": 1928606501, "lat": 40.8288419, "lon": 44.4388094}, {"type": "node", "id": 1928606502, "lat": 40.8290981, "lon": 44.4376041}, {"type": "node", "id": 1928606503, "lat": 40.8304374, "lon": 44.4371707}, {"type": "node", "id": 1928606504, "lat": 40.830745, "lon": 44.4366439}, {"type": "node", "id": 1928606505, "lat": 40.8314499, "lon": 44.4355374}, {"type": "node", "id": 1928606507, "lat": 40.8317593, "lon": 44.4350741}, {"type": "node", "id": 1928606508, "lat": 40.8321577, "lon": 44.4346169}, {"type": "node", "id": 1928606509, "lat": 40.8326364, "lon": 44.4341481}, {"type": "node", "id": 1928606510, "lat": 40.8332186, "lon": 44.4336291}, {"type": "node", "id": 1928606511, "lat": 40.833798, "lon": 44.4326924}, {"type": "node", "id": 1928606512, "lat": 40.8347516, "lon": 44.4320856}, {"type": "node", "id": 1928606514, "lat": 40.8361105, "lon": 44.4613748}, {"type": "node", "id": 1928606516, "lat": 40.8382299, "lon": 44.4617505}, {"type": "node", "id": 1928606518, "lat": 40.8390008, "lon": 44.4610497}, {"type": "node", "id": 1928606520, "lat": 40.8395753, "lon": 44.4605869}, {"type": "node", "id": 1928606538, "lat": 40.8396461, "lon": 44.4282256}, {"type": "node", "id": 1928606541, "lat": 40.8400079, "lon": 44.460517}, {"type": "node", "id": 1928606545, "lat": 40.8407664, "lon": 44.4597463}, {"type": "node", "id": 1928606547, "lat": 40.841126, "lon": 44.4589896}, {"type": "node", "id": 1928606548, "lat": 40.8439079, "lon": 44.4450385}, {"type": "node", "id": 1928606549, "lat": 40.8439588, "lon": 44.4544843}, {"type": "node", "id": 1928606550, "lat": 40.843997, "lon": 44.4219145}, {"type": "node", "id": 1928606552, "lat": 40.8443404, "lon": 44.4509145}, {"type": "node", "id": 1928606553, "lat": 40.8448765, "lon": 44.4466682}, {"type": "node", "id": 1928606554, "lat": 40.8482782, "lon": 44.4276495}, {"type": "node", "id": 1928606555, "lat": 40.8471105, "lon": 44.4221118}, {"type": "node", "id": 1928606556, "lat": 40.8486666, "lon": 44.4288095}, {"type": "node", "id": 1928606557, "lat": 40.8481268, "lon": 44.426585}, {"type": "node", "id": 1928606559, "lat": 40.8480237, "lon": 44.4235523}, {"type": "node", "id": 1934339064, "lat": 40.7843541, "lon": 44.4855226}, {"type": "node", "id": 1934339066, "lat": 40.7851779, "lon": 44.4907645}, {"type": "node", "id": 1934339068, "lat": 40.7852787, "lon": 44.4909472}, {"type": "node", "id": 1934339070, "lat": 40.7853144, "lon": 44.4860751}, {"type": "node", "id": 1934339072, "lat": 40.7855247, "lon": 44.489409}, {"type": "node", "id": 1934339074, "lat": 40.7856046, "lon": 44.4918875}, {"type": "node", "id": 1934339076, "lat": 40.7857072, "lon": 44.4885382}, {"type": "node", "id": 1934339078, "lat": 40.78631, "lon": 44.4921512}, {"type": "node", "id": 1934339079, "lat": 40.7864118, "lon": 44.489432}, {"type": "node", "id": 1934339081, "lat": 40.7867758, "lon": 44.490657}, {"type": "node", "id": 1934339082, "lat": 40.7868869, "lon": 44.4887907}, {"type": "node", "id": 1934339083, "lat": 40.7870066, "lon": 44.4884479}, {"type": "node", "id": 1934339085, "lat": 40.7876189, "lon": 44.4879645}, {"type": "node", "id": 1934339089, "lat": 40.7879915, "lon": 44.4882106}, {"type": "node", "id": 1934339091, "lat": 40.7883841, "lon": 44.4885446}, {"type": "node", "id": 1934339093, "lat": 40.7903499, "lon": 44.4893887}, {"type": "node", "id": 1934339095, "lat": 40.7909501, "lon": 44.4891527}, {"type": "node", "id": 1934339097, "lat": 40.7927793, "lon": 44.4894314}, {"type": "node", "id": 1934339099, "lat": 40.7936038, "lon": 44.4897143}, {"type": "node", "id": 1934339101, "lat": 40.7937604, "lon": 44.5037811}, {"type": "node", "id": 1934339103, "lat": 40.7939776, "lon": 44.5033357}, {"type": "node", "id": 1934339105, "lat": 40.794246, "lon": 44.5027129}, {"type": "node", "id": 1934339107, "lat": 40.7943819, "lon": 44.4898302}, {"type": "node", "id": 1934339109, "lat": 40.7953723, "lon": 44.4902839}, {"type": "node", "id": 1934339111, "lat": 40.7954932, "lon": 44.4990602}, {"type": "node", "id": 1934339113, "lat": 40.7956685, "lon": 44.4904375}, {"type": "node", "id": 1934339115, "lat": 40.7957276, "lon": 44.4906505}, {"type": "node", "id": 1934339117, "lat": 40.7958079, "lon": 44.4959994}, {"type": "node", "id": 1934339119, "lat": 40.795848, "lon": 44.4925825}, {"type": "node", "id": 1934339121, "lat": 40.7958613, "lon": 44.4915278}, {"type": "node", "id": 1934339122, "lat": 40.7958813, "lon": 44.4918793}, {"type": "node", "id": 1934388746, "lat": 40.7988754, "lon": 44.484325}, {"type": "node", "id": 1934388748, "lat": 40.7991954, "lon": 44.4836147}, {"type": "node", "id": 1934388751, "lat": 40.8008196, "lon": 44.4831001}, {"type": "node", "id": 1934388753, "lat": 40.8018593, "lon": 44.4828174}, {"type": "node", "id": 1934388760, "lat": 40.8027781, "lon": 44.4820661}, {"type": "node", "id": 1934388761, "lat": 40.8029942, "lon": 44.4818063}, {"type": "node", "id": 1934388762, "lat": 40.8031685, "lon": 44.4814011}, {"type": "node", "id": 1934388763, "lat": 40.8034951, "lon": 44.4774489}, {"type": "node", "id": 1934388764, "lat": 40.8037878, "lon": 44.4758581}, {"type": "node", "id": 1934388766, "lat": 40.8040578, "lon": 44.4749962}, {"type": "node", "id": 1934388768, "lat": 40.8045159, "lon": 44.4754431}, {"type": "node", "id": 1934388770, "lat": 40.8047699, "lon": 44.4756482}, {"type": "node", "id": 1934388772, "lat": 40.8050558, "lon": 44.4757961}, {"type": "node", "id": 1934388774, "lat": 40.8055508, "lon": 44.4758035}, {"type": "node", "id": 1934388775, "lat": 40.8058095, "lon": 44.4758098}, {"type": "node", "id": 1934388777, "lat": 40.8065521, "lon": 44.4744866}, {"type": "node", "id": 1934388779, "lat": 40.8069802, "lon": 44.4734736}, {"type": "node", "id": 1934388781, "lat": 40.8076562, "lon": 44.4700751}, {"type": "node", "id": 1934388784, "lat": 40.8076717, "lon": 44.4723922}, {"type": "node", "id": 1934388786, "lat": 40.8078192, "lon": 44.4708486}, {"type": "node", "id": 1934388787, "lat": 40.8078975, "lon": 44.4719448}, {"type": "node", "id": 1934388790, "lat": 40.8079271, "lon": 44.4676932}, {"type": "node", "id": 1934388791, "lat": 40.8081855, "lon": 44.4678518}, {"type": "node", "id": 1934388800, "lat": 40.8083751, "lon": 44.4679573}, {"type": "node", "id": 1934388802, "lat": 40.8086212, "lon": 44.4662346}, {"type": "node", "id": 1934388804, "lat": 40.8088008, "lon": 44.4668806}, {"type": "node", "id": 1934388806, "lat": 40.8088108, "lon": 44.4655974}, {"type": "node", "id": 1934388809, "lat": 40.8088916, "lon": 44.4653436}, {"type": "node", "id": 1934388811, "lat": 40.8091268, "lon": 44.464834}, {"type": "node", "id": 1934388812, "lat": 40.8095643, "lon": 44.4652069}, {"type": "node", "id": 1934388814, "lat": 40.8102228, "lon": 44.4653125}, {"type": "node", "id": 1934388816, "lat": 40.8110181, "lon": 44.4656426}, {"type": "node", "id": 1934388818, "lat": 40.8137203, "lon": 44.461871}, {"type": "node", "id": 1935498352, "lat": 40.8137897, "lon": 44.4573369}, {"type": "node", "id": 1935498353, "lat": 40.8174834, "lon": 44.4545828}, {"type": "node", "id": 1936263205, "lat": 40.8140928, "lon": 44.4983014}, {"type": "node", "id": 1936263206, "lat": 40.8148868, "lon": 44.4976226}, {"type": "node", "id": 1936263207, "lat": 40.8151829, "lon": 44.4977424}, {"type": "node", "id": 1936263208, "lat": 40.8151928, "lon": 44.4984868}, {"type": "node", "id": 1936263210, "lat": 40.8152644, "lon": 44.4980463}, {"type": "node", "id": 1936263212, "lat": 40.8152995, "lon": 44.4978322}, {"type": "node", "id": 1946801526, "lat": 40.8053094, "lon": 44.5240503}, {"type": "node", "id": 1947319220, "lat": 40.8223025, "lon": 44.4483602}, {"type": "node", "id": 1947319221, "lat": 40.8225224, "lon": 44.4400966}, {"type": "node", "id": 1947319222, "lat": 40.8230231, "lon": 44.443905}, {"type": "node", "id": 1947319224, "lat": 40.8230774, "lon": 44.4391807}, {"type": "node", "id": 1947319228, "lat": 40.823361, "lon": 44.4415976}, {"type": "node", "id": 1947319231, "lat": 40.8236635, "lon": 44.4396152}, {"type": "node", "id": 1947319233, "lat": 40.8239848, "lon": 44.4405997}, {"type": "node", "id": 1947319244, "lat": 40.8241023, "lon": 44.4408407}, {"type": "node", "id": 1947319245, "lat": 40.8243967, "lon": 44.4409313}, {"type": "node", "id": 1947319248, "lat": 40.8250154, "lon": 44.4403823}, {"type": "node", "id": 1947319250, "lat": 40.8255444, "lon": 44.4397079}, {"type": "node", "id": 1947319252, "lat": 40.8258715, "lon": 44.4396461}, {"type": "node", "id": 1947319254, "lat": 40.8261461, "lon": 44.4397072}, {"type": "node", "id": 1947319256, "lat": 40.8265674, "lon": 44.4401057}, {"type": "node", "id": 1947331558, "lat": 40.7915499, "lon": 44.4891467}, {"type": "node", "id": 1947331559, "lat": 40.7946022, "lon": 44.4898633}, {"type": "node", "id": 1947331560, "lat": 40.795134, "lon": 44.4902066}, {"type": "node", "id": 1947331562, "lat": 40.7955411, "lon": 44.4903403}, {"type": "node", "id": 1947332955, "lat": 40.7804387, "lon": 44.4805249}, {"type": "node", "id": 1947332956, "lat": 40.7806231, "lon": 44.4815304}, {"type": "node", "id": 1947332957, "lat": 40.7808438, "lon": 44.4799027}, {"type": "node", "id": 1947520726, "lat": 40.80738, "lon": 44.5236639}, {"type": "node", "id": 1947520727, "lat": 40.807751, "lon": 44.5228147}, {"type": "node", "id": 1947520728, "lat": 40.8081474, "lon": 44.5206833}, {"type": "node", "id": 1947520729, "lat": 40.8083209, "lon": 44.5201483}, {"type": "node", "id": 1948666472, "lat": 40.8120749, "lon": 44.5017704}, {"type": "node", "id": 1948666473, "lat": 40.8124168, "lon": 44.5021845}, {"type": "node", "id": 1955816990, "lat": 40.8192418, "lon": 44.4550133}, {"type": "node", "id": 1955816991, "lat": 40.822054, "lon": 44.4497104}, {"type": "node", "id": 1955816992, "lat": 40.823308, "lon": 44.4532855}, {"type": "node", "id": 1955816993, "lat": 40.8224649, "lon": 44.4476954}, {"type": "node", "id": 1955816994, "lat": 40.8226568, "lon": 44.4466314}, {"type": "node", "id": 1955816995, "lat": 40.8226668, "lon": 44.4470333}, {"type": "node", "id": 1955816996, "lat": 40.8234904, "lon": 44.4513831}, {"type": "node", "id": 1977291251, "lat": 40.7854272, "lon": 44.4868441}, {"type": "node", "id": 1977291253, "lat": 40.7854841, "lon": 44.4873107}, {"type": "node", "id": 1977291261, "lat": 40.7855491, "lon": 44.4871364}, {"type": "node", "id": 1977333294, "lat": 40.7906452, "lon": 44.5063546}, {"type": "node", "id": 1977333332, "lat": 40.7936418, "lon": 44.5039375}, {"type": "node", "id": 1977344275, "lat": 40.7783561, "lon": 44.5197386}, {"type": "node", "id": 1977344276, "lat": 40.7783663, "lon": 44.5198888}, {"type": "node", "id": 1977344317, "lat": 40.7806488, "lon": 44.5245961}, {"type": "node", "id": 1977344320, "lat": 40.78065, "lon": 44.5248243}, {"type": "node", "id": 1977344323, "lat": 40.7806702, "lon": 44.5227728}, {"type": "node", "id": 1977344332, "lat": 40.7808206, "lon": 44.5249316}, {"type": "node", "id": 1977344339, "lat": 40.7810927, "lon": 44.5231376}, {"type": "node", "id": 1977344348, "lat": 40.7812593, "lon": 44.5248887}, {"type": "node", "id": 1977344350, "lat": 40.7812958, "lon": 44.5237115}, {"type": "node", "id": 1977344352, "lat": 40.7818723, "lon": 44.524672}, {"type": "node", "id": 1977344357, "lat": 40.7832244, "lon": 44.5258872}, {"type": "node", "id": 1977731364, "lat": 40.7888797, "lon": 44.485085}, {"type": "node", "id": 1977731365, "lat": 40.789643, "lon": 44.4846752}, {"type": "node", "id": 1977731370, "lat": 40.7899389, "lon": 44.484738}, {"type": "node", "id": 1977731373, "lat": 40.7903149, "lon": 44.4849914}, {"type": "node", "id": 1977731375, "lat": 40.790905, "lon": 44.4853462}, {"type": "node", "id": 1977731377, "lat": 40.79111, "lon": 44.4855845}, {"type": "node", "id": 1977731381, "lat": 40.798254, "lon": 44.4850762}, {"type": "node", "id": 1977742323, "lat": 40.8218922, "lon": 44.453944}, {"type": "node", "id": 1977742330, "lat": 40.8222679, "lon": 44.4500494}, {"type": "node", "id": 1977742340, "lat": 40.8225101, "lon": 44.45326}, {"type": "node", "id": 1977742342, "lat": 40.8228169, "lon": 44.4500642}, {"type": "node", "id": 1977742354, "lat": 40.8232128, "lon": 44.4507305}, {"type": "node", "id": 1977742355, "lat": 40.8234145, "lon": 44.4520481}, {"type": "node", "id": 1977742356, "lat": 40.8235164, "lon": 44.452742}, {"type": "node", "id": 1990008638, "lat": 40.534475, "lon": 44.9580811}, {"type": "node", "id": 1990008653, "lat": 40.535798, "lon": 44.9614406}, {"type": "node", "id": 1990008697, "lat": 40.5362179, "lon": 44.9618992}, {"type": "node", "id": 1990008752, "lat": 40.5361781, "lon": 44.9679074}, {"type": "node", "id": 1990008760, "lat": 40.5352078, "lon": 44.9608505}, {"type": "node", "id": 1990008798, "lat": 40.5356858, "lon": 44.9656463}, {"type": "node", "id": 1990008804, "lat": 40.5366154, "lon": 44.963648}, {"type": "node", "id": 1990008860, "lat": 40.5341745, "lon": 44.9573487}, {"type": "node", "id": 1990008905, "lat": 40.5355126, "lon": 44.9659601}, {"type": "node", "id": 1990009014, "lat": 40.5347879, "lon": 44.9601518}, {"type": "node", "id": 1990009054, "lat": 40.5345304, "lon": 44.9590551}, {"type": "node", "id": 1990009062, "lat": 40.5366908, "lon": 44.9627736}, {"type": "node", "id": 1990009106, "lat": 40.5346115, "lon": 44.9666373}, {"type": "node", "id": 1990009120, "lat": 40.5343384, "lon": 44.9576814}, {"type": "node", "id": 1990009143, "lat": 40.5362699, "lon": 44.9644688}, {"type": "node", "id": 1990009159, "lat": 40.5359345, "lon": 44.9674501}, {"type": "node", "id": 1990009165, "lat": 40.535057, "lon": 44.9671322}, {"type": "node", "id": 1990009171, "lat": 40.5345064, "lon": 44.958299}, {"type": "node", "id": 1990009174, "lat": 40.5329542, "lon": 44.9557945}, {"type": "node", "id": 1990009205, "lat": 40.534951, "lon": 44.9665488}, {"type": "node", "id": 1990333935, "lat": 40.7814562, "lon": 44.4833703}, {"type": "node", "id": 1995041543, "lat": 40.801999, "lon": 44.5239438}, {"type": "node", "id": 2001911007, "lat": 40.8137296, "lon": 44.4612901}, {"type": "node", "id": 2032824241, "lat": 40.5347919, "lon": 44.7608184}, {"type": "node", "id": 2032824337, "lat": 40.5243914, "lon": 44.7601274}, {"type": "node", "id": 2032824449, "lat": 40.5431782, "lon": 44.9263632}, {"type": "node", "id": 2032824598, "lat": 40.5360037, "lon": 44.7604443}, {"type": "node", "id": 2032824651, "lat": 40.525812, "lon": 44.7493213}, {"type": "node", "id": 2032824714, "lat": 40.5247317, "lon": 44.7464512}, {"type": "node", "id": 2032824744, "lat": 40.5269195, "lon": 44.7627731}, {"type": "node", "id": 2032824775, "lat": 40.5223509, "lon": 44.7537867}, {"type": "node", "id": 2032824806, "lat": 40.542947, "lon": 44.9289365}, {"type": "node", "id": 2034544332, "lat": 40.4978481, "lon": 44.739769}, {"type": "node", "id": 2037540580, "lat": 40.5542813, "lon": 44.7608171}, {"type": "node", "id": 2037540620, "lat": 40.5577378, "lon": 44.7607587}, {"type": "node", "id": 2037540653, "lat": 40.560426, "lon": 44.7624122}, {"type": "node", "id": 2037540655, "lat": 40.5620077, "lon": 44.759465}, {"type": "node", "id": 2040295257, "lat": 40.5105199, "lon": 44.7922759}, {"type": "node", "id": 2317750202, "lat": 40.52241, "lon": 44.7130505}, {"type": "node", "id": 2317750203, "lat": 40.5279875, "lon": 44.7248071}, {"type": "node", "id": 2317750204, "lat": 40.5280226, "lon": 44.7278085}, {"type": "node", "id": 2317750205, "lat": 40.5230221, "lon": 44.7164698}, {"type": "node", "id": 2317750206, "lat": 40.5239857, "lon": 44.71912}, {"type": "node", "id": 2317750207, "lat": 40.5294562, "lon": 44.7305077}, {"type": "node", "id": 2317750208, "lat": 40.5222433, "lon": 44.7089126}, {"type": "node", "id": 2317750209, "lat": 40.5294941, "lon": 44.7331437}, {"type": "node", "id": 2317750210, "lat": 40.530787, "lon": 44.7338571}, {"type": "node", "id": 2317750211, "lat": 40.5313953, "lon": 44.7371768}, {"type": "node", "id": 2317750212, "lat": 40.5357102, "lon": 44.7059949}, {"type": "node", "id": 2317750213, "lat": 40.5373031, "lon": 44.7124235}, {"type": "node", "id": 2317750214, "lat": 40.5387112, "lon": 44.7330273}, {"type": "node", "id": 2317750215, "lat": 40.5328078, "lon": 44.7478195}, {"type": "node", "id": 2317750216, "lat": 40.541647, "lon": 44.7152128}, {"type": "node", "id": 2317750217, "lat": 40.5393878, "lon": 44.729731}, {"type": "node", "id": 2317750218, "lat": 40.5375334, "lon": 44.735188}, {"type": "node", "id": 2317750219, "lat": 40.5416049, "lon": 44.7226846}, {"type": "node", "id": 2565332153, "lat": 40.524833, "lon": 44.7026949}, {"type": "node", "id": 2565332154, "lat": 40.5377084, "lon": 44.697547}, {"type": "node", "id": 2948942959, "lat": 40.7427148, "lon": 44.8797479}, {"type": "node", "id": 2958958479, "lat": 40.8366197, "lon": 44.4309756}, {"type": "node", "id": 3152843788, "lat": 40.535922, "lon": 44.6932369}, {"type": "node", "id": 3152843791, "lat": 40.5278904, "lon": 44.6955742}, {"type": "node", "id": 3736463022, "lat": 40.5484041, "lon": 44.9253859}, {"type": "node", "id": 3736463730, "lat": 40.5504674, "lon": 44.9275599}, {"type": "node", "id": 3772941058, "lat": 40.7808836, "lon": 44.5502627}, {"type": "node", "id": 3810948747, "lat": 40.7865305, "lon": 44.4843964}, {"type": "node", "id": 4042777490, "lat": 40.5426255, "lon": 44.7189147}, {"type": "node", "id": 4293552260, "lat": 40.5245987, "lon": 44.7463468}, {"type": "node", "id": 4451539014, "lat": 40.7610836, "lon": 44.8375357}, {"type": "node", "id": 4684802388, "lat": 40.7835514, "lon": 44.4762276}, {"type": "node", "id": 4684803689, "lat": 40.7813112, "lon": 44.4803918}, {"type": "node", "id": 4761481689, "lat": 40.5126426, "lon": 44.768259}, {"type": "node", "id": 5005022854, "lat": 40.5594848, "lon": 44.7622509}, {"type": "node", "id": 5005022855, "lat": 40.5611374, "lon": 44.7617739}, {"type": "node", "id": 5005022862, "lat": 40.5568907, "lon": 44.7601294}, {"type": "node", "id": 5005022863, "lat": 40.5559627, "lon": 44.760778}, {"type": "node", "id": 5005022864, "lat": 40.5554041, "lon": 44.7613235}, {"type": "node", "id": 5222046231, "lat": 40.7261855, "lon": 44.8654175}, {"type": "node", "id": 5222046232, "lat": 40.7271369, "lon": 44.8659968}, {"type": "node", "id": 5222046233, "lat": 40.729389, "lon": 44.8658788}, {"type": "node", "id": 5222046234, "lat": 40.7308692, "lon": 44.8656317}, {"type": "node", "id": 5222046235, "lat": 40.7319093, "lon": 44.8654819}, {"type": "node", "id": 5222046236, "lat": 40.7328605, "lon": 44.8650956}, {"type": "node", "id": 5222046237, "lat": 40.7347304, "lon": 44.8643232}, {"type": "node", "id": 5222046238, "lat": 40.7365148, "lon": 44.8637867}, {"type": "node", "id": 5222046239, "lat": 40.7371773, "lon": 44.8624778}, {"type": "node", "id": 5222046240, "lat": 40.7369822, "lon": 44.8579931}, {"type": "node", "id": 5222046241, "lat": 40.7369654, "lon": 44.8545272}, {"type": "node", "id": 5222046242, "lat": 40.7369985, "lon": 44.8519206}, {"type": "node", "id": 5222046243, "lat": 40.7361693, "lon": 44.8505687}, {"type": "node", "id": 5222046244, "lat": 40.7364132, "lon": 44.8488736}, {"type": "node", "id": 5222046245, "lat": 40.7367058, "lon": 44.8452902}, {"type": "node", "id": 5222046246, "lat": 40.7368309, "lon": 44.8415701}, {"type": "node", "id": 5222046247, "lat": 40.738039, "lon": 44.8338318}, {"type": "node", "id": 5222046248, "lat": 40.7380228, "lon": 44.832716}, {"type": "node", "id": 5222046249, "lat": 40.7378765, "lon": 44.8316002}, {"type": "node", "id": 5222046250, "lat": 40.7381041, "lon": 44.8296261}, {"type": "node", "id": 5222046251, "lat": 40.7385431, "lon": 44.8282099}, {"type": "node", "id": 5222046252, "lat": 40.7393866, "lon": 44.8275248}, {"type": "node", "id": 5222046253, "lat": 40.7402487, "lon": 44.8272281}, {"type": "node", "id": 5222046254, "lat": 40.7405107, "lon": 44.8263536}, {"type": "node", "id": 5222046255, "lat": 40.7417621, "lon": 44.8257208}, {"type": "node", "id": 5222046256, "lat": 40.7427701, "lon": 44.8244548}, {"type": "node", "id": 5222046257, "lat": 40.7439894, "lon": 44.8236179}, {"type": "node", "id": 5222046258, "lat": 40.7446884, "lon": 44.8221373}, {"type": "node", "id": 5222046259, "lat": 40.7450136, "lon": 44.821279}, {"type": "node", "id": 5222046260, "lat": 40.7456476, "lon": 44.8193478}, {"type": "node", "id": 5222046261, "lat": 40.7461353, "lon": 44.8174703}, {"type": "node", "id": 5222046262, "lat": 40.7464604, "lon": 44.8156571}, {"type": "node", "id": 5222046263, "lat": 40.7469319, "lon": 44.8139405}, {"type": "node", "id": 5222046264, "lat": 40.7474683, "lon": 44.8122024}, {"type": "node", "id": 5222046265, "lat": 40.7477934, "lon": 44.8111939}, {"type": "node", "id": 5222046266, "lat": 40.7481023, "lon": 44.8095417}, {"type": "node", "id": 5222046267, "lat": 40.7487525, "lon": 44.8078251}, {"type": "node", "id": 5222046268, "lat": 40.749732, "lon": 44.8076641}, {"type": "node", "id": 5222046269, "lat": 40.7518614, "lon": 44.8065483}, {"type": "node", "id": 5222046270, "lat": 40.7541005, "lon": 44.8055506}, {"type": "node", "id": 5222046271, "lat": 40.7524303, "lon": 44.8087799}, {"type": "node", "id": 5222046272, "lat": 40.7509633, "lon": 44.8091769}, {"type": "node", "id": 5222046273, "lat": 40.7492971, "lon": 44.8117196}, {"type": "node", "id": 5222046274, "lat": 40.7487525, "lon": 44.8135328}, {"type": "node", "id": 5222046275, "lat": 40.7485648, "lon": 44.8144053}, {"type": "node", "id": 5222046276, "lat": 40.7487323, "lon": 44.8154104}, {"type": "node", "id": 5222046277, "lat": 40.7483787, "lon": 44.8173952}, {"type": "node", "id": 5222046278, "lat": 40.7478259, "lon": 44.8187256}, {"type": "node", "id": 5222046279, "lat": 40.7475984, "lon": 44.8194122}, {"type": "node", "id": 5222046280, "lat": 40.7478259, "lon": 44.8203134}, {"type": "node", "id": 5222046281, "lat": 40.7481836, "lon": 44.8221159}, {"type": "node", "id": 5222046282, "lat": 40.7479923, "lon": 44.8228074}, {"type": "node", "id": 5222046283, "lat": 40.7478422, "lon": 44.8232317}, {"type": "node", "id": 5222046284, "lat": 40.7474195, "lon": 44.8236823}, {"type": "node", "id": 5222046285, "lat": 40.7464442, "lon": 44.8248625}, {"type": "node", "id": 5222046286, "lat": 40.7463954, "lon": 44.8264289}, {"type": "node", "id": 5222046287, "lat": 40.7469969, "lon": 44.8272443}, {"type": "node", "id": 5222046288, "lat": 40.7478747, "lon": 44.8282957}, {"type": "node", "id": 5222046289, "lat": 40.7485, "lon": 44.8278268}, {"type": "node", "id": 5222046290, "lat": 40.7498484, "lon": 44.8281345}, {"type": "node", "id": 5222046292, "lat": 40.7508581, "lon": 44.8303448}, {"type": "node", "id": 5222046293, "lat": 40.7522112, "lon": 44.8312238}, {"type": "node", "id": 5222046294, "lat": 40.7523027, "lon": 44.8298745}, {"type": "node", "id": 5222046295, "lat": 40.7527235, "lon": 44.8285866}, {"type": "node", "id": 5222046296, "lat": 40.7535268, "lon": 44.8277154}, {"type": "node", "id": 5222046297, "lat": 40.754061, "lon": 44.8269991}, {"type": "node", "id": 5222046298, "lat": 40.755856, "lon": 44.8280382}, {"type": "node", "id": 5222046299, "lat": 40.7576927, "lon": 44.8295188}, {"type": "node", "id": 5222046300, "lat": 40.7585221, "lon": 44.8303466}, {"type": "node", "id": 5222046301, "lat": 40.7589279, "lon": 44.8307848}, {"type": "node", "id": 5222046302, "lat": 40.7596918, "lon": 44.8319006}, {"type": "node", "id": 5222046303, "lat": 40.7602119, "lon": 44.8326087}, {"type": "node", "id": 5222046304, "lat": 40.7604232, "lon": 44.8341965}, {"type": "node", "id": 5222046305, "lat": 40.7608946, "lon": 44.8344326}, {"type": "node", "id": 5222046306, "lat": 40.7611871, "lon": 44.8349261}, {"type": "node", "id": 5222046307, "lat": 40.7613822, "lon": 44.8365569}, {"type": "node", "id": 5222046308, "lat": 40.7611546, "lon": 44.8373294}, {"type": "node", "id": 5222046309, "lat": 40.7609108, "lon": 44.8380375}, {"type": "node", "id": 5222046310, "lat": 40.7606508, "lon": 44.8386383}, {"type": "node", "id": 5222046311, "lat": 40.7601144, "lon": 44.8391533}, {"type": "node", "id": 5222046312, "lat": 40.7591392, "lon": 44.8399687}, {"type": "node", "id": 5222046313, "lat": 40.7584728, "lon": 44.8408484}, {"type": "node", "id": 5222046314, "lat": 40.757839, "lon": 44.8415565}, {"type": "node", "id": 5222046315, "lat": 40.7509188, "lon": 44.8434985}, {"type": "node", "id": 5222046316, "lat": 40.7490222, "lon": 44.8470386}, {"type": "node", "id": 5222046317, "lat": 40.7482923, "lon": 44.8479591}, {"type": "node", "id": 5222046318, "lat": 40.7475308, "lon": 44.8497712}, {"type": "node", "id": 5222046319, "lat": 40.7474784, "lon": 44.8507491}, {"type": "node", "id": 5222046320, "lat": 40.7474358, "lon": 44.8512339}, {"type": "node", "id": 5222046321, "lat": 40.7481673, "lon": 44.8526716}, {"type": "node", "id": 5222046322, "lat": 40.7481998, "lon": 44.8531008}, {"type": "node", "id": 5222046323, "lat": 40.7479072, "lon": 44.854474}, {"type": "node", "id": 5222046324, "lat": 40.747192, "lon": 44.8550534}, {"type": "node", "id": 5222046325, "lat": 40.7460703, "lon": 44.8557186}, {"type": "node", "id": 5222046326, "lat": 40.7452314, "lon": 44.8568552}, {"type": "node", "id": 5222046327, "lat": 40.7449811, "lon": 44.8586368}, {"type": "node", "id": 5222046328, "lat": 40.7449486, "lon": 44.8609542}, {"type": "node", "id": 5222046329, "lat": 40.7453387, "lon": 44.8637867}, {"type": "node", "id": 5222046330, "lat": 40.7462816, "lon": 44.8658895}, {"type": "node", "id": 5222046331, "lat": 40.7482951, "lon": 44.8670086}, {"type": "node", "id": 5222046332, "lat": 40.7552302, "lon": 44.8735626}, {"type": "node", "id": 5222047855, "lat": 40.7397519, "lon": 44.8733602}, {"type": "node", "id": 5222047856, "lat": 40.7397482, "lon": 44.8724757}, {"type": "node", "id": 5222047857, "lat": 40.7391193, "lon": 44.8720244}, {"type": "node", "id": 5222047858, "lat": 40.738801, "lon": 44.8707031}, {"type": "node", "id": 5222047859, "lat": 40.7378074, "lon": 44.8702882}, {"type": "node", "id": 5222047860, "lat": 40.7375982, "lon": 44.8701929}, {"type": "node", "id": 5222047861, "lat": 40.7370838, "lon": 44.8702267}, {"type": "node", "id": 5222047862, "lat": 40.7364782, "lon": 44.8705458}, {"type": "node", "id": 5222047863, "lat": 40.7358929, "lon": 44.8699021}, {"type": "node", "id": 5222047864, "lat": 40.735584, "lon": 44.8689687}, {"type": "node", "id": 5222047865, "lat": 40.7349661, "lon": 44.868443}, {"type": "node", "id": 5222047866, "lat": 40.7341206, "lon": 44.8681962}, {"type": "node", "id": 5222047867, "lat": 40.7329499, "lon": 44.8678422}, {"type": "node", "id": 5222047868, "lat": 40.7317792, "lon": 44.8681748}, {"type": "node", "id": 5222047869, "lat": 40.7303646, "lon": 44.8683357}, {"type": "node", "id": 5222047870, "lat": 40.7291613, "lon": 44.868164}, {"type": "node", "id": 5222047871, "lat": 40.728332, "lon": 44.8681855}, {"type": "node", "id": 5222047872, "lat": 40.7273564, "lon": 44.8685717}, {"type": "node", "id": 5222047873, "lat": 40.7255818, "lon": 44.8680192}, {"type": "node", "id": 5222047879, "lat": 40.7424612, "lon": 44.87885}, {"type": "node", "id": 5222047880, "lat": 40.7423962, "lon": 44.8784208}, {"type": "node", "id": 5222047881, "lat": 40.7421686, "lon": 44.8772406}, {"type": "node", "id": 5222047882, "lat": 40.7416321, "lon": 44.8765754}, {"type": "node", "id": 5222047883, "lat": 40.7408212, "lon": 44.8761812}, {"type": "node", "id": 5222047884, "lat": 40.7392403, "lon": 44.8753932}, {"type": "node", "id": 5222054847, "lat": 40.7603498, "lon": 44.8879041}, {"type": "node", "id": 5222054848, "lat": 40.7603488, "lon": 44.8886221}, {"type": "node", "id": 5222054849, "lat": 40.7601727, "lon": 44.8888707}, {"type": "node", "id": 5222054850, "lat": 40.7600657, "lon": 44.891231}, {"type": "node", "id": 5222054851, "lat": 40.7592205, "lon": 44.8930549}, {"type": "node", "id": 5222054852, "lat": 40.7588304, "lon": 44.8947286}, {"type": "node", "id": 5222054853, "lat": 40.7587166, "lon": 44.8962521}, {"type": "node", "id": 5222054854, "lat": 40.7587654, "lon": 44.8982048}, {"type": "node", "id": 5222054855, "lat": 40.7590742, "lon": 44.9000287}, {"type": "node", "id": 5222054856, "lat": 40.7592368, "lon": 44.9031615}, {"type": "node", "id": 5222054857, "lat": 40.7597081, "lon": 44.9039125}, {"type": "node", "id": 5222054858, "lat": 40.7601957, "lon": 44.9049425}, {"type": "node", "id": 5222054859, "lat": 40.760349, "lon": 44.905973}, {"type": "node", "id": 5222054860, "lat": 40.7608391, "lon": 44.9085234}, {"type": "node", "id": 5222054861, "lat": 40.7632512, "lon": 44.9122274}, {"type": "node", "id": 5222054862, "lat": 40.7597812, "lon": 44.9263357}, {"type": "node", "id": 5222054863, "lat": 40.7575626, "lon": 44.9109721}, {"type": "node", "id": 5222054864, "lat": 40.7569125, "lon": 44.9109936}, {"type": "node", "id": 5222054865, "lat": 40.756051, "lon": 44.9101996}, {"type": "node", "id": 5222054866, "lat": 40.7555797, "lon": 44.9091697}, {"type": "node", "id": 5222054867, "lat": 40.7549945, "lon": 44.9079251}, {"type": "node", "id": 5222054868, "lat": 40.7545719, "lon": 44.9069595}, {"type": "node", "id": 5222054869, "lat": 40.7543118, "lon": 44.9053716}, {"type": "node", "id": 5222054870, "lat": 40.7532886, "lon": 44.9029685}, {"type": "node", "id": 5222054871, "lat": 40.7522021, "lon": 44.9027222}, {"type": "node", "id": 5222054872, "lat": 40.7517522, "lon": 44.9012271}, {"type": "node", "id": 5222054873, "lat": 40.7512752, "lon": 44.9003533}, {"type": "node", "id": 5222054874, "lat": 40.7510893, "lon": 44.8998998}, {"type": "node", "id": 5222054875, "lat": 40.7505808, "lon": 44.8994833}, {"type": "node", "id": 5222054876, "lat": 40.7504127, "lon": 44.8988949}, {"type": "node", "id": 5222054877, "lat": 40.7501143, "lon": 44.8978501}, {"type": "node", "id": 5222054878, "lat": 40.7498417, "lon": 44.8968959}, {"type": "node", "id": 5222054879, "lat": 40.7493215, "lon": 44.8958444}, {"type": "node", "id": 5222054880, "lat": 40.7491589, "lon": 44.895072}, {"type": "node", "id": 5222054881, "lat": 40.7492727, "lon": 44.8939991}, {"type": "node", "id": 5222054882, "lat": 40.7494678, "lon": 44.8927331}, {"type": "node", "id": 5222054883, "lat": 40.749289, "lon": 44.891746}, {"type": "node", "id": 5222054884, "lat": 40.7488338, "lon": 44.8910165}, {"type": "node", "id": 5222054885, "lat": 40.7485087, "lon": 44.8906946}, {"type": "node", "id": 5222054886, "lat": 40.7482323, "lon": 44.8892569}, {"type": "node", "id": 5222054887, "lat": 40.7475496, "lon": 44.8888707}, {"type": "node", "id": 5222054888, "lat": 40.7470131, "lon": 44.8883986}, {"type": "node", "id": 5222054889, "lat": 40.7464442, "lon": 44.8881626}, {"type": "node", "id": 5222054890, "lat": 40.7459565, "lon": 44.8876905}, {"type": "node", "id": 5222054891, "lat": 40.7456151, "lon": 44.8872614}, {"type": "node", "id": 5222054892, "lat": 40.7448185, "lon": 44.8864031}, {"type": "node", "id": 5222054893, "lat": 40.7444283, "lon": 44.8863387}, {"type": "node", "id": 5222054894, "lat": 40.7435992, "lon": 44.8867035}, {"type": "node", "id": 5222054895, "lat": 40.7429164, "lon": 44.8869824}, {"type": "node", "id": 5222054896, "lat": 40.741708, "lon": 44.8871583}, {"type": "node", "id": 5222054897, "lat": 40.7414045, "lon": 44.8864245}, {"type": "node", "id": 5222054898, "lat": 40.7415183, "lon": 44.8859739}, {"type": "node", "id": 5222054899, "lat": 40.7418109, "lon": 44.8847508}, {"type": "node", "id": 5222054900, "lat": 40.7420548, "lon": 44.8829913}, {"type": "node", "id": 5222054901, "lat": 40.7427701, "lon": 44.8811674}, {"type": "node", "id": 5222055708, "lat": 40.7246244, "lon": 44.8666405}, {"type": "node", "id": 5222055709, "lat": 40.7237788, "lon": 44.8647523}, {"type": "node", "id": 5222055710, "lat": 40.7233885, "lon": 44.8635506}, {"type": "node", "id": 5222055711, "lat": 40.7233397, "lon": 44.8619842}, {"type": "node", "id": 5222055712, "lat": 40.7231609, "lon": 44.8605895}, {"type": "node", "id": 5222055713, "lat": 40.7227543, "lon": 44.8598814}, {"type": "node", "id": 5222055714, "lat": 40.7219737, "lon": 44.8579716}, {"type": "node", "id": 5222055715, "lat": 40.7221038, "lon": 44.856255}, {"type": "node", "id": 5222055716, "lat": 40.7222909, "lon": 44.8548388}, {"type": "node", "id": 5222055717, "lat": 40.7221526, "lon": 44.8541521}, {"type": "node", "id": 5222055718, "lat": 40.7219494, "lon": 44.8540127}, {"type": "node", "id": 5222055719, "lat": 40.7215672, "lon": 44.8539162}, {"type": "node", "id": 5222055720, "lat": 40.7213232, "lon": 44.8543238}, {"type": "node", "id": 5222057221, "lat": 40.7209329, "lon": 44.854989}, {"type": "node", "id": 5222057222, "lat": 40.7204775, "lon": 44.8565769}, {"type": "node", "id": 5222057223, "lat": 40.7206727, "lon": 44.8579931}, {"type": "node", "id": 5222057224, "lat": 40.7207215, "lon": 44.8596024}, {"type": "node", "id": 5222057225, "lat": 40.7206727, "lon": 44.8608255}, {"type": "node", "id": 5222057226, "lat": 40.7203962, "lon": 44.8616409}, {"type": "node", "id": 5222057227, "lat": 40.7199897, "lon": 44.8621344}, {"type": "node", "id": 5222057228, "lat": 40.7195343, "lon": 44.8620271}, {"type": "node", "id": 5222057229, "lat": 40.7190627, "lon": 44.8619199}, {"type": "node", "id": 5222057230, "lat": 40.7185097, "lon": 44.8626065}, {"type": "node", "id": 5222057231, "lat": 40.717908, "lon": 44.8643017}, {"type": "node", "id": 5222057232, "lat": 40.7174851, "lon": 44.8646235}, {"type": "node", "id": 5222057233, "lat": 40.7168508, "lon": 44.8634863}, {"type": "node", "id": 5222057234, "lat": 40.7167695, "lon": 44.8616409}, {"type": "node", "id": 5222057235, "lat": 40.7167207, "lon": 44.8607397}, {"type": "node", "id": 5222057236, "lat": 40.7168183, "lon": 44.8594737}, {"type": "node", "id": 5222057237, "lat": 40.7166394, "lon": 44.8585939}, {"type": "node", "id": 5222057238, "lat": 40.7161352, "lon": 44.8579073}, {"type": "node", "id": 5222057239, "lat": 40.7156717, "lon": 44.8572635}, {"type": "node", "id": 5222057240, "lat": 40.7151838, "lon": 44.8566413}, {"type": "node", "id": 5222057241, "lat": 40.7141104, "lon": 44.8553431}, {"type": "node", "id": 5222057242, "lat": 40.7133215, "lon": 44.8545813}, {"type": "node", "id": 5222057243, "lat": 40.7126709, "lon": 44.8540234}, {"type": "node", "id": 5222057244, "lat": 40.7114185, "lon": 44.8528647}, {"type": "node", "id": 5222057245, "lat": 40.7107192, "lon": 44.8522424}, {"type": "node", "id": 5222057246, "lat": 40.7100156, "lon": 44.8517865}, {"type": "node", "id": 5222057247, "lat": 40.7091983, "lon": 44.8518669}, {"type": "node", "id": 5222057248, "lat": 40.7085558, "lon": 44.8522424}, {"type": "node", "id": 5222057249, "lat": 40.7079865, "lon": 44.8526072}, {"type": "node", "id": 5222057250, "lat": 40.7070757, "lon": 44.8526072}, {"type": "node", "id": 5222057251, "lat": 40.7063274, "lon": 44.8523068}, {"type": "node", "id": 5222057252, "lat": 40.7050342, "lon": 44.8521298}, {"type": "node", "id": 5222057253, "lat": 40.7044039, "lon": 44.8519903}, {"type": "node", "id": 5222057254, "lat": 40.7036028, "lon": 44.8520332}, {"type": "node", "id": 5222057255, "lat": 40.7026918, "lon": 44.8521619}, {"type": "node", "id": 5222057256, "lat": 40.7015856, "lon": 44.852162}, {"type": "node", "id": 5222057257, "lat": 40.7010082, "lon": 44.8522532}, {"type": "node", "id": 5222057258, "lat": 40.7000849, "lon": 44.8525}, {"type": "node", "id": 5222057259, "lat": 40.6997474, "lon": 44.8528755}, {"type": "node", "id": 5222057260, "lat": 40.6990886, "lon": 44.8530685}, {"type": "node", "id": 5222057261, "lat": 40.6980637, "lon": 44.8531973}, {"type": "node", "id": 5222057262, "lat": 40.6971953, "lon": 44.8535514}, {"type": "node", "id": 5222057263, "lat": 40.6961602, "lon": 44.854356}, {"type": "node", "id": 5222057264, "lat": 40.6957373, "lon": 44.8547315}, {"type": "node", "id": 5222057265, "lat": 40.6948994, "lon": 44.8549783}, {"type": "node", "id": 5222057266, "lat": 40.6942405, "lon": 44.8541737}, {"type": "node", "id": 5222057267, "lat": 40.6942975, "lon": 44.8529613}, {"type": "node", "id": 5222057268, "lat": 40.6948912, "lon": 44.8517489}, {"type": "node", "id": 5222057269, "lat": 40.6955583, "lon": 44.8512125}, {"type": "node", "id": 5222057270, "lat": 40.6958348, "lon": 44.8505258}, {"type": "node", "id": 5222057271, "lat": 40.6960351, "lon": 44.8499903}, {"type": "node", "id": 5222057272, "lat": 40.6962741, "lon": 44.8492598}, {"type": "node", "id": 5222057273, "lat": 40.6965669, "lon": 44.8489165}, {"type": "node", "id": 5222057274, "lat": 40.6971526, "lon": 44.8490238}, {"type": "node", "id": 5222057275, "lat": 40.6973966, "lon": 44.8492169}, {"type": "node", "id": 5222057276, "lat": 40.6980962, "lon": 44.8497319}, {"type": "node", "id": 5222057277, "lat": 40.6985517, "lon": 44.8497748}, {"type": "node", "id": 5222057278, "lat": 40.6992837, "lon": 44.8493886}, {"type": "node", "id": 5222057279, "lat": 40.6997555, "lon": 44.8493886}, {"type": "node", "id": 5222057280, "lat": 40.7005364, "lon": 44.849689}, {"type": "node", "id": 5222057281, "lat": 40.7012521, "lon": 44.8495602}, {"type": "node", "id": 5222057282, "lat": 40.7019028, "lon": 44.8495602}, {"type": "node", "id": 5222057283, "lat": 40.7028951, "lon": 44.8492598}, {"type": "node", "id": 5222057284, "lat": 40.7036597, "lon": 44.8493671}, {"type": "node", "id": 5222057285, "lat": 40.7041477, "lon": 44.8496461}, {"type": "node", "id": 5222057286, "lat": 40.7047658, "lon": 44.8495817}, {"type": "node", "id": 5222057287, "lat": 40.7054328, "lon": 44.8498606}, {"type": "node", "id": 5222057288, "lat": 40.7060834, "lon": 44.849925}, {"type": "node", "id": 5222057289, "lat": 40.7067829, "lon": 44.8495817}, {"type": "node", "id": 5222057290, "lat": 40.7073522, "lon": 44.8488736}, {"type": "node", "id": 5222057291, "lat": 40.7073359, "lon": 44.8478007}, {"type": "node", "id": 5222057292, "lat": 40.7067991, "lon": 44.8470497}, {"type": "node", "id": 5222057293, "lat": 40.7062949, "lon": 44.8460626}, {"type": "node", "id": 5222057294, "lat": 40.7056605, "lon": 44.84514}, {"type": "node", "id": 5222057295, "lat": 40.7052701, "lon": 44.8444533}, {"type": "node", "id": 5222057296, "lat": 40.7041314, "lon": 44.84308}, {"type": "node", "id": 5222057297, "lat": 40.703253, "lon": 44.8423075}, {"type": "node", "id": 5222057298, "lat": 40.7035784, "lon": 44.841299}, {"type": "node", "id": 5222057299, "lat": 40.7043429, "lon": 44.8412561}, {"type": "node", "id": 5222057300, "lat": 40.7049936, "lon": 44.841299}, {"type": "node", "id": 5222057301, "lat": 40.7057093, "lon": 44.8414278}, {"type": "node", "id": 5222057302, "lat": 40.7061485, "lon": 44.8419213}, {"type": "node", "id": 5222057303, "lat": 40.7066365, "lon": 44.8428011}, {"type": "node", "id": 5222057304, "lat": 40.7070757, "lon": 44.8437023}, {"type": "node", "id": 5222057305, "lat": 40.7084908, "lon": 44.8462772}, {"type": "node", "id": 5222057306, "lat": 40.7090438, "lon": 44.8475432}, {"type": "node", "id": 5222057307, "lat": 40.709792, "lon": 44.8486376}, {"type": "node", "id": 5222057308, "lat": 40.7102963, "lon": 44.8487663}, {"type": "node", "id": 5222057309, "lat": 40.7114185, "lon": 44.8487019}, {"type": "node", "id": 5222057310, "lat": 40.7122155, "lon": 44.8493457}, {"type": "node", "id": 5222057311, "lat": 40.7127197, "lon": 44.8500967}, {"type": "node", "id": 5222057312, "lat": 40.7134923, "lon": 44.850719}, {"type": "node", "id": 5222057313, "lat": 40.7142567, "lon": 44.8512447}, {"type": "node", "id": 5222057314, "lat": 40.7152489, "lon": 44.8515022}, {"type": "node", "id": 5222057315, "lat": 40.7162572, "lon": 44.851706}, {"type": "node", "id": 5222057316, "lat": 40.7174769, "lon": 44.8516202}, {"type": "node", "id": 5222057317, "lat": 40.7182088, "lon": 44.85147}, {"type": "node", "id": 5222057318, "lat": 40.7195993, "lon": 44.8513198}, {"type": "node", "id": 5222057319, "lat": 40.7204613, "lon": 44.8507619}, {"type": "node", "id": 5222057320, "lat": 40.7210386, "lon": 44.8497105}, {"type": "node", "id": 5222057321, "lat": 40.7214777, "lon": 44.8489916}, {"type": "node", "id": 5222057322, "lat": 40.7219087, "lon": 44.8485518}, {"type": "node", "id": 5222057323, "lat": 40.7230308, "lon": 44.848262}, {"type": "node", "id": 5222057324, "lat": 40.7236162, "lon": 44.8491311}, {"type": "node", "id": 5222057325, "lat": 40.7240553, "lon": 44.8501611}, {"type": "node", "id": 5222057326, "lat": 40.7246407, "lon": 44.8505044}, {"type": "node", "id": 5222057327, "lat": 40.7255513, "lon": 44.8503971}, {"type": "node", "id": 5222057328, "lat": 40.7262506, "lon": 44.8506546}, {"type": "node", "id": 5222057329, "lat": 40.726462, "lon": 44.8513198}, {"type": "node", "id": 5222057330, "lat": 40.7262506, "lon": 44.8523068}, {"type": "node", "id": 5222057331, "lat": 40.7258603, "lon": 44.8529291}, {"type": "node", "id": 5222057332, "lat": 40.7257635, "lon": 44.854389}, {"type": "node", "id": 5222057333, "lat": 40.725193, "lon": 44.8550543}, {"type": "node", "id": 5222057334, "lat": 40.7249659, "lon": 44.8561477}, {"type": "node", "id": 5222057335, "lat": 40.7246082, "lon": 44.8574352}, {"type": "node", "id": 5222057336, "lat": 40.7245269, "lon": 44.8593449}, {"type": "node", "id": 5222057337, "lat": 40.7248521, "lon": 44.8604393}, {"type": "node", "id": 5222057338, "lat": 40.7252424, "lon": 44.8614263}, {"type": "node", "id": 5222057339, "lat": 40.7255676, "lon": 44.8624134}, {"type": "node", "id": 5222057340, "lat": 40.7256652, "lon": 44.8628425}, {"type": "node", "id": 5222057341, "lat": 40.7259172, "lon": 44.8646021}, {"type": "node", "id": 5252328770, "lat": 40.5376669, "lon": 44.6942261}, {"type": "node", "id": 5252328771, "lat": 40.5361581, "lon": 44.7032543}, {"type": "node", "id": 5295866063, "lat": 40.7449149, "lon": 44.8602164}, {"type": "node", "id": 5337681097, "lat": 40.5307648, "lon": 44.7361164}, {"type": "node", "id": 5477230600, "lat": 40.4843351, "lon": 44.7588813}, {"type": "node", "id": 5477230601, "lat": 40.4804943, "lon": 44.7474157}, {"type": "node", "id": 5477230602, "lat": 40.4795026, "lon": 44.7504114}, {"type": "node", "id": 5477230603, "lat": 40.4800107, "lon": 44.748104}, {"type": "node", "id": 5477230604, "lat": 40.4797489, "lon": 44.7491088}, {"type": "node", "id": 5477799957, "lat": 40.5227965, "lon": 44.7824586}, {"type": "node", "id": 5477799958, "lat": 40.5221599, "lon": 44.7889029}, {"type": "node", "id": 5477799959, "lat": 40.5219299, "lon": 44.7865522}, {"type": "node", "id": 5477799960, "lat": 40.5248644, "lon": 44.788452}, {"type": "node", "id": 5477799961, "lat": 40.5379309, "lon": 44.7788764}, {"type": "node", "id": 5477799962, "lat": 40.5357304, "lon": 44.7819671}, {"type": "node", "id": 5477799963, "lat": 40.5337375, "lon": 44.7820743}, {"type": "node", "id": 5477799964, "lat": 40.5305311, "lon": 44.7851429}, {"type": "node", "id": 5483145825, "lat": 40.5383897, "lon": 44.7430042}, {"type": "node", "id": 5483145826, "lat": 40.5380813, "lon": 44.7400422}, {"type": "node", "id": 5483145827, "lat": 40.5354201, "lon": 44.7474813}, {"type": "node", "id": 5483306747, "lat": 40.5384298, "lon": 44.7442205}, {"type": "node", "id": 5483306748, "lat": 40.5380207, "lon": 44.7449914}, {"type": "node", "id": 5483306749, "lat": 40.5353082, "lon": 44.7514051}, {"type": "node", "id": 5483306750, "lat": 40.5348341, "lon": 44.752315}, {"type": "node", "id": 5483306751, "lat": 40.5342656, "lon": 44.7526658}, {"type": "node", "id": 5483306752, "lat": 40.5329098, "lon": 44.7506658}, {"type": "node", "id": 5712083182, "lat": 40.7829678, "lon": 44.4773125}, {"type": "node", "id": 5712083183, "lat": 40.7826904, "lon": 44.4784181}, {"type": "node", "id": 5712083184, "lat": 40.782206, "lon": 44.479816}, {"type": "node", "id": 5712857244, "lat": 40.5384647, "lon": 44.9302765}, {"type": "node", "id": 5713713550, "lat": 40.5624927, "lon": 44.9956525}, {"type": "node", "id": 5713713551, "lat": 40.5630755, "lon": 44.9947191}, {"type": "node", "id": 5713713552, "lat": 40.5635849, "lon": 44.9952073}, {"type": "node", "id": 5713713553, "lat": 40.5666128, "lon": 44.9983026}, {"type": "node", "id": 5713713554, "lat": 40.5669999, "lon": 44.9986459}, {"type": "node", "id": 5713713555, "lat": 40.567277, "lon": 44.9988175}, {"type": "node", "id": 5713713556, "lat": 40.5675011, "lon": 44.9989517}, {"type": "node", "id": 5713713557, "lat": 40.5676397, "lon": 44.999177}, {"type": "node", "id": 5713713558, "lat": 40.5677538, "lon": 44.9994398}, {"type": "node", "id": 5713713559, "lat": 40.5677415, "lon": 44.9996222}, {"type": "node", "id": 5713713560, "lat": 40.5677945, "lon": 45.0003625}, {"type": "node", "id": 5713713561, "lat": 40.5676967, "lon": 45.0013925}, {"type": "node", "id": 5713713562, "lat": 40.5675663, "lon": 45.0019718}, {"type": "node", "id": 5713713563, "lat": 40.5673463, "lon": 45.0032861}, {"type": "node", "id": 5713713564, "lat": 40.5670692, "lon": 45.0046433}, {"type": "node", "id": 5713713565, "lat": 40.566788, "lon": 45.0079639}, {"type": "node", "id": 5713713566, "lat": 40.5666657, "lon": 45.0164665}, {"type": "node", "id": 5713713567, "lat": 40.5664783, "lon": 45.0168742}, {"type": "node", "id": 5713713568, "lat": 40.564673, "lon": 45.0191809}, {"type": "node", "id": 5713713569, "lat": 40.5643551, "lon": 45.0193525}, {"type": "node", "id": 5713713570, "lat": 40.564078, "lon": 45.0194491}, {"type": "node", "id": 5713713571, "lat": 40.5635727, "lon": 45.0196047}, {"type": "node", "id": 5713713572, "lat": 40.5633771, "lon": 45.0196798}, {"type": "node", "id": 5713713573, "lat": 40.5632711, "lon": 45.0196476}, {"type": "node", "id": 5713713574, "lat": 40.563214, "lon": 45.0195671}, {"type": "node", "id": 5713713575, "lat": 40.5631692, "lon": 45.0193311}, {"type": "node", "id": 5713713576, "lat": 40.5631122, "lon": 45.0189931}, {"type": "node", "id": 5713713577, "lat": 40.562888, "lon": 45.0183977}, {"type": "node", "id": 5713713578, "lat": 40.5623175, "lon": 45.0178076}, {"type": "node", "id": 5713713579, "lat": 40.5621056, "lon": 45.0174374}, {"type": "node", "id": 5713713580, "lat": 40.5621178, "lon": 45.0169976}, {"type": "node", "id": 5713713581, "lat": 40.5623379, "lon": 45.0169385}, {"type": "node", "id": 5713713582, "lat": 40.5622889, "lon": 45.0156189}, {"type": "node", "id": 5713713583, "lat": 40.5622563, "lon": 45.0150342}, {"type": "node", "id": 5713713584, "lat": 40.5619588, "lon": 45.0141222}, {"type": "node", "id": 5713713585, "lat": 40.5622156, "lon": 45.0119282}, {"type": "node", "id": 5713713586, "lat": 40.5629043, "lon": 45.0087954}, {"type": "node", "id": 5713713587, "lat": 40.5630062, "lon": 45.007127}, {"type": "node", "id": 5713713588, "lat": 40.5628187, "lon": 45.0050832}, {"type": "node", "id": 5713713589, "lat": 40.5634137, "lon": 45.0019986}, {"type": "node", "id": 5713713590, "lat": 40.5637316, "lon": 45.0013764}, {"type": "node", "id": 5713713591, "lat": 40.5640006, "lon": 44.9997724}, {"type": "node", "id": 5713713592, "lat": 40.564078, "lon": 44.9986298}, {"type": "node", "id": 5713713593, "lat": 40.5638865, "lon": 44.9977608}, {"type": "node", "id": 5713713594, "lat": 40.5636256, "lon": 44.9969561}, {"type": "node", "id": 5713713595, "lat": 40.5634056, "lon": 44.9966235}, {"type": "node", "id": 5713713596, "lat": 40.5536374, "lon": 44.9701782}, {"type": "node", "id": 5713713597, "lat": 40.5504954, "lon": 44.9723364}, {"type": "node", "id": 5713713598, "lat": 40.552942, "lon": 44.9720679}, {"type": "node", "id": 5713713599, "lat": 40.5532408, "lon": 44.9689537}, {"type": "node", "id": 5926233609, "lat": 40.5332494, "lon": 44.6940147}, {"type": "node", "id": 6058617148, "lat": 40.7415517, "lon": 44.8259272}, {"type": "node", "id": 6058617149, "lat": 40.7417345, "lon": 44.8257479}, {"type": "node", "id": 6058617150, "lat": 40.741778, "lon": 44.8257008}, {"type": "node", "id": 6058617151, "lat": 40.7431125, "lon": 44.8242198}, {"type": "node", "id": 6058617152, "lat": 40.7434238, "lon": 44.8240061}, {"type": "node", "id": 6058617155, "lat": 40.7467444, "lon": 44.826902}, {"type": "node", "id": 6058617161, "lat": 40.7498424, "lon": 44.8075796}, {"type": "node", "id": 6058617162, "lat": 40.7509933, "lon": 44.809133}, {"type": "node", "id": 6058617386, "lat": 40.7550301, "lon": 44.9080008}, {"type": "node", "id": 6058617387, "lat": 40.7534057, "lon": 44.9033344}, {"type": "node", "id": 6058617389, "lat": 40.7421144, "lon": 44.8828394}, {"type": "node", "id": 6058617390, "lat": 40.7235173, "lon": 44.8639471}, {"type": "node", "id": 6058617391, "lat": 40.7232521, "lon": 44.8613011}, {"type": "node", "id": 6058617392, "lat": 40.7230405, "lon": 44.8603798}, {"type": "node", "id": 6058617393, "lat": 40.7220676, "lon": 44.8567323}, {"type": "node", "id": 6058617394, "lat": 40.7176678, "lon": 44.8644845}, {"type": "node", "id": 6058617395, "lat": 40.7179938, "lon": 44.8640601}, {"type": "node", "id": 6058617396, "lat": 40.7184689, "lon": 44.8627216}, {"type": "node", "id": 6058617397, "lat": 40.7126468, "lon": 44.8540011}, {"type": "node", "id": 6058617398, "lat": 40.6968847, "lon": 44.8536586}, {"type": "node", "id": 6058617399, "lat": 40.6971208, "lon": 44.849018}, {"type": "node", "id": 6058617400, "lat": 40.7045542, "lon": 44.8496037}, {"type": "node", "id": 6058617401, "lat": 40.7049127, "lon": 44.8496431}, {"type": "node", "id": 6058617402, "lat": 40.7072181, "lon": 44.8490404}, {"type": "node", "id": 6058617403, "lat": 40.7035394, "lon": 44.8414199}, {"type": "node", "id": 6058617404, "lat": 40.711368, "lon": 44.8487048}, {"type": "node", "id": 6058617405, "lat": 40.7123586, "lon": 44.8495589}, {"type": "node", "id": 6058617406, "lat": 40.720265, "lon": 44.851147}, {"type": "node", "id": 6058617407, "lat": 40.7238932, "lon": 44.8499303}, {"type": "node", "id": 6058617408, "lat": 40.7242675, "lon": 44.8502855}, {"type": "node", "id": 6058617409, "lat": 40.7263978, "lon": 44.8511178}, {"type": "node", "id": 6058617410, "lat": 40.7274962, "lon": 44.8661296}, {"type": "node", "id": 6058617411, "lat": 40.7366993, "lon": 44.8634222}, {"type": "node", "id": 6058617412, "lat": 40.7371238, "lon": 44.8612477}, {"type": "node", "id": 6058617413, "lat": 40.7369949, "lon": 44.8522054}, {"type": "node", "id": 6058617414, "lat": 40.7368689, "lon": 44.8517093}, {"type": "node", "id": 6058617415, "lat": 40.7367233, "lon": 44.844769}, {"type": "node", "id": 6058617416, "lat": 40.7367733, "lon": 44.8432844}, {"type": "node", "id": 6058617417, "lat": 40.7369869, "lon": 44.8405707}, {"type": "node", "id": 6058617418, "lat": 40.7379077, "lon": 44.8346728}, {"type": "node", "id": 6058617420, "lat": 40.7424456, "lon": 44.8248623}, {"type": "node", "id": 6058617422, "lat": 40.7598181, "lon": 44.8320725}, {"type": "node", "id": 6058617424, "lat": 40.7449761, "lon": 44.8588356}, {"type": "node", "id": 6058617425, "lat": 40.7449441, "lon": 44.8604849}, {"type": "node", "id": 6058617426, "lat": 40.7454275, "lon": 44.8639848}, {"type": "node", "id": 6058617427, "lat": 40.7549842, "lon": 44.8733301}, {"type": "node", "id": 6058617428, "lat": 40.7578429, "lon": 44.880618}, {"type": "node", "id": 6058617429, "lat": 40.7586006, "lon": 44.8828569}, {"type": "node", "id": 6058617430, "lat": 40.7595473, "lon": 44.8877608}, {"type": "node", "id": 6058617431, "lat": 40.7604679, "lon": 44.8884616}, {"type": "node", "id": 6058617435, "lat": 40.7537226, "lon": 44.8268987}, {"type": "node", "id": 6058617480, "lat": 40.7569201, "lon": 44.8289079}, {"type": "node", "id": 6123293973, "lat": 40.5128809, "lon": 44.7670472}, {"type": "node", "id": 6123293974, "lat": 40.5162161, "lon": 44.7659806}, {"type": "node", "id": 6123293975, "lat": 40.5123947, "lon": 44.7710642}, {"type": "node", "id": 6246590185, "lat": 40.7604539, "lon": 44.9074524}, {"type": "node", "id": 6246590186, "lat": 40.7660152, "lon": 44.9172356}, {"type": "node", "id": 6246590187, "lat": 40.7626181, "lon": 44.9101665}, {"type": "node", "id": 6246590188, "lat": 40.7675242, "lon": 44.9215525}, {"type": "node", "id": 6246590189, "lat": 40.7654302, "lon": 44.9302052}, {"type": "node", "id": 6246590190, "lat": 40.7581204, "lon": 44.924821}, {"type": "node", "id": 6279139156, "lat": 40.8195915, "lon": 44.490563}, {"type": "node", "id": 6449913597, "lat": 40.7546437, "lon": 44.8078812}, {"type": "node", "id": 6449913598, "lat": 40.7547325, "lon": 44.8067451}, {"type": "node", "id": 6449913599, "lat": 40.7534664, "lon": 44.8087256}, {"type": "node", "id": 6449913600, "lat": 40.7531388, "lon": 44.8053633}, {"type": "node", "id": 6450146070, "lat": 40.7606964, "lon": 44.9315378}, {"type": "node", "id": 6450146071, "lat": 40.7648538, "lon": 44.9333043}, {"type": "node", "id": 6450146072, "lat": 40.7622146, "lon": 44.9331934}, {"type": "node", "id": 7001076314, "lat": 40.4998875, "lon": 44.7396321}, {"type": "node", "id": 7001076315, "lat": 40.4965393, "lon": 44.7425187}, {"type": "node", "id": 7008157473, "lat": 40.4813732, "lon": 44.7460378}, {"type": "node", "id": 7350023912, "lat": 40.5361356, "lon": 44.9306526}, {"type": "node", "id": 7350023914, "lat": 40.5367611, "lon": 44.9290492}, {"type": "node", "id": 7350023915, "lat": 40.5371303, "lon": 44.9291126}, {"type": "node", "id": 7852998430, "lat": 40.8124753, "lon": 44.49929}, {"type": "node", "id": 7852998431, "lat": 40.8133414, "lon": 44.4989232}, {"type": "node", "id": 7852998432, "lat": 40.8137925, "lon": 44.4985938}, {"type": "node", "id": 7852998434, "lat": 40.814823, "lon": 44.4976741}, {"type": "node", "id": 7853196031, "lat": 40.7957089, "lon": 44.4948723}, {"type": "node", "id": 7853196048, "lat": 40.7941532, "lon": 44.5026918}, {"type": "node", "id": 7853198035, "lat": 40.7909352, "lon": 44.4853813}, {"type": "node", "id": 7853198115, "lat": 40.7852952, "lon": 44.486064}, {"type": "node", "id": 7853198123, "lat": 40.7854305, "lon": 44.4868312}, {"type": "node", "id": 7854951011, "lat": 40.7852265, "lon": 44.4905747}, {"type": "node", "id": 7854951143, "lat": 40.7855181, "lon": 44.4916379}, {"type": "node", "id": 8003799981, "lat": 40.8443905, "lon": 44.4496113}, {"type": "node", "id": 8330137452, "lat": 40.5041838, "lon": 44.7003057}, {"type": "node", "id": 8330137453, "lat": 40.5026316, "lon": 44.7377574}, {"type": "node", "id": 8330137455, "lat": 40.5118328, "lon": 44.7045338}, {"type": "node", "id": 8330137456, "lat": 40.5068693, "lon": 44.7309819}, {"type": "node", "id": 8380993046, "lat": 40.5019021, "lon": 44.7395644}, {"type": "node", "id": 8462773052, "lat": 40.5379153, "lon": 44.7788277}, {"type": "node", "id": 8462773053, "lat": 40.5336875, "lon": 44.7819591}, {"type": "node", "id": 8462773054, "lat": 40.535684, "lon": 44.7818889}, {"type": "node", "id": 8462773055, "lat": 40.5305035, "lon": 44.7849902}, {"type": "node", "id": 8462773056, "lat": 40.5282074, "lon": 44.786327}, {"type": "node", "id": 8462773057, "lat": 40.5248122, "lon": 44.7883088}, {"type": "node", "id": 8462773058, "lat": 40.5223471, "lon": 44.7886943}, {"type": "node", "id": 8462773059, "lat": 40.5246778, "lon": 44.7785394}, {"type": "node", "id": 8462773060, "lat": 40.5221409, "lon": 44.7866193}, {"type": "node", "id": 8462773061, "lat": 40.5229595, "lon": 44.7825649}, {"type": "node", "id": 8462773062, "lat": 40.5163598, "lon": 44.7657369}, {"type": "node", "id": 8462773063, "lat": 40.5242142, "lon": 44.760305}, {"type": "node", "id": 8462773064, "lat": 40.5144289, "lon": 44.7654615}, {"type": "node", "id": 8462773065, "lat": 40.512772, "lon": 44.7669621}, {"type": "node", "id": 8462773066, "lat": 40.5113509, "lon": 44.7805523}, {"type": "node", "id": 8462773067, "lat": 40.5104386, "lon": 44.79225}, {"type": "node", "id": 8462773068, "lat": 40.5062864, "lon": 44.7961154}, {"type": "node", "id": 8462773069, "lat": 40.4942512, "lon": 44.7790349}, {"type": "node", "id": 8462773070, "lat": 40.4861359, "lon": 44.7603043}, {"type": "node", "id": 8462773071, "lat": 40.4847123, "lon": 44.7568825}, {"type": "node", "id": 8462773072, "lat": 40.4800902, "lon": 44.7490693}, {"type": "node", "id": 8462773073, "lat": 40.4814046, "lon": 44.7461759}, {"type": "node", "id": 8462773074, "lat": 40.4883458, "lon": 44.7455898}, {"type": "node", "id": 8462773075, "lat": 40.4966791, "lon": 44.7426436}, {"type": "node", "id": 8462773076, "lat": 40.4979351, "lon": 44.7398658}, {"type": "node", "id": 8462773077, "lat": 40.5019438, "lon": 44.7397988}, {"type": "node", "id": 8462773078, "lat": 40.502765, "lon": 44.7377822}, {"type": "node", "id": 8462773079, "lat": 40.5028738, "lon": 44.7355804}, {"type": "node", "id": 8462773080, "lat": 40.5068571, "lon": 44.731005}, {"type": "node", "id": 8462773081, "lat": 40.5033688, "lon": 44.7118708}, {"type": "node", "id": 8462773082, "lat": 40.5105683, "lon": 44.7374192}, {"type": "node", "id": 8462773083, "lat": 40.517931, "lon": 44.7384069}, {"type": "node", "id": 8462773084, "lat": 40.5209302, "lon": 44.7385695}, {"type": "node", "id": 8462773085, "lat": 40.5246691, "lon": 44.7463838}, {"type": "node", "id": 8462773086, "lat": 40.5215269, "lon": 44.7370879}, {"type": "node", "id": 8462773088, "lat": 40.5211355, "lon": 44.7381804}, {"type": "node", "id": 8462773089, "lat": 40.5256621, "lon": 44.7492497}, {"type": "node", "id": 8462773090, "lat": 40.5349442, "lon": 44.7609409}, {"type": "node", "id": 8462773091, "lat": 40.5268651, "lon": 44.763001}, {"type": "node", "id": 8462773092, "lat": 40.5418204, "lon": 44.7577321}, {"type": "node", "id": 8462773093, "lat": 40.5367289, "lon": 44.760042}, {"type": "node", "id": 8462773094, "lat": 40.5430953, "lon": 44.7379043}, {"type": "node", "id": 8462773095, "lat": 40.5389754, "lon": 44.7593596}, {"type": "node", "id": 8462773096, "lat": 40.5397612, "lon": 44.7450096}, {"type": "node", "id": 8462773097, "lat": 40.5403867, "lon": 44.7449295}, {"type": "node", "id": 8462773098, "lat": 40.5583717, "lon": 44.7534812}, {"type": "node", "id": 8462773099, "lat": 40.5618482, "lon": 44.7595164}, {"type": "node", "id": 8462773100, "lat": 40.5568973, "lon": 44.7600503}, {"type": "node", "id": 8462773101, "lat": 40.5608835, "lon": 44.761467}, {"type": "node", "id": 8462773102, "lat": 40.5602312, "lon": 44.7622402}, {"type": "node", "id": 8462773103, "lat": 40.5595157, "lon": 44.7620927}, {"type": "node", "id": 8462773104, "lat": 40.5553687, "lon": 44.7612666}, {"type": "node", "id": 8462773105, "lat": 40.5542685, "lon": 44.7607253}, {"type": "node", "id": 8462773106, "lat": 40.5527444, "lon": 44.7645766}, {"type": "node", "id": 8462773107, "lat": 40.5509829, "lon": 44.769087}, {"type": "node", "id": 8462773108, "lat": 40.5499345, "lon": 44.7717595}, {"type": "node", "id": 8462773109, "lat": 40.5464434, "lon": 44.7810573}, {"type": "node", "id": 8462815017, "lat": 40.5220656, "lon": 44.7538215}, {"type": "node", "id": 8462834983, "lat": 40.4881595, "lon": 44.7706757}, {"type": "node", "id": 8462904694, "lat": 40.5518172, "lon": 44.7340229}, {"type": "node", "id": 8524106456, "lat": 40.7632263, "lon": 44.9336229}, {"type": "node", "id": 8550529547, "lat": 40.4835341, "lon": 44.7636783}, {"type": "node", "id": 8550529564, "lat": 40.4829365, "lon": 44.7624358}, {"type": "node", "id": 8760636744, "lat": 40.5359437, "lon": 44.9688542}, {"type": "node", "id": 8760636745, "lat": 40.5359916, "lon": 44.9687885}, {"type": "node", "id": 8760636746, "lat": 40.5358836, "lon": 44.9689226}, {"type": "node", "id": 8760636747, "lat": 40.5358071, "lon": 44.9691197}, {"type": "node", "id": 8760636748, "lat": 40.5357766, "lon": 44.9692364}, {"type": "node", "id": 8760636749, "lat": 40.5358611, "lon": 44.9695784}, {"type": "node", "id": 8760636750, "lat": 40.5358611, "lon": 44.9697018}, {"type": "node", "id": 8760636751, "lat": 40.5358194, "lon": 44.9698399}, {"type": "node", "id": 8760636752, "lat": 40.5357664, "lon": 44.9699713}, {"type": "node", "id": 8760636753, "lat": 40.5358306, "lon": 44.9702905}, {"type": "node", "id": 8760636754, "lat": 40.5358622, "lon": 44.9702838}, {"type": "node", "id": 8760636755, "lat": 40.5358856, "lon": 44.9702489}, {"type": "node", "id": 8760636756, "lat": 40.535907, "lon": 44.9701349}, {"type": "node", "id": 8760636757, "lat": 40.5358978, "lon": 44.9700625}, {"type": "node", "id": 8760636758, "lat": 40.5356909, "lon": 44.9705145}, {"type": "node", "id": 8760636760, "lat": 40.5356002, "lon": 44.9705842}, {"type": "node", "id": 8760636761, "lat": 40.5354443, "lon": 44.9709021}, {"type": "node", "id": 8760636762, "lat": 40.5353536, "lon": 44.9711649}, {"type": "node", "id": 8760636763, "lat": 40.5351946, "lon": 44.9714827}, {"type": "node", "id": 8760636764, "lat": 40.5351589, "lon": 44.9716906}, {"type": "node", "id": 8760636765, "lat": 40.5351426, "lon": 44.9719226}, {"type": "node", "id": 8760636766, "lat": 40.5354606, "lon": 44.9731779}, {"type": "node", "id": 8760636767, "lat": 40.5354555, "lon": 44.9730143}, {"type": "node", "id": 8760636768, "lat": 40.5354524, "lon": 44.9733201}, {"type": "node", "id": 8760636769, "lat": 40.5354657, "lon": 44.9736352}, {"type": "node", "id": 8760636770, "lat": 40.5353903, "lon": 44.9739759}, {"type": "node", "id": 8760636771, "lat": 40.5352567, "lon": 44.9743339}, {"type": "node", "id": 8760636772, "lat": 40.5350957, "lon": 44.9746183}, {"type": "node", "id": 8760653195, "lat": 40.5324935, "lon": 44.9554807}, {"type": "node", "id": 8760653196, "lat": 40.5333599, "lon": 44.9561539}, {"type": "node", "id": 8760653197, "lat": 40.5339297, "lon": 44.9570136}, {"type": "node", "id": 8760653198, "lat": 40.5343588, "lon": 44.9577512}, {"type": "node", "id": 8760653199, "lat": 40.5343741, "lon": 44.957829}, {"type": "node", "id": 8760653200, "lat": 40.534531, "lon": 44.9588831}, {"type": "node", "id": 8760653204, "lat": 40.5345657, "lon": 44.959559}, {"type": "node", "id": 8760653205, "lat": 40.5354341, "lon": 44.9610999}, {"type": "node", "id": 8760653206, "lat": 40.5364258, "lon": 44.9622197}, {"type": "node", "id": 8760653207, "lat": 40.5366072, "lon": 44.9626073}, {"type": "node", "id": 8760653208, "lat": 40.536699, "lon": 44.9633181}, {"type": "node", "id": 8760653210, "lat": 40.5351028, "lon": 44.9664731}, {"type": "node", "id": 8760653211, "lat": 40.5347532, "lon": 44.9665797}, {"type": "node", "id": 8760653212, "lat": 40.5345728, "lon": 44.96675}, {"type": "node", "id": 8760653213, "lat": 40.534583, "lon": 44.9669163}, {"type": "node", "id": 8760653214, "lat": 40.5347379, "lon": 44.9670397}, {"type": "node", "id": 8760653215, "lat": 40.5352527, "lon": 44.9671724}, {"type": "node", "id": 8760653216, "lat": 40.5354086, "lon": 44.9672234}, {"type": "node", "id": 8760656217, "lat": 40.5357725, "lon": 44.9673012}, {"type": "node", "id": 8760656218, "lat": 40.5360354, "lon": 44.9675721}, {"type": "node", "id": 8760656219, "lat": 40.5361741, "lon": 44.968126}, {"type": "node", "id": 8760656220, "lat": 40.5361078, "lon": 44.968362}, {"type": "node", "id": 9190383893, "lat": 40.8161506, "lon": 44.4994866}, {"type": "node", "id": 9196392465, "lat": 40.8172378, "lon": 44.496033}, {"type": "node", "id": 9239762551, "lat": 40.5032186, "lon": 44.7117942}, {"type": "node", "id": 9239762552, "lat": 40.4836756, "lon": 44.7641927}, {"type": "node", "id": 9239762553, "lat": 40.4877288, "lon": 44.770199}, {"type": "node", "id": 9239762554, "lat": 40.5061816, "lon": 44.7051125}, {"type": "node", "id": 9239762555, "lat": 40.5051641, "lon": 44.7028191}, {"type": "node", "id": 9239762556, "lat": 40.5044304, "lon": 44.7009777}, {"type": "node", "id": 9239762557, "lat": 40.5046178, "lon": 44.7000872}, {"type": "node", "id": 9239762558, "lat": 40.5060587, "lon": 44.7035586}, {"type": "node", "id": 9239762559, "lat": 40.5074589, "lon": 44.7030082}, {"type": "node", "id": 9239762560, "lat": 40.509969, "lon": 44.7095837}, {"type": "node", "id": 9239762561, "lat": 40.5095721, "lon": 44.7163681}, {"type": "node", "id": 9239762562, "lat": 40.5073502, "lon": 44.7186178}, {"type": "node", "id": 9239762563, "lat": 40.507043, "lon": 44.728304}, {"type": "node", "id": 9239787178, "lat": 40.5030764, "lon": 44.713372}, {"type": "node", "id": 9239787179, "lat": 40.5046291, "lon": 44.7074712}, {"type": "node", "id": 9239787180, "lat": 40.5062091, "lon": 44.7053337}, {"type": "node", "id": 9239787181, "lat": 40.5056933, "lon": 44.7060898}, {"type": "node", "id": 9239787182, "lat": 40.505246, "lon": 44.7065594}, {"type": "node", "id": 9239787186, "lat": 40.5041771, "lon": 44.7095928}, {"type": "node", "id": 9239787200, "lat": 40.5147757, "lon": 44.7378595}, {"type": "node", "id": 9239787201, "lat": 40.5029788, "lon": 44.7275455}, {"type": "node", "id": 9239787202, "lat": 40.5042331, "lon": 44.7096804}, {"type": "node", "id": 9239787203, "lat": 40.5046873, "lon": 44.7075547}, {"type": "node", "id": 9239787204, "lat": 40.5063565, "lon": 44.7053395}, {"type": "node", "id": 9239787205, "lat": 40.5074369, "lon": 44.7030492}, {"type": "node", "id": 9239787207, "lat": 40.5044617, "lon": 44.7009752}, {"type": "node", "id": 9239787208, "lat": 40.5046125, "lon": 44.7001283}, {"type": "node", "id": 9239787209, "lat": 40.5060321, "lon": 44.7036301}, {"type": "node", "id": 9239787210, "lat": 40.510205, "lon": 44.7040227}, {"type": "node", "id": 9239787211, "lat": 40.5117822, "lon": 44.7045672}, {"type": "node", "id": 9239787212, "lat": 40.5099471, "lon": 44.7095278}, {"type": "node", "id": 9239787213, "lat": 40.509548, "lon": 44.7163156}, {"type": "node", "id": 9239787214, "lat": 40.5073189, "lon": 44.7185992}, {"type": "node", "id": 9239815021, "lat": 40.5211632, "lon": 44.7384805}, {"type": "node", "id": 9239815022, "lat": 40.5220382, "lon": 44.7446125}, {"type": "node", "id": 9239815023, "lat": 40.5219814, "lon": 44.7424378}, {"type": "node", "id": 9239815024, "lat": 40.5219012, "lon": 44.7414969}, {"type": "node", "id": 9239815026, "lat": 40.520764, "lon": 44.7398438}, {"type": "node", "id": 9239815035, "lat": 40.5222808, "lon": 44.7364532}, {"type": "node", "id": 9239815036, "lat": 40.5221939, "lon": 44.734148}, {"type": "node", "id": 9239815037, "lat": 40.5229124, "lon": 44.7317488}, {"type": "node", "id": 9239815038, "lat": 40.5238009, "lon": 44.7319283}, {"type": "node", "id": 9239815039, "lat": 40.524534, "lon": 44.7342599}, {"type": "node", "id": 9239815040, "lat": 40.5255603, "lon": 44.735018}, {"type": "node", "id": 9239815042, "lat": 40.5257773, "lon": 44.7367562}, {"type": "node", "id": 9239815043, "lat": 40.5257412, "lon": 44.7375814}, {"type": "node", "id": 9239815044, "lat": 40.5250858, "lon": 44.7377114}, {"type": "node", "id": 9239815045, "lat": 40.5258422, "lon": 44.7390623}, {"type": "node", "id": 9239815046, "lat": 40.5266258, "lon": 44.7408005}, {"type": "node", "id": 9239815047, "lat": 40.5269097, "lon": 44.7420677}, {"type": "node", "id": 9239815048, "lat": 40.5250347, "lon": 44.7426345}, {"type": "node", "id": 9239815049, "lat": 40.5248533, "lon": 44.7442506}, {"type": "node", "id": 9239815050, "lat": 40.5252365, "lon": 44.745424}, {"type": "node", "id": 9337511876, "lat": 40.540196, "lon": 44.7536267}, {"type": "node", "id": 9337511877, "lat": 40.5414783, "lon": 44.7558024}, {"type": "node", "id": 9337511878, "lat": 40.5407644, "lon": 44.7548923}, {"type": "node", "id": 9337511879, "lat": 40.5422842, "lon": 44.7573864}, {"type": "node", "id": 9337511880, "lat": 40.5428331, "lon": 44.756302}, {"type": "node", "id": 9337511881, "lat": 40.5426701, "lon": 44.7566169}, {"type": "node", "id": 9337511886, "lat": 40.5563225, "lon": 44.7405194}, {"type": "node", "id": 9450208339, "lat": 40.5411111, "lon": 44.7253141}, {"type": "node", "id": 9462630980, "lat": 40.7873439, "lon": 44.5211579}, {"type": "node", "id": 9467990915, "lat": 40.7868063, "lon": 44.5343198}, {"type": "node", "id": 9703258250, "lat": 40.8008609, "lon": 44.5258696}, {"type": "node", "id": 9703258251, "lat": 40.8012972, "lon": 44.526159}, {"type": "node", "id": 9703258252, "lat": 40.8019728, "lon": 44.5239433}, {"type": "node", "id": 10015528586, "lat": 40.8012632, "lon": 44.4831357}, {"type": "node", "id": 10091838763, "lat": 40.7599506, "lon": 44.8889834}, {"type": "node", "id": 10091838765, "lat": 40.7601319, "lon": 44.8895996}, {"type": "node", "id": 10091838766, "lat": 40.7600793, "lon": 44.8875017}, {"type": "node", "id": 10091838769, "lat": 40.7585185, "lon": 44.8838513}, {"type": "node", "id": 10091838770, "lat": 40.7584898, "lon": 44.8854019}, {"type": "node", "id": 10091838771, "lat": 40.7590321, "lon": 44.886896}, {"type": "node", "id": 10091838772, "lat": 40.7586661, "lon": 44.8862151}, {"type": "node", "id": 10197003731, "lat": 40.5357941, "lon": 44.7605426}, {"type": "node", "id": 10993185204, "lat": 40.4821184, "lon": 44.7525718}, {"type": "node", "id": 11070052786, "lat": 40.8009767, "lon": 44.4831127}, {"type": "node", "id": 11569745688, "lat": 40.7899208, "lon": 44.4847342}, {"type": "node", "id": 11569745689, "lat": 40.8061298, "lon": 44.4752803}, {"type": "node", "id": 11569745690, "lat": 40.807364, "lon": 44.468552}, {"type": "node", "id": 11569745691, "lat": 40.8265466, "lon": 44.440086}, {"type": "node", "id": 11569745714, "lat": 40.8373262, "lon": 44.4615528}, {"type": "node", "id": 11569745716, "lat": 40.8208277, "lon": 44.4851403}, {"type": "node", "id": 11569745745, "lat": 40.8091096, "lon": 44.50757}, {"type": "node", "id": 11576447025, "lat": 40.5363116, "lon": 44.7466278}, {"type": "node", "id": 11868645404, "lat": 40.7783682, "lon": 44.521054}, {"type": "node", "id": 12296199587, "lat": 40.5501161, "lon": 44.9350604}, {"type": "node", "id": 12296199592, "lat": 40.5525652, "lon": 44.9656664}, {"type": "node", "id": 12296199593, "lat": 40.5526848, "lon": 44.9666913}, {"type": "node", "id": 12296248137, "lat": 40.5510365, "lon": 44.9473053}, {"type": "node", "id": 12296248138, "lat": 40.5519961, "lon": 44.9582806}, {"type": "node", "id": 12296248139, "lat": 40.5525811, "lon": 44.9658021}, {"type": "node", "id": 12296248144, "lat": 40.5365619, "lon": 44.930472}, {"type": "node", "id": 12296248145, "lat": 40.5351058, "lon": 44.9344135}, {"type": "node", "id": 12296248146, "lat": 40.5362506, "lon": 44.9314393}, {"type": "node", "id": 12296248147, "lat": 40.5363315, "lon": 44.9319713}, {"type": "node", "id": 12296248148, "lat": 40.5361542, "lon": 44.932644}, {"type": "node", "id": 12296248149, "lat": 40.5345036, "lon": 44.9330912}, {"type": "node", "id": 12296248150, "lat": 40.5338231, "lon": 44.9336131}, {"type": "node", "id": 12296248151, "lat": 40.5330657, "lon": 44.9342005}, {"type": "node", "id": 12296248152, "lat": 40.5329215, "lon": 44.9345252}, {"type": "node", "id": 12296248153, "lat": 40.5336596, "lon": 44.9361726}, {"type": "node", "id": 12296248154, "lat": 40.5327659, "lon": 44.937081}, {"type": "node", "id": 12296248155, "lat": 40.5319323, "lon": 44.937278}, {"type": "node", "id": 12296248156, "lat": 40.5310565, "lon": 44.9379301}, {"type": "node", "id": 12296248157, "lat": 40.5317964, "lon": 44.9392992}, {"type": "node", "id": 12296248158, "lat": 40.5340572, "lon": 44.937777}, {"type": "node", "id": 12296248159, "lat": 40.5336996, "lon": 44.9377863}, {"type": "node", "id": 12296248160, "lat": 40.5330196, "lon": 44.9380375}, {"type": "node", "id": 12296248161, "lat": 40.5341759, "lon": 44.9380265}, {"type": "node", "id": 12296248162, "lat": 40.5341089, "lon": 44.9392296}, {"type": "node", "id": 12296248163, "lat": 40.5347463, "lon": 44.9491768}, {"type": "node", "id": 12296248164, "lat": 40.5333402, "lon": 44.9527302}, {"type": "node", "id": 12296248165, "lat": 40.5325808, "lon": 44.9542852}, {"type": "node", "id": 12296248166, "lat": 40.5320528, "lon": 44.9549164}, {"type": "node", "id": 12296248167, "lat": 40.5318931, "lon": 44.9551243}, {"type": "node", "id": 12296248168, "lat": 40.5357524, "lon": 44.975391}, {"type": "node", "id": 12296248169, "lat": 40.5366571, "lon": 44.9750398}, {"type": "node", "id": 12296248170, "lat": 40.5375294, "lon": 44.9741024}, {"type": "node", "id": 12296248171, "lat": 40.5394718, "lon": 44.97466}, {"type": "node", "id": 12296248172, "lat": 40.5386106, "lon": 44.9746045}, {"type": "node", "id": 12296248173, "lat": 40.5406277, "lon": 44.9753358}, {"type": "node", "id": 12296248174, "lat": 40.5415947, "lon": 44.9753544}, {"type": "node", "id": 12296248175, "lat": 40.5454104, "lon": 44.9744386}, {"type": "node", "id": 12296248176, "lat": 40.5434469, "lon": 44.971649}, {"type": "node", "id": 12296248177, "lat": 40.5422735, "lon": 44.9724024}, {"type": "node", "id": 12296248178, "lat": 40.5490318, "lon": 44.9789882}, {"type": "node", "id": 12296248179, "lat": 40.5505945, "lon": 44.9812541}, {"type": "node", "id": 12296248180, "lat": 40.5501011, "lon": 44.9772553}, {"type": "node", "id": 12296248181, "lat": 40.5508964, "lon": 44.9807412}, {"type": "node", "id": 12296248182, "lat": 40.5506977, "lon": 44.9802652}, {"type": "node", "id": 12296248183, "lat": 40.5497576, "lon": 44.9746825}, {"type": "node", "id": 12296248184, "lat": 40.5353475, "lon": 44.9662153}, {"type": "node", "id": 12296248185, "lat": 40.5357503, "lon": 44.9703926}, {"type": "node", "id": 12296248186, "lat": 40.5353805, "lon": 44.9752611}, {"type": "node", "id": 12296248187, "lat": 40.5349488, "lon": 44.9749345}, {"type": "node", "id": 12296547253, "lat": 40.5226744, "lon": 44.7450791}, {"type": "node", "id": 12296547254, "lat": 40.5223399, "lon": 44.7447996}, {"type": "node", "id": 12296547255, "lat": 40.5227086, "lon": 44.7448962}, {"type": "node", "id": 13019884877, "lat": 40.7517692, "lon": 44.9020089}, {"type": "node", "id": 13201770807, "lat": 40.7611356, "lon": 44.8373845}, {"type": "node", "id": 13201770809, "lat": 40.7612415, "lon": 44.8370346}, {"type": "way", "id": 75526658, "nodes": [891857500, 1935498352, 1928606372, 1935498353, 1955816990, 891857501, 1977742323, 1977742340, 1955816992, 1977742356, 1977742355, 1955816996, 1977742354, 1977742342, 1977742330, 1955816991, 1947319220, 1955816993, 1955816995, 1955816994, 1947319222, 891857503, 1947319228, 1928606471, 1947319221, 1928606475, 1928606490, 1947319224, 1947319231, 1947319233, 1947319244, 1947319245, 1947319248, 1947319250, 1947319252, 1947319254, 11569745691, 1947319256, 1928606493, 1928606495, 1928606497, 1928606501, 1928606502, 891857505, 1928606503, 1928606504, 1928606505, 1928606507, 1928606508, 1928606509, 1928606510, 1928606511, 1928606512, 891857506, 2958958479, 1928606538, 891857507, 1928606550, 891857508, 1928606555, 1928606559, 891857509, 1928606557, 1928606554, 1928606556, 891857510, 891857516, 891857517, 1928606548, 1928606553, 891857521, 8003799981, 1928606552, 1928606549, 891857536, 891857538, 1928606547, 1928606545, 891857539, 1928606541, 1928606520, 1928606518, 1928606516, 891857541, 11569745714, 1928606514, 891857542, 891857543, 1928606500, 1928606477, 891857544, 1928606473, 891857546, 1928606469, 891857548, 1928606467, 1928606466, 891857549, 1928606465, 1928606464, 1928606463, 1928606462, 1928606459, 1928606457, 1928606458, 1928606461, 891857550, 1928606456, 1928606454, 1928606451, 11569745716, 1928606449, 1928606433, 1928606431, 1928606429, 1928606427, 1928606425, 1928606424, 6279139156, 891857551, 1928606423, 1928606420, 1928606418, 1928606416, 1928606417, 1928606422, 1928606421, 1928606415, 1928606414, 1928606413, 1928606410, 1928606408, 1928606406, 9196392465, 1928606403, 1928606387, 1928606382, 1928606385, 1928606381, 1928606380, 891857552, 9190383893, 1928606375, 1928606374, 1936263208, 1936263210, 1936263212, 1928606376, 1936263207, 1936263206, 7852998434, 1928606373, 1936263205, 7852998432, 1928606369, 7852998431, 7852998430, 1928606364, 1928606343, 891857553, 1928606341, 1928606342, 1928606360, 1948666472, 1928606362, 1948666473, 1928606367, 891857554, 1928606358, 1928606340, 1928606339, 1928606338, 1928606337, 11569745745, 891857555, 1928606335, 891857558, 891857560, 1928606303, 1928606304, 1928606311, 1928606320, 1928606331, 1928606333, 1947520729, 1947520728, 1928606326, 1928606318, 1928606324, 1947520727, 1947520726, 1928606322, 891857561, 1928606302, 1946801526, 891857562, 1995041543, 9703258252, 9703258251, 9703258250, 891857564, 1928606291, 891857565, 1928606285, 1928606280, 891857567, 1928606265, 891857568, 1928606263, 1928606255, 1928606248, 1928606242, 1928606238, 1928606221, 1928606217, 1928606211, 9467990915, 1928606209, 1928606203, 1928606197, 1928606172, 1928606175, 1928606185, 1928606184, 1928606173, 1928606195, 1928606199, 1928606207, 1928606205, 1928606201, 1928606180, 1928606182, 1928606177, 1928606170, 1928606161, 1928606149, 1928606106, 1928606074, 1928606084, 1928606118, 1928606120, 1928606100, 3772941058, 1928606064, 1928606090, 1928606115, 1928606130, 1928606134, 1928606138, 1928606140, 1928606136, 1928606132, 1928606126, 1928606122, 1928606128, 1928606124, 1928606104, 1928606068, 1928606059, 1928606061, 1928606081, 1928606093, 1928606096, 1928606102, 1928606087, 891857569, 1928606066, 1928606077, 1928606142, 891857570, 1928606163, 1928606157, 1928606155, 1928606159, 1977344357, 1928606146, 1977344352, 1977344348, 1977344332, 1977344320, 1977344317, 1977344350, 1977344339, 1977344323, 1928606047, 11868645404, 1928606041, 1977344276, 1977344275, 1928606036, 1928606044, 1928606048, 891857571, 1928606148, 1928606168, 1928606187, 891857572, 1928606215, 891857574, 9462630980, 1928606219, 1928606223, 1928606225, 1928606226, 1928606227, 891857576, 891857577, 1977333294, 1928606244, 891857578, 1928606250, 1928606264, 1977333332, 1934339101, 1934339103, 7853196048, 1934339105, 1928606274, 1934339111, 891857579, 1934339117, 7853196031, 1928606278, 1934339119, 1934339122, 1934339121, 1928606276, 1934339115, 1934339113, 1947331562, 1934339109, 1947331560, 1928606266, 1947331559, 1934339107, 1934339099, 1934339097, 1928606262, 1947331558, 1934339095, 1934339093, 1928606233, 1934339091, 1934339089, 1934339085, 1928606213, 1934339083, 1934339082, 1934339079, 1934339081, 1934339078, 1934339074, 7854951143, 1934339068, 1934339066, 7854951011, 1934339072, 1934339076, 1928606193, 1977291253, 1977291261, 1977291251, 7853198123, 1928606188, 1934339070, 7853198115, 1934339064, 1928606165, 1990333935, 1928606071, 1947332956, 1947332955, 1947332957, 4684803689, 5712083184, 5712083183, 5712083182, 4684802388, 1928606108, 1928606147, 1928606186, 3810948747, 1928606224, 1928606235, 1977731364, 1928606240, 1977731365, 11569745688, 1977731370, 1928606246, 1977731373, 1928606253, 1977731375, 7853198035, 1977731377, 1928606257, 1928606259, 1928606261, 891857581, 1928606282, 1977731381, 1928606287, 1934388746, 1934388748, 891857582, 1928606289, 1928606293, 1934388751, 11070052786, 10015528586, 1928606298, 1934388753, 1890403453, 1934388760, 1934388761, 1934388762, 1928606300, 1934388763, 1934388764, 891857583, 1934388766, 1934388768, 1934388770, 1934388772, 1934388774, 1934388775, 1928606301, 11569745689, 1934388777, 1934388779, 1934388784, 1934388787, 891857588, 1934388786, 1934388781, 891857589, 11569745690, 1928606329, 1934388790, 1934388791, 1934388800, 1934388804, 891857590, 1934388802, 1934388806, 1934388809, 1928606336, 1934388811, 1934388812, 1934388814, 1934388816, 1928606344, 1928606371, 891857591, 1928606378, 1928606379, 1934388818, 2001911007, 891857500], "tags": {"admin_level": "6", "boundary": "administrative", "name": "\u054e\u0561\u0576\u0561\u0571\u0578\u0580", "name:en": "Vanadzor", "name:hy": "\u054e\u0561\u0576\u0561\u0571\u0578\u0580", "name:ru": "\u0412\u0430\u043d\u0430\u0434\u0437\u043e\u0440", "wikidata": "Q62337", "wikipedia": "en:Vanadzor"}}, {"type": "way", "id": 177131875, "nodes": [5222047873, 5222047872, 5222047871, 5222047870, 5222047869, 5222047868, 5222047867, 5222047866, 5222047865, 5222047864, 5222047863, 5222047862, 5222047861, 5222047860, 5222047859, 5222047858, 5222047857, 5222047856, 5222047855, 5222047884, 5222047883, 5222047882, 5222047881, 5222047880, 5222047879, 2948942959, 5222054901, 6058617389, 5222054900, 5222054899, 5222054898, 5222054897, 5222054896, 5222054895, 5222054894, 5222054893, 5222054892, 5222054891, 5222054890, 5222054889, 5222054888, 5222054887, 5222054886, 5222054885, 5222054884, 5222054883, 5222054882, 5222054881, 5222054880, 5222054879, 5222054878, 5222054877, 5222054876, 5222054875, 5222054874, 5222054873, 5222054872, 13019884877, 5222054871, 5222054870, 6058617387, 5222054869, 5222054868, 5222054867, 6058617386, 5222054866, 5222054865, 5222054864, 5222054863, 6246590190, 5222054862, 6450146070, 6450146072, 8524106456, 6450146071, 6246590189, 6246590188, 6246590186, 5222054861, 6246590187, 5222054860, 6246590185, 5222054859, 5222054858, 5222054857, 5222054856, 5222054855, 5222054854, 5222054853, 5222054852, 5222054851, 5222054850, 10091838765, 10091838763, 5222054849, 5222054848, 6058617431, 5222054847, 10091838766, 6058617430, 10091838771, 10091838772, 10091838770, 10091838769, 6058617429, 6058617428, 1875918777, 5222046332, 6058617427, 5222046331, 5222046330, 6058617426, 5222046329, 5222046328, 6058617425, 5295866063, 6058617424, 5222046327, 5222046326, 5222046325, 5222046324, 5222046323, 5222046322, 5222046321, 5222046320, 5222046319, 5222046318, 5222046317, 5222046316, 5222046315, 5222046314, 5222046313, 5222046312, 5222046311, 5222046310, 5222046309, 4451539014, 13201770807, 5222046308, 13201770809, 5222046307, 5222046306, 5222046305, 5222046304, 5222046303, 6058617422, 5222046302, 5222046301, 5222046300, 5222046299, 6058617480, 5222046298, 5222046297, 6058617435, 5222046296, 5222046295, 5222046294, 5222046293, 5222046292, 5222046290, 5222046289, 5222046288, 5222046287, 6058617155, 5222046286, 5222046285, 5222046284, 5222046283, 5222046282, 5222046281, 5222046280, 5222046279, 5222046278, 5222046277, 5222046276, 5222046275, 5222046274, 5222046273, 5222046272, 6058617162, 5222046271, 6449913599, 6449913597, 6449913598, 5222046270, 6449913600, 5222046269, 6058617161, 5222046268, 5222046267, 5222046266, 5222046265, 5222046264, 5222046263, 5222046262, 5222046261, 5222046260, 5222046259, 5222046258, 5222046257, 6058617152, 6058617151, 5222046256, 6058617420, 6058617150, 5222046255, 6058617149, 6058617148, 5222046254, 5222046253, 5222046252, 5222046251, 5222046250, 5222046249, 5222046248, 5222046247, 6058617418, 6058617417, 5222046246, 6058617416, 6058617415, 5222046245, 5222046244, 5222046243, 6058617414, 5222046242, 6058617413, 5222046241, 5222046240, 6058617412, 5222046239, 6058617411, 5222046238, 5222046237, 5222046236, 5222046235, 5222046234, 5222046233, 6058617410, 5222046232, 5222046231, 5222057341, 5222057340, 5222057339, 5222057338, 5222057337, 5222057336, 5222057335, 5222057334, 5222057333, 5222057332, 5222057331, 5222057330, 5222057329, 6058617409, 5222057328, 5222057327, 5222057326, 6058617408, 5222057325, 6058617407, 5222057324, 5222057323, 5222057322, 5222057321, 5222057320, 5222057319, 6058617406, 5222057318, 5222057317, 5222057316, 5222057315, 5222057314, 5222057313, 5222057312, 5222057311, 6058617405, 5222057310, 5222057309, 6058617404, 5222057308, 5222057307, 5222057306, 5222057305, 5222057304, 5222057303, 5222057302, 5222057301, 5222057300, 5222057299, 5222057298, 6058617403, 5222057297, 5222057296, 5222057295, 5222057294, 5222057293, 5222057292, 5222057291, 5222057290, 6058617402, 5222057289, 5222057288, 5222057287, 6058617401, 5222057286, 6058617400, 5222057285, 5222057284, 5222057283, 5222057282, 5222057281, 5222057280, 5222057279, 5222057278, 5222057277, 5222057276, 5222057275, 5222057274, 6058617399, 5222057273, 5222057272, 5222057271, 5222057270, 5222057269, 5222057268, 5222057267, 5222057266, 5222057265, 5222057264, 5222057263, 6058617398, 5222057262, 5222057261, 5222057260, 5222057259, 5222057258, 5222057257, 5222057256, 5222057255, 5222057254, 5222057253, 5222057252, 5222057251, 5222057250, 5222057249, 5222057248, 5222057247, 5222057246, 5222057245, 5222057244, 6058617397, 5222057243, 5222057242, 5222057241, 5222057240, 5222057239, 5222057238, 5222057237, 5222057236, 5222057235, 5222057234, 5222057233, 5222057232, 6058617394, 5222057231, 6058617395, 6058617396, 5222057230, 5222057229, 5222057228, 5222057227, 5222057226, 5222057225, 5222057224, 5222057223, 5222057222, 5222057221, 5222055720, 5222055719, 5222055718, 5222055717, 5222055716, 5222055715, 6058617393, 5222055714, 5222055713, 6058617392, 5222055712, 6058617391, 5222055711, 5222055710, 6058617390, 5222055709, 5222055708, 5222047873], "tags": {"landuse": "residential", "name": "\u0534\u056b\u056c\u056b\u057b\u0561\u0576", "name:en": "Dilijan", "name:fa": "\u062f\u06cc\u0644\u06cc\u062c\u0627\u0646", "name:hy": "\u0534\u056b\u056c\u056b\u057b\u0561\u0576", "name:ru": "\u0414\u0438\u043b\u0438\u0436\u0430\u043d", "place": "town", "population": "20000", "wikidata": "Q39569", "wikipedia": "en:Dilijan"}}, {"type": "way", "id": 177922253, "nodes": [9239815021, 9239815026, 9239815024, 9239815023, 9239815022, 12296547254, 12296547255, 12296547253, 4293552260, 2032824714, 2032824651, 2032824775, 2032824337, 2032824744, 2032824241, 10197003731, 2032824598, 8462773093, 8462773095, 8462773092, 9337511879, 9337511881, 9337511880, 1883221545, 2037540655, 5005022855, 2037540653, 5005022854, 2037540620, 5005022862, 5005022863, 5005022864, 2037540580, 1883221547, 5477799961, 5477799962, 5477799963, 5477799964, 5477799960, 5477799958, 5477799959, 5477799957, 1883221548, 6123293974, 1883221549, 6123293973, 4761481689, 6123293975, 2040295257, 1883221546, 1883221544, 9239762553, 9239762552, 1883221542, 5477230600, 5477230602, 5477230604, 5477230603, 5477230601, 7008157473, 1883221540, 7001076315, 2034544332, 7001076314, 8380993046, 8330137453, 9239787178, 9239762551, 9239787186, 9239787179, 9239787182, 9239787181, 9239787180, 9239762554, 9239762555, 9239762556, 8330137452, 9239762557, 9239762558, 9239762559, 8330137455, 9239762560, 9239762561, 9239762562, 9239762563, 8330137456, 1883221541, 9239787200, 9239815021], "tags": {"admin_level": "6", "boundary": "administrative", "int_name": "Hrazdan", "is_in": "Armenia, Kotayk", "name": "\u0540\u0580\u0561\u0566\u0564\u0561\u0576", "name:de": "Hrasdan", "name:en": "Hrazdan", "name:hy": "\u0540\u0580\u0561\u0566\u0564\u0561\u0576", "name:lt": "Hrazdanas", "name:ru": "\u0420\u0430\u0437\u0434\u0430\u043d", "nat_name": "\u0540\u0580\u0561\u0566\u0564\u0561\u0576", "old_name": "Akhta"}}, {"type": "way", "id": 177922375, "nodes": [1883222676, 3736463022, 3736463730, 1883222683, 12296199587, 1883222685, 12296248137, 1883222694, 12296248138, 1883222690, 1883222692, 1883222698, 12296199592, 12296248139, 12296199593, 5713713599, 5713713596, 5713713598, 5713713597, 1883222700, 12296248183, 12296248180, 12296248182, 12296248181, 12296248179, 12296248178, 1883222677, 12296248175, 12296248176, 12296248177, 1883222672, 12296248174, 12296248173, 12296248171, 12296248172, 1883222668, 12296248170, 12296248169, 12296248168, 12296248186, 12296248187, 8760636772, 8760636771, 8760636770, 1863095181, 8760636769, 8760636768, 8760636766, 8760636767, 183527020, 183527021, 8760636765, 8760636764, 8760636763, 183527023, 8760636762, 8760636761, 8760636760, 8760636758, 12296248185, 1863095180, 8760636753, 8760636754, 8760636755, 8760636756, 8760636757, 8760636752, 8760636751, 8760636750, 8760636749, 1863095129, 183527025, 8760636748, 8760636747, 8760636746, 8760636744, 8760636745, 1863095164, 8760656220, 8760656219, 1990008752, 1863095130, 8760656218, 1990009159, 8760656217, 1863095163, 8760653216, 8760653215, 1990009165, 183527026, 8760653214, 8760653213, 183527028, 8760653212, 1990009106, 8760653211, 1990009205, 8760653210, 183527030, 12296248184, 1990008905, 1990008798, 1863095165, 1990009143, 1863095128, 1990008804, 8760653208, 183527031, 1990009062, 8760653207, 1863095170, 8760653206, 1990008697, 1863095177, 1990008653, 8760653205, 1990008760, 1990009014, 183527032, 8760653204, 1990009054, 8760653200, 1990009171, 1990008638, 183527033, 8760653199, 8760653198, 1990009120, 1990008860, 8760653197, 183527035, 8760653196, 1990009174, 8760653195, 183527036, 12296248167, 12296248166, 12296248165, 12296248164, 1883222666, 12296248163, 1883222662, 1883222659, 1883222664, 12296248162, 12296248161, 12296248158, 12296248159, 12296248160, 12296248157, 12296248156, 12296248155, 12296248154, 12296248153, 12296248152, 12296248151, 12296248150, 12296248149, 12296248145, 12296248148, 12296248147, 12296248146, 7350023912, 12296248144, 7350023914, 7350023915, 5712857244, 1883222670, 2032824806, 2032824449, 1883222674, 1883222676], "tags": {"admin_level": "6", "boundary": "administrative", "is_in": "Armenia, Gegharkunik", "name": "\u054d\u0587\u0561\u0576", "name:en": "Sevan town", "name:hy": "\u054d\u0587\u0561\u0576", "name:ru": "\u0421\u0435\u0432\u0430\u043d"}}, {"type": "way", "id": 222831568, "nodes": [2317750216, 2317750213, 2317750212, 5252328771, 2565332154, 5252328770, 3152843788, 5926233609, 3152843791, 2565332153, 2317750208, 2317750202, 2317750205, 2317750206, 2317750203, 2317750204, 2317750207, 2317750209, 2317750210, 5337681097, 2317750211, 2317750215, 5483306752, 5483306751, 5483306750, 5483306749, 5483145827, 11576447025, 5483306748, 5483306747, 5483145825, 5483145826, 2317750218, 2317750214, 2317750217, 9450208339, 2317750219, 4042777490, 2317750216], "tags": {"admin_level": "6", "boundary": "administrative", "int_name": "Tsakhkadzor", "is_in": "Armenia, Kotayk", "name": "\u053e\u0561\u0572\u056f\u0561\u200e\u0571\u0578\u0580", "name:en": "Border Tsakhkadzor", "name:hy": "\u053e\u0561\u0572\u056f\u0561\u200e\u0571\u0578\u0580", "name:ru": "\u0426\u0430\u0445\u043a\u0430\u0434\u0437\u043e\u0440", "nat_name": "\u053e\u0561\u0572\u056f\u0561\u200e\u0571\u0578\u0580"}}, {"type": "way", "id": 601084549, "nodes": [5713713550, 5713713551, 5713713552, 5713713553, 5713713554, 5713713555, 5713713556, 5713713557, 5713713558, 5713713559, 5713713560, 5713713561, 5713713562, 5713713563, 5713713564, 5713713565, 5713713566, 5713713567, 5713713568, 5713713569, 5713713570, 5713713571, 5713713572, 5713713573, 5713713574, 5713713575, 5713713576, 5713713577, 5713713578, 5713713579, 5713713580, 5713713581, 5713713582, 5713713583, 5713713584, 5713713585, 5713713586, 5713713587, 5713713588, 5713713589, 5713713590, 5713713591, 5713713592, 5713713593, 5713713594, 5713713595, 5713713550], "tags": {"admin_level": "5", "boundary": "administrative", "is_in": "Armenia, Gegharkunik", "name": "\u054d\u0587\u0561\u0576\u056b \u0569\u0565\u0580\u0561\u056f\u0572\u0566\u056b", "name:en": "Sevan peninsula", "name:ru": "\u0421\u0435\u0432\u0430\u043d\u0441\u043a\u0438\u0439 \u043f\u043e\u043b\u0443\u043e\u0441\u0442\u0440\u043e\u0432"}}, {"type": "way", "id": 911419477, "nodes": [8462773109, 8462773052, 8462773054, 8462773053, 8462773055, 8462773056, 8462773057, 8462773058, 8462773060, 8462773061, 8462773059, 8462773062, 8462773064, 8462773065, 8462773066, 8462773067, 8462773068, 8462773069, 8462834983, 8550529547, 8550529564, 8462773070, 8462773071, 10993185204, 8462773072, 8462773073, 8462773074, 8462773075, 8462773076, 8462773077, 8462773078, 8462773079, 9239787201, 8462773081, 9239787202, 9239787203, 9239787204, 9239787207, 8330137452, 9239787208, 9239787209, 9239787205, 9239787210, 9239787211, 9239787212, 9239787213, 9239787214, 8462773080, 8462773082, 8462773083, 8462773084, 8462773088, 8462773086, 9239815035, 9239815036, 9239815037, 9239815038, 9239815039, 9239815040, 9239815042, 9239815043, 9239815044, 9239815045, 9239815046, 9239815047, 9239815048, 9239815049, 9239815050, 8462773085, 8462773089, 8462815017, 8462773063, 8462773091, 8462773090, 10197003731, 2032824598, 8462773093, 8462773095, 8462773092, 9337511879, 9337511881, 9337511877, 9337511878, 9337511876, 8462773096, 8462773097, 8462773094, 8462904694, 9337511886, 8462773098, 8462773099, 8462773101, 8462773102, 8462773103, 8462773100, 8462773104, 8462773105, 8462773106, 8462773107, 8462773108, 8462773109], "tags": {"name": "\u0540\u0580\u0561\u0566\u0564\u0561\u0576", "name:en": "Hrazdan", "name:hy": "\u0540\u0580\u0561\u0566\u0564\u0561\u0576", "name:ru": "\u0420\u0430\u0437\u0434\u0430\u043d", "place": "town", "wikidata": "Q31610", "wikipedia": "en:Hrazdan"}}, {"type": "relation", "id": 7825883, "members": [{"type": "node", "ref": 208853190, "role": "admin_centre"}, {"type": "way", "ref": 75526658, "role": "outer"}], "tags": {"admin_level": "6", "boundary": "administrative", "fixme": "Not sure what the agreed rule should be for tags (in relations or line?) nor about usage of landuse=residential.", "name": "\u054e\u0561\u0576\u0561\u0571\u0578\u0580", "name:de": "Wanadsor", "name:en": "Vanadzor", "name:fa": "\u0648\u0627\u0646\u0627\u062f\u0632\u0648\u0631", "name:fr": "Vanadzor", "name:hy": "\u054e\u0561\u0576\u0561\u0571\u0578\u0580", "name:it": "Vanadzor", "name:ka": "\u10d5\u10d0\u10dc\u10d0\u10eb\u10dd\u10e0\u10d8", "name:ko": "\ubc14\ub098\uc870\ub974", "name:lt": "Vanadzoras", "name:ru": "\u0412\u0430\u043d\u0430\u0434\u0437\u043e\u0440", "name:tr": "Vanadzor", "old_name": "Gharakilisa;Kirovakan", "old_name:ru": "\u041a\u0430\u0440\u0430\u043a\u043b\u0438\u0441;\u041a\u0430\u0440\u0430\u043a\u0438\u043b\u0438\u0441\u0435;\u041a\u0438\u0440\u043e\u0432\u0430\u043a\u0430\u043d", "place": "city", "population": "82200", "type": "boundary", "wikidata": "Q62337", "wikipedia": "en:Vanadzor"}}, {"type": "relation", "id": 7843731, "members": [{"type": "way", "ref": 222831568, "role": "outer"}, {"type": "node", "ref": 210071730, "role": "admin_centre"}], "tags": {"admin_level": "6", "boundary": "administrative", "ele": "1841", "int_name": "Tsakhkadzor", "is_in": "Armenia, Kotayk", "name": "\u053e\u0561\u0572\u056f\u0561\u200e\u0571\u0578\u0580", "name:el": "\u03a4\u03c3\u03b1\u03c7\u03ba\u03b1\u03bd\u03c4\u03b6\u03cc\u03c1", "name:en": "Tsakhkadzor", "name:hy": "\u053e\u0561\u0572\u056f\u0561\u200e\u0571\u0578\u0580", "name:ru": "\u0426\u0430\u0445\u043a\u0430\u0434\u0437\u043e\u0440", "nat_name": "\u053e\u0561\u0572\u056f\u0561\u200e\u0571\u0578\u0580", "place": "town", "population": "1620", "type": "boundary", "website": "http://www.tsakhkadzor.am", "wikidata": "Q140342", "wikipedia": "en:Tsaghkadzor"}}, {"type": "relation", "id": 8404520, "members": [{"type": "way", "ref": 177922375, "role": "outer"}, {"type": "way", "ref": 601084549, "role": "outer"}], "tags": {"admin_level": "6", "boundary": "administrative", "name": "\u054d\u0587\u0561\u0576", "name:de": "Sewan (Stadt)", "name:en": "Sevan", "name:es": "Sevan", "name:fr": "Sevan", "name:hy": "\u054d\u0587\u0561\u0576", "name:lt": "Sevanas (miestas)", "name:ru": "\u0421\u0435\u0432\u0430\u043d", "place": "town", "population": "23200", "type": "boundary", "wikidata": "Q39625", "wikipedia": "en:Sevan, Armenia"}}, {"type": "relation", "id": 9084333, "members": [{"type": "way", "ref": 177922253, "role": "outer"}], "tags": {"admin_level": "6", "boundary": "administrative", "name": "\u0540\u0580\u0561\u0566\u0564\u0561\u0576", "name:de": "Hrasdan", "name:en": "Hrazdan", "name:hy": "\u0540\u0580\u0561\u0566\u0564\u0561\u0576", "name:lt": "Hrazdanas", "name:ru": "\u0420\u0430\u0437\u0434\u0430\u043d", "place": "town", "population": "42000", "type": "boundary", "wikidata": "Q31610", "wikipedia": "en:Hrazdan"}}]}