{"version": 0.6, "generator": "Overpass API 0.7.62.8 e802775f", "osm3s": {"timestamp_osm_base": "2025-12-01T14:38:14Z", "copyright": "The data included in this document is from www.openstreetmap.org. The data is made available under ODbL."}, "elements": [{"type": "node", "id": 208840062, "lat": 40.8779943, "lon": 45.1437542, "tags": {"capital": "4", "is_in:country": "Armenia", "is_in:country_code": "AM", "is_in:municipality": "\u053b\u057b\u0587\u0561\u0576\u056b \u0570\u0561\u0574\u0561\u0575\u0576\u0584", "is_in:region": "\u054f\u0561\u057e\u0578\u0582\u0577\u056b \u0574\u0561\u0580\u0566", "name": "\u053b\u057b\u0587\u0561\u0576", "name:ar": "\u0625\u064a\u062c\u0648\u0627\u0646", "name:az": "\u0130cevan", "name:be": "\u0406\u0434\u0436\u044d\u0432\u0430\u043d", "name:bg": "\u0418\u0434\u0436\u0435\u0432\u0430\u043d", "name:ca": "Idjevan", "name:ce": "\u0418\u0434\u0436\u0435\u0432\u0430\u043d", "name:ckb": "\u0626\u06cc\u062c\u06ce\u06a4\u0627\u0646", "name:cs": "Tavu\u0161", "name:cv": "\u0418\u0434\u0436\u0435\u0432\u0430\u043d", "name:da": "Ijevan", "name:de": "Idschewan", "name:el": "\u0399\u03bd\u03c4\u03b6\u03b5\u03b2\u03ac\u03bd", "name:en": "Ijevan", "name:eo": "I\u011devano", "name:es": "Ijev\u00e1n", "name:et": "Id\u017eevan", "name:fa": "\u0627\u06cc\u062c\u0648\u0627\u0646", "name:fi": "Id\u017eevan", "name:fr": "Idjevan", "name:he": "\u05d0\u05d9\u05d2'\u05d1\u05d0\u05df", "name:hu": "Idzsevan", "name:hy": "\u053b\u057b\u0587\u0561\u0576", "name:id": "Ijevan", "name:it": "Ijevan", "name:ja": "\u30a4\u30b8\u30a7\u30f4\u30a1\u30f3", "name:ka": "\u10d8\u10ef\u10d4\u10d5\u10d0\u10dc\u10d8", "name:ko": "\uc774\uc81c\ubc18", "name:ku": "\u00cec\u00eavan", "name:lt": "Id\u017eevanas", "name:ml": "\u0d07\u0d1c\u0d47\u0d35\u0d3e\u0d7b", "name:ms": "Ijevan", "name:nb": "Ijevan", "name:nl": "Idzjevan", "name:os": "\u0418\u0434\u0436\u0435\u0432\u0430\u043d", "name:pa": "\u0a07\u0a1c\u0a47\u0a35\u0a3e\u0a28", "name:pl": "Id\u017cewan", "name:ro": "Ijevan", "name:ru": "\u0418\u0434\u0436\u0435\u0432\u0430\u043d", "name:sl": "Id\u017eevan", "name:sr": "\u0418\u045f\u0435\u0432\u0430\u043d", "name:sv": "Idzjevan", "name:sw": "Ijevan", "name:tr": "\u0130cevan", "name:uk": "\u0406\u0434\u0436\u0435\u0432\u0430\u043d", "name:ur": "\u0627\u06cc\u062c\u0648\u0627\u0646", "name:uz": "Ijevan", "name:vi": "Ijevan", "name:zh": "\u4f0a\u6770\u4e07", "nat_name": "\u053b\u057b\u0587\u0561\u0576", "place": "town", "population": "19773", "population:date": "2022-01-01", "source:population": "Armstat", "wikidata": "Q62367", "wikipedia": "en:Ijevan"}}, {"type": "node", "id": 209727388, "lat": 40.8837828, "lon": 45.3923321, "tags": {"is_in:country": "Armenia", "is_in:country_code": "AM", "is_in:municipality": "\u0532\u0565\u0580\u0564\u056b \u0570\u0561\u0574\u0561\u0575\u0576\u0584", "is_in:region": "\u054f\u0561\u057e\u0578\u0582\u0577\u056b \u0574\u0561\u0580\u0566", "name": "\u0532\u0565\u0580\u0564", "name:ckb": "\u0628\u06ce\u0631\u062f", "name:el": "\u039c\u03c0\u03b5\u03c1\u03bd\u03c4", "name:en": "Berd", "name:fa": "\u0628\u0631\u062f", "name:hy": "\u0532\u0565\u0580\u0564", "name:ml": "\u0d2c\u0d46\u0d7c\u0d21\u0d4d", "name:ru": "\u0411\u0435\u0440\u0434", "place": "town", "population": "6990", "population:date": "2022-01-01", "source:population": "Armstat", "wikidata": "Q1886688", "wikipedia": "en:Berd"}}, {"type": "node", "id": 210172791, "lat": 40.5973015, "lon": 45.35495, "tags": {"is_in:country": "Armenia", "is_in:country_code": "AM", "is_in:municipality": "\u0543\u0561\u0574\u0562\u0561\u0580\u0561\u056f\u056b \u0570\u0561\u0574\u0561\u0575\u0576\u0584", "is_in:region": "\u0533\u0565\u0572\u0561\u0580\u0584\u0578\u0582\u0576\u056b\u0584\u056b \u0574\u0561\u0580\u0566", "name": "\u0543\u0561\u0574\u0562\u0561\u0580\u0561\u056f", "name:az": "\u00c7\u0259mb\u0259r\u0259k", "name:ckb": "\u0686\u0627\u0645\u0628\u0627\u0631\u0627\u06a9", "name:el": "\u03a4\u03c3\u03b1\u03bc\u03c0\u03b1\u03c1\u03ac\u03ba", "name:en": "Chambarak", "name:fa": "\u0686\u0627\u0645\u0628\u0627\u0631\u0627\u06a9", "name:hy": "\u0543\u0561\u0574\u0562\u0561\u0580\u0561\u056f", "name:ku": "\u00c7ambarak", "name:ml": "\u0d1a\u0d3e\u0d02\u0d2c\u0d31\u0d15\u0d4d\u0d15\u0d4d", "name:ru": "\u0427\u0430\u043c\u0431\u0430\u0440\u0430\u043a", "place": "town", "population": "1115", "population:date": "2022-01-01", "source:population": "Armstat", "wikidata": "Q1024822", "wikipedia": "en:Chambarak"}}, {"type": "node", "id": 467024323, "lat": 40.851672, "lon": 45.1574258, "tags": {"is_in:country": "Armenia", "is_in:country_code": "AM", "is_in:municipality": "\u053b\u057b\u0587\u0561\u0576\u056b \u0570\u0561\u0574\u0561\u0575\u0576\u0584", "is_in:region": "\u054f\u0561\u057e\u0578\u0582\u0577\u056b \u0574\u0561\u0580\u0566", "name": "\u0533\u0561\u0576\u0571\u0561\u0584\u0561\u0580", "name:en": "Gandzakar", "name:hy": "\u0533\u0561\u0576\u0571\u0561\u0584\u0561\u0580", "name:ru": "\u0413\u0430\u043d\u0434\u0437\u0430\u043a\u0430\u0440", "place": "village", "population": "3519", "population:date": "2022-01-01", "source:population": "Armstat", "wikidata": "Q69472", "wikipedia": "en:Gandzakar"}}, {"type": "node", "id": 970813551, "lat": 40.8963976, "lon": 45.1316988}, {"type": "node", "id": 970813554, "lat": 40.9010052, "lon": 45.1299959}, {"type": "node", "id": 970813557, "lat": 40.9025125, "lon": 45.1364423}, {"type": "node", "id": 970813559, "lat": 40.902496, "lon": 45.1469767}, {"type": "node", "id": 970813578, "lat": 40.893473, "lon": 45.1487115}, {"type": "node", "id": 970813598, "lat": 40.892375, "lon": 45.136677}, {"type": "node", "id": 1438538508, "lat": 40.5000694, "lon": 45.2727227, "tags": {"is_in:country": "Armenia", "is_in:country_code": "AM", "is_in:municipality": "\u0547\u0578\u0572\u0561\u056f\u0561\u0569\u056b \u0570\u0561\u0574\u0561\u0575\u0576\u0584", "is_in:region": "\u0533\u0565\u0572\u0561\u0580\u0584\u0578\u0582\u0576\u056b\u0584\u056b \u0574\u0561\u0580\u0566", "name": "\u0547\u0578\u0572\u0561\u056f\u0561\u0569", "name:en": "Shogakat", "name:hy": "\u0547\u0578\u0572\u0561\u056f\u0561\u0569", "name:ru": "\u0428\u043e\u0433\u0430\u043a\u0430\u0442", "old_name": "\u0547\u0578\u0580\u056a\u0561", "old_name:en": "Shorzha", "old_name:hy": "\u0547\u0578\u0580\u056a\u0561", "old_name:ru": "\u0428\u043e\u0440\u0436\u0430", "place": "village", "population": "565", "population:date": "2022-01-01", "source:population": "Armstat", "wikidata": "Q1024552", "wikipedia": "en:Shoghakat, Armenia"}}, {"type": "node", "id": 1438538511, "lat": 40.5300685, "lon": 45.2800862, "tags": {"is_in:country": "Armenia", "is_in:country_code": "AM", "is_in:municipality": "\u0547\u0578\u0572\u0561\u056f\u0561\u0569\u056b \u0570\u0561\u0574\u0561\u0575\u0576\u0584", "is_in:region": "\u0533\u0565\u0572\u0561\u0580\u0584\u0578\u0582\u0576\u056b\u0584\u056b \u0574\u0561\u0580\u0566", "name": "\u0531\u0572\u0562\u0565\u0580\u0584", "name:en": "Aghberk", "name:hy": "\u0531\u0572\u0562\u0565\u0580\u0584", "name:ru": "\u0410\u0433\u0431\u0435\u0440\u043a", "place": "village", "population": "266", "population:date": "2022-01-01", "source:population": "Armstat", "wikidata": "Q1024539", "wikipedia": "en:Aghberk"}}, {"type": "node", "id": 1875918719, "lat": 40.5895246, "lon": 45.3486493}, {"type": "node", "id": 1875918720, "lat": 40.5925091, "lon": 45.3580631}, {"type": "node", "id": 1875918721, "lat": 40.601729, "lon": 45.3569672}, {"type": "node", "id": 1875918722, "lat": 40.6060822, "lon": 45.3475588}, {"type": "node", "id": 1875918723, "lat": 40.6077129, "lon": 45.3493147}, {"type": "node", "id": 1875918872, "lat": 40.8728749, "lon": 45.3837342}, {"type": "node", "id": 1875918873, "lat": 40.8734344, "lon": 45.3996956}, {"type": "node", "id": 1875918874, "lat": 40.8766438, "lon": 45.3758439}, {"type": "node", "id": 1875918875, "lat": 40.8796918, "lon": 45.4037294}, {"type": "node", "id": 1875918876, "lat": 40.8885071, "lon": 45.3792946}, {"type": "node", "id": 1875918877, "lat": 40.8894183, "lon": 45.4018097}, {"type": "node", "id": 1875918878, "lat": 40.8921751, "lon": 45.3882795}, {"type": "node", "id": 1875918879, "lat": 40.8936933, "lon": 45.3936176}, {"type": "node", "id": 1882609092, "lat": 40.8699335, "lon": 45.1382402}, {"type": "node", "id": 1882609093, "lat": 40.8768848, "lon": 45.1387966}, {"type": "node", "id": 1882609094, "lat": 40.8711992, "lon": 45.1531488}, {"type": "node", "id": 1882609095, "lat": 40.8877589, "lon": 45.145774}, {"type": "node", "id": 1882609096, "lat": 40.8972606, "lon": 45.1498753}, {"type": "node", "id": 2032851608, "lat": 40.640295, "lon": 45.5217693, "tags": {"addr:city": "G\u0259d\u0259b\u0259y rayonu", "alt_name:hy": "\u0531\u0580\u056e\u057e\u0561\u0577\u0565\u0576", "name": "Ba\u015fk\u0259nd", "name:az": "Ba\u015fk\u0259nd", "name:en": "Bashkend", "place": "village", "population": "127", "wikipedia": "az:Ba\u015fk\u0259nd (G\u0259d\u0259b\u0259y)"}}, {"type": "node", "id": 2145157722, "lat": 40.8857733, "lon": 45.4593427}, {"type": "node", "id": 2226166543, "lat": 40.7224234, "lon": 45.0924224, "tags": {"is_in:country": "Armenia", "is_in:country_code": "AM", "is_in:municipality": "\u0534\u056b\u056c\u056b\u057b\u0561\u0576\u056b \u0570\u0561\u0574\u0561\u0575\u0576\u0584", "is_in:region": "\u054f\u0561\u057e\u0578\u0582\u0577\u056b \u0574\u0561\u0580\u0566", "name": "\u0531\u0572\u0561\u057e\u0576\u0561\u057e\u0561\u0576\u0584", "name:en": "Aghavnavank", "name:hy": "\u0531\u0572\u0561\u057e\u0576\u0561\u057e\u0561\u0576\u0584", "name:ru": "\u0410\u0433\u0430\u0432\u043d\u0430\u0432\u0430\u043d\u043a", "place": "village", "population": "237", "population:date": "2022-01-01", "source:population": "Armstat", "wikidata": "Q2212551", "wikipedia": "hy:\u0531\u0572\u0561\u057e\u0576\u0561\u057e\u0561\u0576\u0584 (\u054f\u0561\u057e\u0578\u0582\u0577\u056b \u0574\u0561\u0580\u0566)"}}, {"type": "node", "id": 2226166557, "lat": 40.6849051, "lon": 45.0883495, "tags": {"is_in:country": "Armenia", "is_in:country_code": "AM", "is_in:municipality": "\u0543\u0561\u0574\u0562\u0561\u0580\u0561\u056f\u056b \u0570\u0561\u0574\u0561\u0575\u0576\u0584", "is_in:region": "\u0533\u0565\u0572\u0561\u0580\u0584\u0578\u0582\u0576\u056b\u0584\u056b \u0574\u0561\u0580\u0566", "name": "\u0531\u0576\u057f\u0561\u057c\u0561\u0574\u0565\u057b", "name:en": "Antaramej", "name:hy": "\u0531\u0576\u057f\u0561\u057c\u0561\u0574\u0565\u057b", "name:ru": "\u0410\u043d\u0442\u0430\u0440\u0430\u043c\u0435\u0447", "place": "village", "population": "165", "population:date": "2022-01-01", "source:population": "Armstat", "wikidata": "Q554466", "wikipedia": "en:Antaramej"}}, {"type": "node", "id": 2226166567, "lat": 40.6699332, "lon": 45.1131388, "tags": {"is_in:country": "Armenia", "is_in:country_code": "AM", "is_in:municipality": "\u0543\u0561\u0574\u0562\u0561\u0580\u0561\u056f\u056b \u0570\u0561\u0574\u0561\u0575\u0576\u0584", "is_in:region": "\u0533\u0565\u0572\u0561\u0580\u0584\u0578\u0582\u0576\u056b\u0584\u056b \u0574\u0561\u0580\u0566", "name": "\u0532\u0561\u0580\u0565\u057a\u0561\u057f", "name:en": "Barepat", "name:hy": "\u0532\u0561\u0580\u0565\u057a\u0561\u057f", "name:ru": "\u0411\u0430\u0440\u0435\u043f\u0430\u0442", "place": "village", "population": "48", "population:date": "2022-01-01", "source:population": "Armstat", "wikidata": "Q4860462", "wikipedia": "en:Barepat"}}, {"type": "node", "id": 2226166571, "lat": 40.6856692, "lon": 45.1312471, "tags": {"is_in:country": "Armenia", "is_in:country_code": "AM", "is_in:municipality": "\u0543\u0561\u0574\u0562\u0561\u0580\u0561\u056f\u056b \u0570\u0561\u0574\u0561\u0575\u0576\u0584", "is_in:region": "\u0533\u0565\u0572\u0561\u0580\u0584\u0578\u0582\u0576\u056b\u0584\u056b \u0574\u0561\u0580\u0566", "name": "\u0534\u057a\u0580\u0561\u0562\u0561\u056f", "name:en": "Dprabak", "name:hy": "\u0534\u057a\u0580\u0561\u0562\u0561\u056f", "name:ru": "\u0414\u043f\u0440\u0430\u0431\u0430\u043a", "place": "village", "population": "557", "population:date": "2022-01-01", "source:population": "Armstat", "wikidata": "Q1024554", "wikipedia": "en:Dprabak"}}, {"type": "node", "id": 2226166574, "lat": 40.6998477, "lon": 45.1060713, "tags": {"is_in:country": "Armenia", "is_in:country_code": "AM", "is_in:municipality": "\u0543\u0561\u0574\u0562\u0561\u0580\u0561\u056f\u056b \u0570\u0561\u0574\u0561\u0575\u0576\u0584", "is_in:region": "\u0533\u0565\u0572\u0561\u0580\u0584\u0578\u0582\u0576\u056b\u0584\u056b \u0574\u0561\u0580\u0566", "name": "\u0541\u0578\u0580\u0561\u057e\u0561\u0576\u0584", "name:en": "Dzoravank", "name:hy": "\u0541\u0578\u0580\u0561\u057e\u0561\u0576\u0584", "name:ru": "\u0414\u0437\u043e\u0440\u0430\u0432\u0430\u043d\u043a", "place": "village", "population": "148", "population:date": "2022-01-01", "source:population": "Armstat", "wikidata": "Q1024560", "wikipedia": "en:Dzoravank"}}, {"type": "node", "id": 2226166675, "lat": 40.6901285, "lon": 45.145998}, {"type": "node", "id": 2456021927, "lat": 40.6877572, "lon": 45.0869315}, {"type": "node", "id": 2617652735, "lat": 40.8812149, "lon": 45.4415318, "tags": {"is_in:country": "Armenia", "is_in:country_code": "AM", "is_in:municipality": "\u0532\u0565\u0580\u0564\u056b \u0570\u0561\u0574\u0561\u0575\u0576\u0584", "is_in:region": "\u054f\u0561\u057e\u0578\u0582\u0577\u056b \u0574\u0561\u0580\u0566", "name": "\u054e\u0565\u0580\u056b\u0576 \u053f\u0561\u0580\u0574\u056b\u0580 \u0531\u0572\u0562\u0575\u0578\u0582\u0580", "name:en": "Verin Karmiraghbyur", "name:hy": "\u054e\u0565\u0580\u056b\u0576 \u053f\u0561\u0580\u0574\u056b\u0580 \u0531\u0572\u0562\u0575\u0578\u0582\u0580", "name:ru": "\u0412\u0435\u0440\u0445\u043d\u0438\u0439 \u041a\u0430\u0440\u043c\u0438\u0440\u0430\u0445\u043f\u044e\u0440", "place": "village", "population": "1507", "population:date": "2022-01-01", "source:population": "Armstat", "wikidata": "Q784550", "wikipedia": "en:Verin Karmiraghbyur"}}, {"type": "node", "id": 2617652736, "lat": 40.8763801, "lon": 45.4562947, "tags": {"is_in:country": "Armenia", "is_in:country_code": "AM", "is_in:municipality": "\u0532\u0565\u0580\u0564\u056b \u0570\u0561\u0574\u0561\u0575\u0576\u0584", "is_in:region": "\u054f\u0561\u057e\u0578\u0582\u0577\u056b \u0574\u0561\u0580\u0566", "name": "\u0546\u0578\u0580\u0561\u0577\u0565\u0576", "name:en": "Norashen", "name:hy": "\u0546\u0578\u0580\u0561\u0577\u0565\u0576", "name:ru": "\u041d\u043e\u0440\u0430\u0448\u0435\u043d", "place": "village", "population": "1371", "population:date": "2022-01-01", "source:population": "Armstat", "wikidata": "Q2536432", "wikipedia": "en:Norashen, Tavush"}}, {"type": "node", "id": 2940563094, "lat": 40.6851696, "lon": 45.0843413}, {"type": "node", "id": 2940568710, "lat": 40.7255576, "lon": 45.0762553}, {"type": "node", "id": 2940568716, "lat": 40.7253348, "lon": 45.0769537}, {"type": "node", "id": 2940568718, "lat": 40.7250195, "lon": 45.0776862}, {"type": "node", "id": 2940569727, "lat": 40.7247647, "lon": 45.0805903}, {"type": "node", "id": 2940569734, "lat": 40.7246857, "lon": 45.0807148}, {"type": "node", "id": 2940569744, "lat": 40.7247224, "lon": 45.0804169}, {"type": "node", "id": 2940570085, "lat": 40.7212997, "lon": 45.0900199}, {"type": "node", "id": 2940570095, "lat": 40.7211574, "lon": 45.090396}, {"type": "node", "id": 2952401135, "lat": 40.4976809, "lon": 45.3636389, "tags": {"is_in:country": "Armenia", "is_in:country_code": "AM", "is_in:municipality": "\u0547\u0578\u0572\u0561\u056f\u0561\u0569\u056b \u0570\u0561\u0574\u0561\u0575\u0576\u0584", "is_in:region": "\u0533\u0565\u0572\u0561\u0580\u0584\u0578\u0582\u0576\u056b\u0584\u056b \u0574\u0561\u0580\u0566", "name": "\u0531\u0580\u057f\u0561\u0576\u056b\u0577", "name:az": "Ardan\u0131\u015f", "name:en": "Artanish", "name:hy": "\u0531\u0580\u057f\u0561\u0576\u056b\u0577", "name:ru": "\u0410\u0440\u0442\u0430\u043d\u0438\u0448", "place": "village", "population": "607", "population:date": "2022-01-01", "source:population": "Armstat", "wikidata": "Q1024715", "wikipedia": "en:Artanish"}}, {"type": "node", "id": 2952401175, "lat": 40.5628341, "lon": 45.2368654, "tags": {"is_in:country": "Armenia", "is_in:country_code": "AM", "is_in:municipality": "\u0547\u0578\u0572\u0561\u056f\u0561\u0569\u056b \u0570\u0561\u0574\u0561\u0575\u0576\u0584", "is_in:region": "\u0533\u0565\u0572\u0561\u0580\u0584\u0578\u0582\u0576\u056b\u0584\u056b \u0574\u0561\u0580\u0566", "name": "\u0534\u0580\u0561\u056d\u057f\u056b\u056f", "name:en": "Drakhtik", "name:hy": "\u0534\u0580\u0561\u056d\u057f\u056b\u056f", "name:ru": "\u0414\u0440\u0430\u0445\u0442\u0438\u043a", "place": "village", "population": "915", "population:date": "2022-01-01", "source:population": "Armstat", "wikidata": "Q1024548", "wikipedia": "en:Drakhtik"}}, {"type": "node", "id": 2952401674, "lat": 40.6489277, "lon": 45.1098333, "tags": {"is_in:country": "Armenia", "is_in:country_code": "AM", "is_in:municipality": "\u0543\u0561\u0574\u0562\u0561\u0580\u0561\u056f\u056b \u0570\u0561\u0574\u0561\u0575\u0576\u0584", "is_in:region": "\u0533\u0565\u0572\u0561\u0580\u0584\u0578\u0582\u0576\u056b\u0584\u056b \u0574\u0561\u0580\u0566", "name": "\u053f\u0561\u056c\u0561\u057e\u0561\u0576", "name:en": "Kalavan", "name:hy": "\u053f\u0561\u056c\u0561\u057e\u0561\u0576", "name:ru": "\u041a\u0430\u043b\u0430\u0432\u0430\u043d", "place": "village", "population": "100", "population:date": "2022-01-01", "source:population": "Armstat", "wikidata": "Q1024602", "wikipedia": "en:Kalavan"}}, {"type": "node", "id": 2954197391, "lat": 40.6801324, "lon": 45.1755183, "tags": {"is_in:country": "Armenia", "is_in:country_code": "AM", "is_in:municipality": "\u0543\u0561\u0574\u0562\u0561\u0580\u0561\u056f\u056b \u0570\u0561\u0574\u0561\u0575\u0576\u0584", "is_in:region": "\u0533\u0565\u0572\u0561\u0580\u0584\u0578\u0582\u0576\u056b\u0584\u056b \u0574\u0561\u0580\u0566", "name": "\u0531\u0575\u0563\u0578\u0582\u057f", "name:en": "Aygut", "name:hy": "\u0531\u0575\u0563\u0578\u0582\u057f", "name:ru": "\u0410\u0439\u0433\u0443\u0442", "place": "village", "population": "808", "population:date": "2022-01-01", "source:population": "Armstat", "wikidata": "Q1024593", "wikipedia": "en:Aygut"}}, {"type": "node", "id": 2954218227, "lat": 40.6901563, "lon": 45.1489568}, {"type": "node", "id": 2958765418, "lat": 40.8676454, "lon": 45.3215922}, {"type": "node", "id": 2958766689, "lat": 40.8678249, "lon": 45.3411661, "tags": {"is_in:country": "Armenia", "is_in:country_code": "AM", "is_in:municipality": "\u0532\u0565\u0580\u0564\u056b \u0570\u0561\u0574\u0561\u0575\u0576\u0584", "is_in:region": "\u054f\u0561\u057e\u0578\u0582\u0577\u056b \u0574\u0561\u0580\u0566", "name": "\u0546\u0561\u057e\u0578\u0582\u0580", "name:en": "Navur", "name:hy": "\u0546\u0561\u057e\u0578\u0582\u0580", "name:ru": "\u041d\u0430\u0432\u0443\u0440", "place": "village", "population": "1039", "population:date": "2022-01-01", "source:population": "Armstat", "wikidata": "Q33922", "wikipedia": "en:Navur"}}, {"type": "node", "id": 2985549583, "lat": 40.8801116, "lon": 45.1624853}, {"type": "node", "id": 2985549584, "lat": 40.8908519, "lon": 45.1502975}, {"type": "node", "id": 2985549585, "lat": 40.8945841, "lon": 45.1633634}, {"type": "node", "id": 3267967767, "lat": 40.8829913, "lon": 45.3766563}, {"type": "node", "id": 3268005053, "lat": 40.5756455, "lon": 45.3996109, "tags": {"is_in:country": "Armenia", "is_in:country_code": "AM", "is_in:municipality": "\u0543\u0561\u0574\u0562\u0561\u0580\u0561\u056f\u056b \u0570\u0561\u0574\u0561\u0575\u0576\u0584", "is_in:region": "\u0533\u0565\u0572\u0561\u0580\u0584\u0578\u0582\u0576\u056b\u0584\u056b \u0574\u0561\u0580\u0566", "name": "\u054e\u0561\u0570\u0561\u0576", "name:en": "Vahan", "name:hy": "\u054e\u0561\u0570\u0561\u0576", "name:ru": "\u0412\u0430\u0433\u0430\u043d", "place": "village", "population": "1028", "population:date": "2022-01-01", "source:population": "Armstat", "wikidata": "Q1024185", "wikipedia": "en:Vahan, Armenia"}}, {"type": "node", "id": 3268006359, "lat": 40.7246903, "lon": 45.0784672}, {"type": "node", "id": 3278974765, "lat": 40.8308799, "lon": 45.5439948, "tags": {"is_in:country": "Armenia", "is_in:country_code": "AM", "is_in:municipality": "\u0532\u0565\u0580\u0564\u056b \u0570\u0561\u0574\u0561\u0575\u0576\u0584", "is_in:region": "\u054f\u0561\u057e\u0578\u0582\u0577\u056b \u0574\u0561\u0580\u0566", "name": "\u0531\u0575\u0563\u0565\u0571\u0578\u0580", "name:en": "Aygedzor", "name:hy": "\u0531\u0575\u0563\u0565\u0571\u0578\u0580", "name:ru": "\u0410\u0439\u0433\u0435\u0434\u0437\u043e\u0440", "place": "village", "population": "1638", "population:date": "2022-01-01", "source:population": "Armstat", "wikidata": "Q2672635", "wikipedia": "en:Aygedzor"}}, {"type": "node", "id": 3278974766, "lat": 40.8407926, "lon": 45.4707551, "tags": {"is_in:country": "Armenia", "is_in:country_code": "AM", "is_in:municipality": "\u0532\u0565\u0580\u0564\u056b \u0570\u0561\u0574\u0561\u0575\u0576\u0584", "is_in:region": "\u054f\u0561\u057e\u0578\u0582\u0577\u056b \u0574\u0561\u0580\u0566", "name": "\u0531\u0580\u056e\u057e\u0561\u0562\u0565\u0580\u0564", "name:en": "Artsvaberd", "name:hy": "\u0531\u0580\u056e\u057e\u0561\u0562\u0565\u0580\u0564", "name:ru": "\u0410\u0440\u0446\u0432\u0430\u0431\u0435\u0440\u0434", "place": "village", "population": "2824", "population:date": "2022-01-01", "source:population": "Armstat", "wikidata": "Q2672592", "wikipedia": "en:Artsvaberd"}}, {"type": "node", "id": 3278974767, "lat": 40.8535059, "lon": 45.5769078, "tags": {"is_in:country": "Armenia", "is_in:country_code": "AM", "is_in:municipality": "\u0532\u0565\u0580\u0564\u056b \u0570\u0561\u0574\u0561\u0575\u0576\u0584", "is_in:region": "\u054f\u0561\u057e\u0578\u0582\u0577\u056b \u0574\u0561\u0580\u0566", "name": "\u0549\u056b\u0576\u0561\u0580\u056b", "name:en": "Chinari", "name:hy": "\u0549\u056b\u0576\u0561\u0580\u056b", "name:ru": "\u0427\u0438\u043d\u0430\u0440\u0438", "place": "village", "population": "813", "population:date": "2022-01-01", "source:population": "Armstat", "wikidata": "Q2710141", "wikipedia": "en:Chinari, Armenia"}}, {"type": "node", "id": 3278974768, "lat": 40.8632614, "lon": 45.490513, "tags": {"is_in:country": "Armenia", "is_in:country_code": "AM", "is_in:municipality": "\u0532\u0565\u0580\u0564\u056b \u0570\u0561\u0574\u0561\u0575\u0576\u0584", "is_in:region": "\u054f\u0561\u057e\u0578\u0582\u0577\u056b \u0574\u0561\u0580\u0566", "name": "\u0549\u0578\u0580\u0561\u0569\u0561\u0576", "name:en": "Choratan", "name:hy": "\u0549\u0578\u0580\u0561\u0569\u0561\u0576", "name:ru": "\u0427\u043e\u0440\u0430\u0442\u0430\u043d", "place": "village", "population": "708", "population:date": "2022-01-01", "source:population": "Armstat", "wikidata": "Q33824", "wikipedia": "en:Choratan"}}, {"type": "node", "id": 3279041410, "lat": 40.6826647, "lon": 45.1354558}, {"type": "node", "id": 3279041432, "lat": 40.6854369, "lon": 45.1400718}, {"type": "node", "id": 3279041440, "lat": 40.6859936, "lon": 45.1259092}, {"type": "node", "id": 3279082095, "lat": 40.874183, "lon": 45.435972}, {"type": "node", "id": 3634950256, "lat": 40.5938258, "lon": 45.5773695}, {"type": "node", "id": 3634950257, "lat": 40.5900863, "lon": 45.5824872}, {"type": "node", "id": 3634950259, "lat": 40.5934592, "lon": 45.5906518}, {"type": "node", "id": 3634950261, "lat": 40.5954551, "lon": 45.5922075}, {"type": "node", "id": 3634950264, "lat": 40.5920904, "lon": 45.6025823}, {"type": "node", "id": 3634950265, "lat": 40.5900944, "lon": 45.6014879}, {"type": "node", "id": 3634950266, "lat": 40.5910314, "lon": 45.6054898}, {"type": "node", "id": 3634950267, "lat": 40.5931251, "lon": 45.6045993}, {"type": "node", "id": 3634950268, "lat": 40.5937687, "lon": 45.604846}, {"type": "node", "id": 3634950270, "lat": 40.5946893, "lon": 45.6117555}, {"type": "node", "id": 3634950271, "lat": 40.5972148, "lon": 45.6122919}, {"type": "node", "id": 3634950272, "lat": 40.6014915, "lon": 45.619448}, {"type": "node", "id": 3634950273, "lat": 40.6018173, "lon": 45.6168731}, {"type": "node", "id": 3634950274, "lat": 40.6036176, "lon": 45.6140407}, {"type": "node", "id": 3634950275, "lat": 40.603976, "lon": 45.6096848}, {"type": "node", "id": 3634950276, "lat": 40.6056377, "lon": 45.6052645}, {"type": "node", "id": 3634950277, "lat": 40.6061345, "lon": 45.6049319}, {"type": "node", "id": 3634950280, "lat": 40.6082034, "lon": 45.6060048}, {"type": "node", "id": 3634950281, "lat": 40.6131941, "lon": 45.6060585}, {"type": "node", "id": 3634950282, "lat": 40.6132002, "lon": 45.60726}, {"type": "node", "id": 3634950283, "lat": 40.6185876, "lon": 45.6093093}, {"type": "node", "id": 3634950284, "lat": 40.6186853, "lon": 45.6071742}, {"type": "node", "id": 3634950285, "lat": 40.6133061, "lon": 45.6049748}, {"type": "node", "id": 3634950286, "lat": 40.6134527, "lon": 45.6031295}, {"type": "node", "id": 3634950287, "lat": 40.6148739, "lon": 45.6014664}, {"type": "node", "id": 3634950288, "lat": 40.6135016, "lon": 45.6019493}, {"type": "node", "id": 3634950289, "lat": 40.6122026, "lon": 45.6006618}, {"type": "node", "id": 3634950290, "lat": 40.6112903, "lon": 45.6005224}, {"type": "node", "id": 3634950291, "lat": 40.6063707, "lon": 45.599149}, {"type": "node", "id": 3634950292, "lat": 40.6035768, "lon": 45.598913}, {"type": "node", "id": 3634951094, "lat": 40.6028519, "lon": 45.5911024}, {"type": "node", "id": 3634951095, "lat": 40.5991128, "lon": 45.5886347}, {"type": "node", "id": 3634951097, "lat": 40.6006036, "lon": 45.580438}, {"type": "node", "id": 3634951098, "lat": 40.6021921, "lon": 45.578936}, {"type": "node", "id": 3634951099, "lat": 40.602469, "lon": 45.5749877}, {"type": "node", "id": 3634951100, "lat": 40.6027216, "lon": 45.572799}, {"type": "node", "id": 3634951101, "lat": 40.5992269, "lon": 45.5739685}, {"type": "node", "id": 3634951103, "lat": 40.5976791, "lon": 45.5801376}, {"type": "node", "id": 3646082756, "lat": 40.5601346, "lon": 45.5531175, "tags": {"addr:city": "G\u0259d\u0259b\u0259y rayonu", "name": "Novoivanovka", "name:az": "Novoivanovka", "place": "village"}}, {"type": "node", "id": 3646082784, "lat": 40.5488097, "lon": 45.5683374, "tags": {"addr:city": "G\u0259d\u0259b\u0259y rayonu", "name": "\u00c7i\u00e7\u0259kli", "name:az": "\u00c7i\u00e7\u0259kli", "place": "village"}}, {"type": "node", "id": 3646089556, "lat": 40.5520046, "lon": 45.5861269, "tags": {"addr:city": "G\u0259d\u0259b\u0259y rayonu", "name": "\u015eahda\u011f", "name:az": "\u015eahda\u011f", "place": "village"}}, {"type": "node", "id": 3649308241, "lat": 40.694751, "lon": 45.4236639, "tags": {"addr:city": "G\u0259d\u0259b\u0259y rayonu", "name": "G\u00f6y\u0259lli", "name:az": "G\u00f6y\u0259lli", "place": "village"}}, {"type": "node", "id": 3649308476, "lat": 40.7172465, "lon": 45.4850616}, {"type": "node", "id": 3649308477, "lat": 40.7166919, "lon": 45.4865089}, {"type": "node", "id": 3649308478, "lat": 40.7169384, "lon": 45.4879725}, {"type": "node", "id": 3649308479, "lat": 40.7179984, "lon": 45.4888994}, {"type": "node", "id": 3649308480, "lat": 40.7190583, "lon": 45.4878912}, {"type": "node", "id": 3649308481, "lat": 40.7198472, "lon": 45.488005}, {"type": "node", "id": 3649308482, "lat": 40.7199827, "lon": 45.4896312}, {"type": "node", "id": 3649308483, "lat": 40.7209317, "lon": 45.4905906}, {"type": "node", "id": 3649308484, "lat": 40.7224477, "lon": 45.4906069}, {"type": "node", "id": 3649308485, "lat": 40.7234336, "lon": 45.4909647}, {"type": "node", "id": 3649308486, "lat": 40.7235692, "lon": 45.4899564}, {"type": "node", "id": 3649308487, "lat": 40.7217945, "lon": 45.4882327}, {"type": "node", "id": 3649308488, "lat": 40.7223491, "lon": 45.4873871}, {"type": "node", "id": 3649308489, "lat": 40.7224847, "lon": 45.4856796}, {"type": "node", "id": 3649308490, "lat": 40.7223737, "lon": 45.4846876}, {"type": "node", "id": 3649308491, "lat": 40.7210796, "lon": 45.48459}, {"type": "node", "id": 3649308492, "lat": 40.7198718, "lon": 45.4843298}, {"type": "node", "id": 3649308493, "lat": 40.7201923, "lon": 45.486639, "tags": {"name": "Qonaql\u0131", "name:az": "Qonaql\u0131", "place": "village"}}, {"type": "node", "id": 3649328160, "lat": 40.7088039, "lon": 45.5468963, "tags": {"addr:city": "Tovuz rayonu", "name": "Mollalar", "name:az": "Mollalar", "place": "village"}}, {"type": "node", "id": 3657842583, "lat": 40.7439311, "lon": 45.4649129}, {"type": "node", "id": 3657842584, "lat": 40.7450646, "lon": 45.4642462}, {"type": "node", "id": 3657842585, "lat": 40.7465923, "lon": 45.4643763}, {"type": "node", "id": 3657842586, "lat": 40.7473068, "lon": 45.4668643}, {"type": "node", "id": 3657842587, "lat": 40.7484526, "lon": 45.4675311}, {"type": "node", "id": 3657842588, "lat": 40.7497708, "lon": 45.4695963}, {"type": "node", "id": 3657842589, "lat": 40.751015, "lon": 45.4703932}, {"type": "node", "id": 3657842590, "lat": 40.7506208, "lon": 45.4713038}, {"type": "node", "id": 3657842591, "lat": 40.7490316, "lon": 45.4710111}, {"type": "node", "id": 3657842592, "lat": 40.747775, "lon": 45.4713851}, {"type": "node", "id": 3657842593, "lat": 40.7483047, "lon": 45.4741984}, {"type": "node", "id": 3657842594, "lat": 40.7502389, "lon": 45.4750603}, {"type": "node", "id": 3657842595, "lat": 40.7508426, "lon": 45.4777273}, {"type": "node", "id": 3657842596, "lat": 40.7503252, "lon": 45.4798413}, {"type": "node", "id": 3657842597, "lat": 40.7495121, "lon": 45.47976}, {"type": "node", "id": 3657842598, "lat": 40.7496476, "lon": 45.4764426}, {"type": "node", "id": 3657842599, "lat": 40.7471344, "lon": 45.474914}, {"type": "node", "id": 3657842600, "lat": 40.74743, "lon": 45.4729788}, {"type": "node", "id": 3657842601, "lat": 40.7452494, "lon": 45.4700191}, {"type": "node", "id": 3657842602, "lat": 40.7444978, "lon": 45.467775}, {"type": "node", "id": 3657842603, "lat": 40.7431672, "lon": 45.4665228}, {"type": "node", "id": 3657842604, "lat": 40.747122, "lon": 45.4703932, "tags": {"name": "Qaralar", "name:az": "Qaralar", "place": "village"}}, {"type": "node", "id": 3767539921, "lat": 40.6870824, "lon": 45.1452652}, {"type": "node", "id": 3820714362, "lat": 40.8685428, "lon": 45.3192291, "tags": {"is_in:country": "Armenia", "is_in:country_code": "AM", "is_in:municipality": "\u0532\u0565\u0580\u0564\u056b \u0570\u0561\u0574\u0561\u0575\u0576\u0584", "is_in:region": "\u054f\u0561\u057e\u0578\u0582\u0577\u056b \u0574\u0561\u0580\u0566", "name": "\u053b\u056e\u0561\u0584\u0561\u0580", "name:en": "Itsaqar", "name:hy": "\u053b\u056e\u0561\u0584\u0561\u0580", "name:ru": "\u0418\u0446\u0430\u043a\u0430\u0440", "place": "village", "population": "274", "population:date": "2022-01-01", "source:population": "Armstat", "wikidata": "Q33891", "wikipedia": "en:Itsakar"}}, {"type": "node", "id": 3820714365, "lat": 40.8666765, "lon": 45.3150326}, {"type": "node", "id": 3820714366, "lat": 40.8669736, "lon": 45.3248542}, {"type": "node", "id": 3820714367, "lat": 40.8671122, "lon": 45.3275781}, {"type": "node", "id": 3820714368, "lat": 40.8671221, "lon": 45.318385}, {"type": "node", "id": 3820714369, "lat": 40.8675678, "lon": 45.3204934}, {"type": "node", "id": 3820714370, "lat": 40.8675975, "lon": 45.3125313}, {"type": "node", "id": 3820714371, "lat": 40.8677361, "lon": 45.3228768}, {"type": "node", "id": 3820714372, "lat": 40.8680035, "lon": 45.327565}, {"type": "node", "id": 3820714373, "lat": 40.8683402, "lon": 45.3268578}, {"type": "node", "id": 3820714374, "lat": 40.8684095, "lon": 45.3154123}, {"type": "node", "id": 3820714375, "lat": 40.8684392, "lon": 45.3142992}, {"type": "node", "id": 3820714376, "lat": 40.8688354, "lon": 45.3129242}, {"type": "node", "id": 3820714377, "lat": 40.8688651, "lon": 45.3249982}, {"type": "node", "id": 3820714378, "lat": 40.8692612, "lon": 45.3079348}, {"type": "node", "id": 3820714379, "lat": 40.8693602, "lon": 45.3079741}, {"type": "node", "id": 3820714380, "lat": 40.8695286, "lon": 45.3128063}, {"type": "node", "id": 3820714381, "lat": 40.8695979, "lon": 45.3178874}, {"type": "node", "id": 3820714382, "lat": 40.8695979, "lon": 45.323872}, {"type": "node", "id": 3820714383, "lat": 40.8697266, "lon": 45.3120861}, {"type": "node", "id": 3820714384, "lat": 40.8698851, "lon": 45.3214494}, {"type": "node", "id": 3820714385, "lat": 40.870093, "lon": 45.3106194}, {"type": "node", "id": 3820714386, "lat": 40.8701227, "lon": 45.3203231}, {"type": "node", "id": 3820714387, "lat": 40.8702515, "lon": 45.3217244}, {"type": "node", "id": 3820714388, "lat": 40.8703901, "lon": 45.3181755}, {"type": "node", "id": 3820714389, "lat": 40.8705089, "lon": 45.3096896}, {"type": "node", "id": 3820714390, "lat": 40.8705584, "lon": 45.3240161}, {"type": "node", "id": 3820714391, "lat": 40.8705783, "lon": 45.3088908}, {"type": "node", "id": 3820714392, "lat": 40.8706674, "lon": 45.3199041}, {"type": "node", "id": 3820714394, "lat": 40.8710239, "lon": 45.3233089}, {"type": "node", "id": 4069487268, "lat": 40.7235164, "lon": 45.0932148}, {"type": "node", "id": 4077674490, "lat": 40.7232422, "lon": 45.0937432}, {"type": "node", "id": 4086138616, "lat": 40.8714185, "lon": 45.3882258}, {"type": "node", "id": 4086138686, "lat": 40.87739, "lon": 45.4082951}, {"type": "node", "id": 4284009028, "lat": 40.8657784, "lon": 45.1406163}, {"type": "node", "id": 4284009029, "lat": 40.8657784, "lon": 45.1419517}, {"type": "node", "id": 4284009030, "lat": 40.8660056, "lon": 45.1444221}, {"type": "node", "id": 4284009031, "lat": 40.8661697, "lon": 45.1436877}, {"type": "node", "id": 4284009032, "lat": 40.8667504, "lon": 45.1453068}, {"type": "node", "id": 4284009033, "lat": 40.8672551, "lon": 45.1425476}, {"type": "node", "id": 4284009034, "lat": 40.8676467, "lon": 45.147794}, {"type": "node", "id": 4284009035, "lat": 40.8676845, "lon": 45.148445}, {"type": "node", "id": 4284009036, "lat": 40.867693, "lon": 45.1391067}, {"type": "node", "id": 4284009037, "lat": 40.8679749, "lon": 45.1490292}, {"type": "node", "id": 4284009038, "lat": 40.868038, "lon": 45.1468759}, {"type": "node", "id": 4284009039, "lat": 40.8681516, "lon": 45.1458243}, {"type": "node", "id": 4284009040, "lat": 40.8683788, "lon": 45.1460914}, {"type": "node", "id": 4284009041, "lat": 40.8684924, "lon": 45.1489958}, {"type": "node", "id": 4284009042, "lat": 40.8689342, "lon": 45.1492462}, {"type": "node", "id": 4284009043, "lat": 40.8699693, "lon": 45.1563071}, {"type": "node", "id": 4284009044, "lat": 40.870045, "lon": 45.1587108}, {"type": "node", "id": 4284009045, "lat": 40.8703479, "lon": 45.1616152}, {"type": "node", "id": 4284009046, "lat": 40.8720772, "lon": 45.1626001}, {"type": "node", "id": 4284009047, "lat": 40.8725316, "lon": 45.1411337}, {"type": "node", "id": 4284009048, "lat": 40.8733773, "lon": 45.1400988}, {"type": "node", "id": 4284009049, "lat": 40.8743871, "lon": 45.1616319}, {"type": "node", "id": 4284009050, "lat": 40.8753337, "lon": 45.1619157}, {"type": "node", "id": 4284009051, "lat": 40.87599, "lon": 45.1628004}, {"type": "node", "id": 4284009052, "lat": 40.8766463, "lon": 45.164503}, {"type": "node", "id": 4284009053, "lat": 40.8768357, "lon": 45.1380289}, {"type": "node", "id": 4284009054, "lat": 40.8771007, "lon": 45.137211}, {"type": "node", "id": 4284009055, "lat": 40.8775298, "lon": 45.1647367}, {"type": "node", "id": 4284009056, "lat": 40.8782492, "lon": 45.1363764}, {"type": "node", "id": 4284009057, "lat": 40.8784764, "lon": 45.164286}, {"type": "node", "id": 4284009058, "lat": 40.8821112, "lon": 45.1341229}, {"type": "node", "id": 4284009059, "lat": 40.8834363, "lon": 45.1593952}, {"type": "node", "id": 4284009060, "lat": 40.8846889, "lon": 45.1588652}, {"type": "node", "id": 4284009061, "lat": 40.8848876, "lon": 45.1332216}, {"type": "node", "id": 4284009062, "lat": 40.8850012, "lon": 45.1372277}, {"type": "node", "id": 4284009063, "lat": 40.8850643, "lon": 45.1364933}, {"type": "node", "id": 4284009064, "lat": 40.885405, "lon": 45.1373946}, {"type": "node", "id": 4284009065, "lat": 40.8857458, "lon": 45.1356419}, {"type": "node", "id": 4284009066, "lat": 40.8858593, "lon": 45.1339727}, {"type": "node", "id": 4284009067, "lat": 40.8860139, "lon": 45.1636809}, {"type": "node", "id": 4284009068, "lat": 40.8860613, "lon": 45.1370441}, {"type": "node", "id": 4284009069, "lat": 40.8860707, "lon": 45.1592908}, {"type": "node", "id": 4284009070, "lat": 40.8861401, "lon": 45.1619032}, {"type": "node", "id": 4284009071, "lat": 40.8865818, "lon": 45.1648661}, {"type": "node", "id": 4284009072, "lat": 40.8866291, "lon": 45.1371943}, {"type": "node", "id": 4284009073, "lat": 40.8867932, "lon": 45.138513}, {"type": "node", "id": 4284009074, "lat": 40.8869194, "lon": 45.1377786}, {"type": "node", "id": 4284009075, "lat": 40.8869352, "lon": 45.1599836}, {"type": "node", "id": 4284009076, "lat": 40.8869919, "lon": 45.1669944}, {"type": "node", "id": 4284009077, "lat": 40.8870361, "lon": 45.1651165}, {"type": "node", "id": 4284009078, "lat": 40.8872254, "lon": 45.167612}, {"type": "node", "id": 4284009079, "lat": 40.8878122, "lon": 45.1675285}, {"type": "node", "id": 4284009080, "lat": 40.8880299, "lon": 45.1385798}, {"type": "node", "id": 4284009081, "lat": 40.8882539, "lon": 45.1668024}, {"type": "node", "id": 4284009082, "lat": 40.8885315, "lon": 45.1661347}, {"type": "node", "id": 4284009083, "lat": 40.8886451, "lon": 45.1651665}, {"type": "node", "id": 4284009084, "lat": 40.8887492, "lon": 45.1433037}, {"type": "node", "id": 4284009085, "lat": 40.8889279, "lon": 45.1483666}, {"type": "node", "id": 4284009086, "lat": 40.8893013, "lon": 45.1636308}, {"type": "node", "id": 4284009087, "lat": 40.8901594, "lon": 45.1623789}, {"type": "node", "id": 4284009088, "lat": 40.8929733, "lon": 45.1633805}, {"type": "node", "id": 4284009389, "lat": 40.8940724, "lon": 45.1486429}, {"type": "node", "id": 4284009392, "lat": 40.9021398, "lon": 45.1570874}, {"type": "node", "id": 4284009393, "lat": 40.9030009, "lon": 45.151052}, {"type": "node", "id": 4340229970, "lat": 40.8794047, "lon": 45.398246}, {"type": "node", "id": 4340229971, "lat": 40.8824102, "lon": 45.3989152}, {"type": "node", "id": 4340229972, "lat": 40.882815, "lon": 45.3799254}, {"type": "node", "id": 4682129860, "lat": 40.6904517, "lon": 45.1474143}, {"type": "node", "id": 4682129871, "lat": 40.6900144, "lon": 45.137694}, {"type": "node", "id": 4709827785, "lat": 40.871255, "lon": 45.4510019}, {"type": "node", "id": 4709827847, "lat": 40.8740266, "lon": 45.457804}, {"type": "node", "id": 4709827898, "lat": 40.8775595, "lon": 45.4614625}, {"type": "node", "id": 4754062390, "lat": 40.6863627, "lon": 45.1499123}, {"type": "node", "id": 4754062429, "lat": 40.6864532, "lon": 45.1486778}, {"type": "node", "id": 4754062432, "lat": 40.6847569, "lon": 45.1394939}, {"type": "node", "id": 4754205505, "lat": 40.7210681, "lon": 45.0906391}, {"type": "node", "id": 4754484859, "lat": 40.6473017, "lon": 45.3104495, "tags": {"is_in:country": "Armenia", "is_in:country_code": "AM", "is_in:municipality": "\u0543\u0561\u0574\u0562\u0561\u0580\u0561\u056f\u056b \u0570\u0561\u0574\u0561\u0575\u0576\u0584", "is_in:region": "\u0533\u0565\u0572\u0561\u0580\u0584\u0578\u0582\u0576\u056b\u0584\u056b \u0574\u0561\u0580\u0566", "name": "\u0539\u0569\u0578\u0582\u057b\u0578\u0582\u0580", "name:en": "Ttujur", "name:hy": "\u0539\u0569\u0578\u0582\u057b\u0578\u0582\u0580", "name:ru": "\u0422\u0442\u0443\u0434\u0436\u0443\u0440", "place": "village", "population": "990", "population:date": "2022-01-01", "source:population": "Armstat", "wikidata": "Q1024542", "wikipedia": "en:Ttujur, Gegharkunik"}}, {"type": "node", "id": 4754503947, "lat": 40.6683971, "lon": 45.2527433, "tags": {"is_in:country": "Armenia", "is_in:country_code": "AM", "is_in:municipality": "\u0543\u0561\u0574\u0562\u0561\u0580\u0561\u056f\u056b \u0570\u0561\u0574\u0561\u0575\u0576\u0584", "is_in:region": "\u0533\u0565\u0572\u0561\u0580\u0584\u0578\u0582\u0576\u056b\u0584\u056b \u0574\u0561\u0580\u0566", "name": "\u0544\u0561\u0580\u057f\u0578\u0582\u0576\u056b", "name:en": "Martuni", "name:hy": "\u0544\u0561\u0580\u057f\u0578\u0582\u0576\u056b", "name:ru": "\u041c\u0430\u0440\u0442\u0443\u043d\u0438", "place": "village", "population": "543", "population:date": "2022-01-01", "source:population": "Armstat", "wikidata": "Q1024527", "wikipedia": "en:Martuni (village)"}}, {"type": "node", "id": 4754503948, "lat": 40.6605845, "lon": 45.2715402, "tags": {"is_in:country": "Armenia", "is_in:country_code": "AM", "is_in:municipality": "\u0543\u0561\u0574\u0562\u0561\u0580\u0561\u056f\u056b \u0570\u0561\u0574\u0561\u0575\u0576\u0584", "is_in:region": "\u0533\u0565\u0572\u0561\u0580\u0584\u0578\u0582\u0576\u056b\u0584\u056b \u0574\u0561\u0580\u0566", "name": "\u0533\u0565\u057f\u056b\u056f", "name:en": "Getik", "name:hy": "\u0533\u0565\u057f\u056b\u056f", "name:ru": "\u0413\u0435\u0442\u0438\u043a", "place": "village", "population": "430", "population:date": "2022-01-01", "source:population": "Armstat", "wikidata": "Q1024418", "wikipedia": "en:Getik, Gegharkunik"}}, {"type": "node", "id": 4895455188, "lat": 40.592236, "lon": 45.3669047}, {"type": "node", "id": 4895455189, "lat": 40.588586, "lon": 45.374093}, {"type": "node", "id": 4895455190, "lat": 40.5863617, "lon": 45.3769684}, {"type": "node", "id": 4895455191, "lat": 40.5852862, "lon": 45.3775799}, {"type": "node", "id": 4895455192, "lat": 40.5842595, "lon": 45.3759599}, {"type": "node", "id": 4895455193, "lat": 40.5887326, "lon": 45.3786528}, {"type": "node", "id": 4895455208, "lat": 40.5878527, "lon": 45.3537297}, {"type": "node", "id": 4895455209, "lat": 40.5951851, "lon": 45.3495669}, {"type": "node", "id": 4895455210, "lat": 40.6025656, "lon": 45.3478181}, {"type": "node", "id": 4895455211, "lat": 40.6033232, "lon": 45.3496098}, {"type": "node", "id": 4895455212, "lat": 40.6099102, "lon": 45.3475729}, {"type": "node", "id": 4895455213, "lat": 40.6104992, "lon": 45.3610897}, {"type": "node", "id": 4895455214, "lat": 40.6128774, "lon": 45.3656816}, {"type": "node", "id": 4895455215, "lat": 40.610434, "lon": 45.3681278}, {"type": "node", "id": 4895455216, "lat": 40.604765, "lon": 45.3591156}, {"type": "node", "id": 4895455217, "lat": 40.6060682, "lon": 45.3678703}, {"type": "node", "id": 4895455218, "lat": 40.6021909, "lon": 45.3713893}, {"type": "node", "id": 4895455219, "lat": 40.5998123, "lon": 45.3656816}, {"type": "node", "id": 4895455220, "lat": 40.5974336, "lon": 45.3610897}, {"type": "node", "id": 4895455221, "lat": 40.5896126, "lon": 45.3721189}, {"type": "node", "id": 4895455222, "lat": 40.5872661, "lon": 45.3793072}, {"type": "node", "id": 4895455223, "lat": 40.5855714, "lon": 45.3726983}, {"type": "node", "id": 4895455224, "lat": 40.59235, "lon": 45.3604352}, {"type": "node", "id": 4895455238, "lat": 40.5851069, "lon": 45.3528178}, {"type": "node", "id": 4895455239, "lat": 40.5816358, "lon": 45.3488696}, {"type": "node", "id": 4895455240, "lat": 40.5825892, "lon": 45.3472495}, {"type": "node", "id": 4895455241, "lat": 40.5849032, "lon": 45.347507}, {"type": "node", "id": 4895651021, "lat": 40.6616453, "lon": 45.2603888}, {"type": "node", "id": 4895651022, "lat": 40.6627033, "lon": 45.2590585}, {"type": "node", "id": 4895651023, "lat": 40.6641031, "lon": 45.2603459}, {"type": "node", "id": 4895651024, "lat": 40.6667399, "lon": 45.2593159}, {"type": "node", "id": 4895651025, "lat": 40.668872, "lon": 45.254724}, {"type": "node", "id": 4895651026, "lat": 40.6703367, "lon": 45.2532649}, {"type": "node", "id": 4895651027, "lat": 40.6724036, "lon": 45.2507329}, {"type": "node", "id": 4895651028, "lat": 40.6725013, "lon": 45.2487588}, {"type": "node", "id": 4895651029, "lat": 40.6717852, "lon": 45.2455616}, {"type": "node", "id": 4895651030, "lat": 40.6685465, "lon": 45.2486086}, {"type": "node", "id": 4895651031, "lat": 40.6655029, "lon": 45.2510547}, {"type": "node", "id": 4895651032, "lat": 40.663859, "lon": 45.2509904}, {"type": "node", "id": 4895651033, "lat": 40.6623127, "lon": 45.2500784}, {"type": "node", "id": 4895651034, "lat": 40.6613767, "lon": 45.2509045}, {"type": "node", "id": 4895651035, "lat": 40.6610837, "lon": 45.2520418}, {"type": "node", "id": 4895651036, "lat": 40.6618325, "lon": 45.2534366}, {"type": "node", "id": 4895651037, "lat": 40.6613035, "lon": 45.2549171}, {"type": "node", "id": 4895651038, "lat": 40.6609698, "lon": 45.2564514}, {"type": "node", "id": 4895651039, "lat": 40.6595455, "lon": 45.2584791}, {"type": "node", "id": 4895651040, "lat": 40.6599565, "lon": 45.2599329}, {"type": "node", "id": 4895651041, "lat": 40.6592606, "lon": 45.2613169}, {"type": "node", "id": 4895651042, "lat": 40.6610919, "lon": 45.2621752}, {"type": "node", "id": 4895651043, "lat": 40.6654703, "lon": 45.2747869}, {"type": "node", "id": 4895651044, "lat": 40.6653076, "lon": 45.2737999}, {"type": "node", "id": 4895651045, "lat": 40.6640217, "lon": 45.2731991}, {"type": "node", "id": 4895651046, "lat": 40.6633707, "lon": 45.2723408}, {"type": "node", "id": 4895651047, "lat": 40.6627033, "lon": 45.2718687}, {"type": "node", "id": 4895651048, "lat": 40.6627521, "lon": 45.2705383}, {"type": "node", "id": 4895651049, "lat": 40.6620685, "lon": 45.2688217}, {"type": "node", "id": 4895651050, "lat": 40.6622374, "lon": 45.2667162}, {"type": "node", "id": 4895651051, "lat": 40.6612709, "lon": 45.2640581}, {"type": "node", "id": 4895651052, "lat": 40.6590653, "lon": 45.2630389}, {"type": "node", "id": 4895651053, "lat": 40.6585363, "lon": 45.2632212}, {"type": "node", "id": 4895651054, "lat": 40.6582291, "lon": 45.2689639}, {"type": "node", "id": 4895651055, "lat": 40.6589432, "lon": 45.2698355}, {"type": "node", "id": 4895651056, "lat": 40.657586, "lon": 45.2718419}, {"type": "node", "id": 4895651057, "lat": 40.6567375, "lon": 45.2749371}, {"type": "node", "id": 4895651058, "lat": 40.6568963, "lon": 45.2763641}, {"type": "node", "id": 4895651059, "lat": 40.6580235, "lon": 45.2777803}, {"type": "node", "id": 4895651060, "lat": 40.6592525, "lon": 45.2766859}, {"type": "node", "id": 4895651061, "lat": 40.6597653, "lon": 45.2758706}, {"type": "node", "id": 4895651062, "lat": 40.6594478, "lon": 45.2743041}, {"type": "node", "id": 4895651063, "lat": 40.6601722, "lon": 45.2733493}, {"type": "node", "id": 4895651064, "lat": 40.6614907, "lon": 45.2744758}, {"type": "node", "id": 4895651065, "lat": 40.6650634, "lon": 45.2759886}, {"type": "node", "id": 4895651112, "lat": 40.5778712, "lon": 45.4082}, {"type": "node", "id": 4895651113, "lat": 40.5770889, "lon": 45.4021919}, {"type": "node", "id": 4895651114, "lat": 40.5775126, "lon": 45.401001}, {"type": "node", "id": 4895651115, "lat": 40.5774311, "lon": 45.3986299}, {"type": "node", "id": 4895651116, "lat": 40.577097, "lon": 45.3949821}, {"type": "node", "id": 4895651117, "lat": 40.5763881, "lon": 45.3946495}, {"type": "node", "id": 4895651118, "lat": 40.5761599, "lon": 45.3933406}, {"type": "node", "id": 4895651119, "lat": 40.5758095, "lon": 45.3888237}, {"type": "node", "id": 4895651120, "lat": 40.575508, "lon": 45.386045}, {"type": "node", "id": 4895651221, "lat": 40.5748153, "lon": 45.3855836}, {"type": "node", "id": 4895651222, "lat": 40.5735603, "lon": 45.3878045}, {"type": "node", "id": 4895651223, "lat": 40.5727209, "lon": 45.3905725}, {"type": "node", "id": 4895651224, "lat": 40.5723787, "lon": 45.3947353}, {"type": "node", "id": 4895651225, "lat": 40.5731529, "lon": 45.3951859}, {"type": "node", "id": 4895651226, "lat": 40.5737885, "lon": 45.3993809}, {"type": "node", "id": 4895651227, "lat": 40.5744486, "lon": 45.4042733}, {"type": "node", "id": 4895651228, "lat": 40.5749864, "lon": 45.4048741}, {"type": "node", "id": 4895651229, "lat": 40.5758421, "lon": 45.4080927}, {"type": "node", "id": 4895651230, "lat": 40.5767792, "lon": 45.4091978}, {"type": "node", "id": 4895651231, "lat": 40.577643, "lon": 45.4090583}, {"type": "node", "id": 4895651232, "lat": 40.500731, "lon": 45.3609824}, {"type": "node", "id": 4895651233, "lat": 40.5007473, "lon": 45.3617978}, {"type": "node", "id": 4895651234, "lat": 40.5015387, "lon": 45.3622055}, {"type": "node", "id": 4895651235, "lat": 40.5031866, "lon": 45.3619265}, {"type": "node", "id": 4895651236, "lat": 40.5052016, "lon": 45.3603494}, {"type": "node", "id": 4895651237, "lat": 40.505585, "lon": 45.3614116}, {"type": "node", "id": 4895651238, "lat": 40.5044429, "lon": 45.3625381}, {"type": "node", "id": 4895651239, "lat": 40.5041737, "lon": 45.3647375}, {"type": "node", "id": 4895651240, "lat": 40.5030969, "lon": 45.3658533}, {"type": "node", "id": 4895651241, "lat": 40.5035455, "lon": 45.3665185}, {"type": "node", "id": 4895651242, "lat": 40.5059357, "lon": 45.3678489}, {"type": "node", "id": 4895651243, "lat": 40.5057155, "lon": 45.3693187}, {"type": "node", "id": 4895651244, "lat": 40.5048508, "lon": 45.3693402}, {"type": "node", "id": 4895651245, "lat": 40.5028684, "lon": 45.3699195}, {"type": "node", "id": 4895651246, "lat": 40.4991646, "lon": 45.3703809}, {"type": "node", "id": 4895651247, "lat": 40.4966845, "lon": 45.3695226}, {"type": "node", "id": 4895651248, "lat": 40.4957054, "lon": 45.3676557}, {"type": "node", "id": 4895651249, "lat": 40.4959502, "lon": 45.36551}, {"type": "node", "id": 4895651250, "lat": 40.4952322, "lon": 45.3624201}, {"type": "node", "id": 4895651251, "lat": 40.4941389, "lon": 45.361197}, {"type": "node", "id": 4895651252, "lat": 40.4940899, "lon": 45.3587937}, {"type": "node", "id": 4895651253, "lat": 40.4951832, "lon": 45.3570556}, {"type": "node", "id": 4895651254, "lat": 40.4962113, "lon": 45.3568196}, {"type": "node", "id": 4895651255, "lat": 40.4979409, "lon": 45.3585791}, {"type": "node", "id": 4895651256, "lat": 40.499132, "lon": 45.3582144}, {"type": "node", "id": 4895651257, "lat": 40.5347746, "lon": 45.280559}, {"type": "node", "id": 4895651258, "lat": 40.5326219, "lon": 45.2811599}, {"type": "node", "id": 4895651259, "lat": 40.5314477, "lon": 45.2809882}, {"type": "node", "id": 4895651260, "lat": 40.5305833, "lon": 45.2824473}, {"type": "node", "id": 4895651261, "lat": 40.5320022, "lon": 45.286417}, {"type": "node", "id": 4895651262, "lat": 40.53104, "lon": 45.2880478}, {"type": "node", "id": 4895651263, "lat": 40.5292949, "lon": 45.2861595}, {"type": "node", "id": 4895651264, "lat": 40.5282837, "lon": 45.2877474}, {"type": "node", "id": 4895651265, "lat": 40.5285447, "lon": 45.2908587}, {"type": "node", "id": 4895651266, "lat": 40.5275987, "lon": 45.2922964}, {"type": "node", "id": 4895651267, "lat": 40.5259514, "lon": 45.2900648}, {"type": "node", "id": 4895651268, "lat": 40.5250543, "lon": 45.2876186}, {"type": "node", "id": 4895651269, "lat": 40.5240268, "lon": 45.2832413}, {"type": "node", "id": 4895651270, "lat": 40.5248831, "lon": 45.2798617}, {"type": "node", "id": 4895651271, "lat": 40.5251359, "lon": 45.2780056}, {"type": "node", "id": 4895651272, "lat": 40.5268077, "lon": 45.2764928}, {"type": "node", "id": 4895651273, "lat": 40.5278026, "lon": 45.2746582}, {"type": "node", "id": 4895651274, "lat": 40.5296048, "lon": 45.2727914}, {"type": "node", "id": 4895651275, "lat": 40.5320511, "lon": 45.2726304}, {"type": "node", "id": 4895651276, "lat": 40.5330623, "lon": 45.2732849}, {"type": "node", "id": 4895651277, "lat": 40.5332335, "lon": 45.2747977}, {"type": "node", "id": 4895651278, "lat": 40.5347502, "lon": 45.2783918}, {"type": "node", "id": 4895651279, "lat": 40.5052831, "lon": 45.272963}, {"type": "node", "id": 4895651280, "lat": 40.5045245, "lon": 45.2726412}, {"type": "node", "id": 4895651281, "lat": 40.5039371, "lon": 45.2741861}, {"type": "node", "id": 4895651282, "lat": 40.5030316, "lon": 45.2756345}, {"type": "node", "id": 4895651283, "lat": 40.5032029, "lon": 45.277394}, {"type": "node", "id": 4895651284, "lat": 40.5025503, "lon": 45.2798831}, {"type": "node", "id": 4895651285, "lat": 40.5019711, "lon": 45.2797007}, {"type": "node", "id": 4895651286, "lat": 40.501865, "lon": 45.2787137}, {"type": "node", "id": 4895651287, "lat": 40.5010737, "lon": 45.276922}, {"type": "node", "id": 4895651288, "lat": 40.5006087, "lon": 45.276922}, {"type": "node", "id": 4895651289, "lat": 40.4987322, "lon": 45.2769112}, {"type": "node", "id": 4895651290, "lat": 40.4978593, "lon": 45.2757311}, {"type": "node", "id": 4895651291, "lat": 40.5005679, "lon": 45.2656996}, {"type": "node", "id": 4895651292, "lat": 40.502379, "lon": 45.2663004}, {"type": "node", "id": 4895651293, "lat": 40.5027134, "lon": 45.268017}, {"type": "node", "id": 4895651294, "lat": 40.5055605, "lon": 45.269165}, {"type": "node", "id": 4895651295, "lat": 40.5061234, "lon": 45.2723086}, {"type": "node", "id": 4895661618, "lat": 40.5745057, "lon": 45.2324295}, {"type": "node", "id": 4895661619, "lat": 40.5736092, "lon": 45.2323437}, {"type": "node", "id": 4895661620, "lat": 40.5731529, "lon": 45.2339315}, {"type": "node", "id": 4895662621, "lat": 40.5735603, "lon": 45.2354336}, {"type": "node", "id": 4895662622, "lat": 40.5731692, "lon": 45.2363777}, {"type": "node", "id": 4895662623, "lat": 40.5720119, "lon": 45.2358627}, {"type": "node", "id": 4895662624, "lat": 40.5708873, "lon": 45.2364421}, {"type": "node", "id": 4895662625, "lat": 40.5699093, "lon": 45.2384376}, {"type": "node", "id": 4895662626, "lat": 40.5697626, "lon": 45.2410769}, {"type": "node", "id": 4895662627, "lat": 40.568964, "lon": 45.243802}, {"type": "node", "id": 4895662628, "lat": 40.5682794, "lon": 45.2447891}, {"type": "node", "id": 4895662629, "lat": 40.5670569, "lon": 45.2444672}, {"type": "node", "id": 4895662630, "lat": 40.5668939, "lon": 45.2424502}, {"type": "node", "id": 4895662631, "lat": 40.5666168, "lon": 45.2411413}, {"type": "node", "id": 4895662632, "lat": 40.5645629, "lon": 45.2385449}, {"type": "node", "id": 4895662633, "lat": 40.5639108, "lon": 45.2398753}, {"type": "node", "id": 4895662634, "lat": 40.563487, "lon": 45.2419352}, {"type": "node", "id": 4895662635, "lat": 40.5628513, "lon": 45.2442741}, {"type": "node", "id": 4895662636, "lat": 40.5611396, "lon": 45.2447891}, {"type": "node", "id": 4895662637, "lat": 40.5594279, "lon": 45.2464628}, {"type": "node", "id": 4895662638, "lat": 40.5590693, "lon": 45.2452826}, {"type": "node", "id": 4895662639, "lat": 40.5606506, "lon": 45.243051}, {"type": "node", "id": 4895662640, "lat": 40.5611722, "lon": 45.2411628}, {"type": "node", "id": 4895662641, "lat": 40.5611885, "lon": 45.2390599}, {"type": "node", "id": 4895662642, "lat": 40.5576836, "lon": 45.2363777}, {"type": "node", "id": 4895662643, "lat": 40.5566891, "lon": 45.2394247}, {"type": "node", "id": 4895662644, "lat": 40.5561511, "lon": 45.2414417}, {"type": "node", "id": 4895662645, "lat": 40.5554338, "lon": 45.2402401}, {"type": "node", "id": 4895662646, "lat": 40.5557599, "lon": 45.237751}, {"type": "node", "id": 4895662647, "lat": 40.5566402, "lon": 45.2343392}, {"type": "node", "id": 4895662648, "lat": 40.5566891, "lon": 45.2325368}, {"type": "node", "id": 4895662649, "lat": 40.5559718, "lon": 45.2275157}, {"type": "node", "id": 4895662650, "lat": 40.5574717, "lon": 45.2239751}, {"type": "node", "id": 4895662651, "lat": 40.5596562, "lon": 45.2248549}, {"type": "node", "id": 4895662652, "lat": 40.5598355, "lon": 45.2262711}, {"type": "node", "id": 4895662653, "lat": 40.5580259, "lon": 45.2269792}, {"type": "node", "id": 4895662654, "lat": 40.5583194, "lon": 45.2292752}, {"type": "node", "id": 4895662655, "lat": 40.5592486, "lon": 45.2329874}, {"type": "node", "id": 4895662656, "lat": 40.5609114, "lon": 45.2337169}, {"type": "node", "id": 4895662657, "lat": 40.5651171, "lon": 45.2325797}, {"type": "node", "id": 4895662658, "lat": 40.5658832, "lon": 45.2338028}, {"type": "node", "id": 4895662659, "lat": 40.5679045, "lon": 45.2335238}, {"type": "node", "id": 4895662660, "lat": 40.5699419, "lon": 45.2327513}, {"type": "node", "id": 4895662661, "lat": 40.5735277, "lon": 45.2289963}, {"type": "node", "id": 4895662662, "lat": 40.5752554, "lon": 45.2312922}, {"type": "node", "id": 4895662663, "lat": 40.6419959, "lon": 45.3261566}, {"type": "node", "id": 4895662664, "lat": 40.6434612, "lon": 45.3237962}, {"type": "node", "id": 4895662665, "lat": 40.6463593, "lon": 45.3238821}, {"type": "node", "id": 4895662666, "lat": 40.6509015, "lon": 45.309999}, {"type": "node", "id": 4895662667, "lat": 40.649534, "lon": 45.3088403}, {"type": "node", "id": 4895662668, "lat": 40.650234, "lon": 45.3070593}, {"type": "node", "id": 4895662669, "lat": 40.6515364, "lon": 45.3086257}, {"type": "node", "id": 4895662670, "lat": 40.6534248, "lon": 45.307939}, {"type": "node", "id": 4895662671, "lat": 40.6535388, "lon": 45.3055787}, {"type": "node", "id": 4895662672, "lat": 40.651048, "lon": 45.3041839}, {"type": "node", "id": 4895662673, "lat": 40.6501852, "lon": 45.2981758}, {"type": "node", "id": 4895662674, "lat": 40.6484595, "lon": 45.2987337}, {"type": "node", "id": 4895662675, "lat": 40.6459197, "lon": 45.3072524}, {"type": "node", "id": 4895662676, "lat": 40.6410352, "lon": 45.3222728}, {"type": "node", "id": 4895662677, "lat": 40.6369483, "lon": 45.3268647}, {"type": "node", "id": 4895662678, "lat": 40.6376891, "lon": 45.327959}, {"type": "node", "id": 4895662679, "lat": 40.6385766, "lon": 45.3273475}, {"type": "node", "id": 4895662680, "lat": 40.6409375, "lon": 45.328753}, {"type": "node", "id": 4937134130, "lat": 40.7226717, "lon": 45.0844615}, {"type": "node", "id": 4937134168, "lat": 40.7247673, "lon": 45.0788035}, {"type": "node", "id": 4937134169, "lat": 40.724765, "lon": 45.0786555}, {"type": "node", "id": 4937134405, "lat": 40.7308444, "lon": 45.0932774}, {"type": "node", "id": 4968543015, "lat": 40.6872728, "lon": 45.1448929}, {"type": "node", "id": 4973378504, "lat": 40.6838581, "lon": 45.0832251}, {"type": "node", "id": 4973378505, "lat": 40.6838077, "lon": 45.0832562}, {"type": "node", "id": 4973378508, "lat": 40.683662, "lon": 45.0832875}, {"type": "node", "id": 4973378510, "lat": 40.6835676, "lon": 45.0832817}, {"type": "node", "id": 4973378638, "lat": 40.686923, "lon": 45.08457}, {"type": "node", "id": 4975976977, "lat": 40.721248, "lon": 45.0992122}, {"type": "node", "id": 4975976978, "lat": 40.7211931, "lon": 45.0988716}, {"type": "node", "id": 4975976981, "lat": 40.7213151, "lon": 45.0981313}, {"type": "node", "id": 4975976982, "lat": 40.7213496, "lon": 45.0978684}, {"type": "node", "id": 4975979367, "lat": 40.6932826, "lon": 45.102109}, {"type": "node", "id": 4975979368, "lat": 40.6933131, "lon": 45.1022619}, {"type": "node", "id": 4975979369, "lat": 40.6933579, "lon": 45.1025087}, {"type": "node", "id": 4980407324, "lat": 40.8904176, "lon": 45.1373291}, {"type": "node", "id": 5069629184, "lat": 40.7220347, "lon": 45.1007303}, {"type": "node", "id": 5069629732, "lat": 40.7304866, "lon": 45.0930592}, {"type": "node", "id": 5069629733, "lat": 40.7304378, "lon": 45.0929734}, {"type": "node", "id": 5069629734, "lat": 40.7304093, "lon": 45.0928661}, {"type": "node", "id": 5069629779, "lat": 40.7310191, "lon": 45.0931826}, {"type": "node", "id": 5069629780, "lat": 40.7309744, "lon": 45.0932792}, {"type": "node", "id": 5069629828, "lat": 40.7310882, "lon": 45.0930592}, {"type": "node", "id": 5069629830, "lat": 40.7311695, "lon": 45.0929144}, {"type": "node", "id": 5069629970, "lat": 40.7309256, "lon": 45.0912192}, {"type": "node", "id": 5069629971, "lat": 40.7308687, "lon": 45.0911334}, {"type": "node", "id": 5069629972, "lat": 40.7307548, "lon": 45.0909671}, {"type": "node", "id": 5069629973, "lat": 40.7307183, "lon": 45.0908491}, {"type": "node", "id": 5069630022, "lat": 40.7298361, "lon": 45.0901088}, {"type": "node", "id": 5069630023, "lat": 40.7297508, "lon": 45.0900712}, {"type": "node", "id": 5069630025, "lat": 40.7296044, "lon": 45.0900069}, {"type": "node", "id": 5069630026, "lat": 40.7296126, "lon": 45.0901249}, {"type": "node", "id": 5069630034, "lat": 40.7294134, "lon": 45.0900176}, {"type": "node", "id": 5069630074, "lat": 40.7285678, "lon": 45.0896528}, {"type": "node", "id": 5069630075, "lat": 40.7284784, "lon": 45.0896367}, {"type": "node", "id": 5069630180, "lat": 40.7244415, "lon": 45.0822016}, {"type": "node", "id": 5069630181, "lat": 40.7243927, "lon": 45.0819763}, {"type": "node", "id": 5069630182, "lat": 40.7244496, "lon": 45.0817296}, {"type": "node", "id": 5069630183, "lat": 40.724596, "lon": 45.081633}, {"type": "node", "id": 5069715409, "lat": 40.7178246, "lon": 45.0943816}, {"type": "node", "id": 5069715585, "lat": 40.7312183, "lon": 45.0919139}, {"type": "node", "id": 5069715868, "lat": 40.7237015, "lon": 45.092935}, {"type": "node", "id": 5069715899, "lat": 40.7223681, "lon": 45.0949287}, {"type": "node", "id": 5069716126, "lat": 40.7226974, "lon": 45.0972381}, {"type": "node", "id": 5086011690, "lat": 40.6873786, "lon": 45.0879557}, {"type": "node", "id": 5086011691, "lat": 40.6872474, "lon": 45.0880247}, {"type": "node", "id": 5086011692, "lat": 40.6869657, "lon": 45.0886309}, {"type": "node", "id": 5086011717, "lat": 40.6878118, "lon": 45.0867547}, {"type": "node", "id": 5086011718, "lat": 40.6878881, "lon": 45.0866863}, {"type": "node", "id": 5086011720, "lat": 40.6879186, "lon": 45.0864409}, {"type": "node", "id": 5086385279, "lat": 40.6809757, "lon": 45.0844359}, {"type": "node", "id": 5088421446, "lat": 40.6725582, "lon": 45.120914}, {"type": "node", "id": 5095291340, "lat": 40.6848484, "lon": 45.0842026}, {"type": "node", "id": 5097222378, "lat": 40.6834958, "lon": 45.1384234}, {"type": "node", "id": 5097223266, "lat": 40.6862294, "lon": 45.1404552}, {"type": "node", "id": 5097250417, "lat": 40.6863088, "lon": 45.1231348}, {"type": "node", "id": 5097250419, "lat": 40.6861461, "lon": 45.1234889}, {"type": "node", "id": 5097250719, "lat": 40.6823222, "lon": 45.1330912}, {"type": "node", "id": 5097250929, "lat": 40.6841894, "lon": 45.1393086}, {"type": "node", "id": 5097250931, "lat": 40.683144, "lon": 45.1379353}, {"type": "node", "id": 5097250937, "lat": 40.6826843, "lon": 45.1361114}, {"type": "node", "id": 5097250938, "lat": 40.6825704, "lon": 45.1368087}, {"type": "node", "id": 5105356048, "lat": 40.6876104, "lon": 45.0851011}, {"type": "node", "id": 5105356511, "lat": 40.7188024, "lon": 45.0938773}, {"type": "node", "id": 5105356512, "lat": 40.7191002, "lon": 45.0937}, {"type": "node", "id": 5105356513, "lat": 40.7193644, "lon": 45.0936474}, {"type": "node", "id": 5107412343, "lat": 40.7270149, "lon": 45.0927803}, {"type": "node", "id": 5107412349, "lat": 40.7266449, "lon": 45.0924852}, {"type": "node", "id": 5107412365, "lat": 40.7256123, "lon": 45.0922385}, {"type": "node", "id": 5107412366, "lat": 40.7256733, "lon": 45.0921687}, {"type": "node", "id": 5107412380, "lat": 40.7262953, "lon": 45.0922599}, {"type": "node", "id": 5107412381, "lat": 40.7263278, "lon": 45.0923833}, {"type": "node", "id": 5107412382, "lat": 40.7263726, "lon": 45.0924691}, {"type": "node", "id": 5107412383, "lat": 40.7264254, "lon": 45.0925389}, {"type": "node", "id": 5112826359, "lat": 40.72311, "lon": 45.0791332}, {"type": "node", "id": 5112826360, "lat": 40.7231303, "lon": 45.0792244}, {"type": "node", "id": 5112826375, "lat": 40.7225449, "lon": 45.0821587}, {"type": "node", "id": 5112826376, "lat": 40.7224026, "lon": 45.0824591}, {"type": "node", "id": 5112826391, "lat": 40.7223579, "lon": 45.0858656}, {"type": "node", "id": 5112826426, "lat": 40.7202681, "lon": 45.0924316}, {"type": "node", "id": 5112826430, "lat": 40.7197314, "lon": 45.0934133}, {"type": "node", "id": 5112826431, "lat": 40.7194428, "lon": 45.0935206}, {"type": "node", "id": 5112826438, "lat": 40.7185767, "lon": 45.0939605}, {"type": "node", "id": 5112826439, "lat": 40.7184873, "lon": 45.0939819}, {"type": "node", "id": 5112826440, "lat": 40.718406, "lon": 45.0939658}, {"type": "node", "id": 5112826442, "lat": 40.7182799, "lon": 45.09388}, {"type": "node", "id": 5113223082, "lat": 40.6826151, "lon": 45.0915974}, {"type": "node", "id": 5113223086, "lat": 40.6823344, "lon": 45.0909698}, {"type": "node", "id": 5113223095, "lat": 40.6823954, "lon": 45.0912487}, {"type": "node", "id": 5113223096, "lat": 40.6824321, "lon": 45.0913453}, {"type": "node", "id": 5113224741, "lat": 40.6864796, "lon": 45.0900257}, {"type": "node", "id": 5113224754, "lat": 40.6863494, "lon": 45.0902241}, {"type": "node", "id": 5113224755, "lat": 40.6863332, "lon": 45.0903314}, {"type": "node", "id": 5113224757, "lat": 40.6862193, "lon": 45.0904709}, {"type": "node", "id": 5113224758, "lat": 40.6861786, "lon": 45.0905514}, {"type": "node", "id": 5113224769, "lat": 40.6856132, "lon": 45.0910342}, {"type": "node", "id": 5113224770, "lat": 40.6855684, "lon": 45.0909698}, {"type": "node", "id": 5113224796, "lat": 40.6844538, "lon": 45.0917906}, {"type": "node", "id": 5113224798, "lat": 40.6842789, "lon": 45.0918925}, {"type": "node", "id": 5113224800, "lat": 40.6841528, "lon": 45.0919944}, {"type": "node", "id": 5113224828, "lat": 40.6836036, "lon": 45.0919408}, {"type": "node", "id": 5113224833, "lat": 40.6833311, "lon": 45.0919568}, {"type": "node", "id": 5113224840, "lat": 40.6831887, "lon": 45.0918066}, {"type": "node", "id": 5113224848, "lat": 40.6827331, "lon": 45.0917262}, {"type": "node", "id": 5113224979, "lat": 40.6817079, "lon": 45.0885558}, {"type": "node", "id": 5113224980, "lat": 40.6817242, "lon": 45.0884592}, {"type": "node", "id": 5113224981, "lat": 40.6816998, "lon": 45.0883734}, {"type": "node", "id": 5113224984, "lat": 40.6815167, "lon": 45.0882125}, {"type": "node", "id": 5113224985, "lat": 40.6814557, "lon": 45.0882715}, {"type": "node", "id": 5113225066, "lat": 40.6803736, "lon": 45.0858146}, {"type": "node", "id": 5113225067, "lat": 40.6803655, "lon": 45.0856966}, {"type": "node", "id": 5113225556, "lat": 40.6832863, "lon": 45.0832289}, {"type": "node", "id": 5113225557, "lat": 40.6832253, "lon": 45.0832933}, {"type": "node", "id": 5119793721, "lat": 40.720248, "lon": 45.0924902}, {"type": "node", "id": 5119793723, "lat": 40.7189627, "lon": 45.0937995}, {"type": "node", "id": 5119793934, "lat": 40.7306912, "lon": 45.093257}, {"type": "node", "id": 5119793936, "lat": 40.729201, "lon": 45.0939207}, {"type": "node", "id": 5119793951, "lat": 40.7222346, "lon": 45.0869402}, {"type": "node", "id": 5144862455, "lat": 40.6827066, "lon": 45.0916082}, {"type": "node", "id": 5193625252, "lat": 40.7179425, "lon": 45.0941267}, {"type": "node", "id": 5193681469, "lat": 40.6985842, "lon": 45.1082325}, {"type": "node", "id": 5218467167, "lat": 40.6803614, "lon": 45.0869679}, {"type": "node", "id": 5218467168, "lat": 40.680394, "lon": 45.0861954}, {"type": "node", "id": 5218467169, "lat": 40.680573, "lon": 45.0849294}, {"type": "node", "id": 5218467170, "lat": 40.6807519, "lon": 45.0846076}, {"type": "node", "id": 5218467171, "lat": 40.6811588, "lon": 45.0841784}, {"type": "node", "id": 5218467172, "lat": 40.6814028, "lon": 45.0840497}, {"type": "node", "id": 5218467173, "lat": 40.6819724, "lon": 45.0839424}, {"type": "node", "id": 5218467174, "lat": 40.682428, "lon": 45.0835562}, {"type": "node", "id": 5218467175, "lat": 40.6829487, "lon": 45.0832987}, {"type": "node", "id": 5218467176, "lat": 40.6842179, "lon": 45.0834918}, {"type": "node", "id": 5218467177, "lat": 40.6846735, "lon": 45.0839209}, {"type": "node", "id": 5218467178, "lat": 40.6849338, "lon": 45.0841784}, {"type": "node", "id": 5218467179, "lat": 40.6854057, "lon": 45.0841141}, {"type": "node", "id": 5218467180, "lat": 40.6856823, "lon": 45.0839638}, {"type": "node", "id": 5218467181, "lat": 40.6859589, "lon": 45.0839638}, {"type": "node", "id": 5218467182, "lat": 40.6866586, "lon": 45.0845217}, {"type": "node", "id": 5218467183, "lat": 40.687342, "lon": 45.0849509}, {"type": "node", "id": 5218467184, "lat": 40.6876511, "lon": 45.0852942}, {"type": "node", "id": 5218467185, "lat": 40.6878464, "lon": 45.0855946}, {"type": "node", "id": 5218467186, "lat": 40.6879115, "lon": 45.0860238}, {"type": "node", "id": 5218467187, "lat": 40.6876674, "lon": 45.0873112}, {"type": "node", "id": 5218467188, "lat": 40.687163, "lon": 45.0883198}, {"type": "node", "id": 5218467189, "lat": 40.6868701, "lon": 45.0890064}, {"type": "node", "id": 5218467190, "lat": 40.6866911, "lon": 45.0892854}, {"type": "node", "id": 5218467191, "lat": 40.6860891, "lon": 45.0906372}, {"type": "node", "id": 5218467192, "lat": 40.685845, "lon": 45.0907874}, {"type": "node", "id": 5218467193, "lat": 40.6852267, "lon": 45.0911951}, {"type": "node", "id": 5218467194, "lat": 40.6847549, "lon": 45.0916672}, {"type": "node", "id": 5218467195, "lat": 40.6830463, "lon": 45.0918174}, {"type": "node", "id": 5218467196, "lat": 40.6822327, "lon": 45.0906801}, {"type": "node", "id": 5218467197, "lat": 40.6819073, "lon": 45.0888133}, {"type": "node", "id": 5218467198, "lat": 40.6812238, "lon": 45.0880623}, {"type": "node", "id": 5218467199, "lat": 40.6809472, "lon": 45.0879979}, {"type": "node", "id": 5218467200, "lat": 40.6807031, "lon": 45.0878691}, {"type": "node", "id": 5218467201, "lat": 40.6731197, "lon": 45.1172018}, {"type": "node", "id": 5218467202, "lat": 40.6727291, "lon": 45.1146698}, {"type": "node", "id": 5218467203, "lat": 40.6705483, "lon": 45.1118803}, {"type": "node", "id": 5218467204, "lat": 40.6677815, "lon": 45.1115799}, {"type": "node", "id": 5218467205, "lat": 40.6649169, "lon": 45.1138544}, {"type": "node", "id": 5218467206, "lat": 40.6658773, "lon": 45.1170676}, {"type": "node", "id": 5218467207, "lat": 40.6686441, "lon": 45.1153779}, {"type": "node", "id": 5218467208, "lat": 40.6704507, "lon": 45.1171803}, {"type": "node", "id": 5218467209, "lat": 40.6705971, "lon": 45.1175236}, {"type": "node", "id": 5218467210, "lat": 40.6707273, "lon": 45.117867}, {"type": "node", "id": 5218467211, "lat": 40.6714272, "lon": 45.1200557}, {"type": "node", "id": 5218467212, "lat": 40.6715899, "lon": 45.1203561}, {"type": "node", "id": 5218467213, "lat": 40.6720293, "lon": 45.1208067}, {"type": "node", "id": 5218467214, "lat": 40.6722897, "lon": 45.120914}, {"type": "node", "id": 5218467215, "lat": 40.6739334, "lon": 45.1192617}, {"type": "node", "id": 5218467216, "lat": 40.6739334, "lon": 45.1188755}, {"type": "node", "id": 5218467217, "lat": 40.6738195, "lon": 45.1185751}, {"type": "node", "id": 5218467218, "lat": 40.6484107, "lon": 45.1122665}, {"type": "node", "id": 5218467219, "lat": 40.6478246, "lon": 45.1123094}, {"type": "node", "id": 5218467220, "lat": 40.6473036, "lon": 45.1120519}, {"type": "node", "id": 5218468521, "lat": 40.6459034, "lon": 45.1099491}, {"type": "node", "id": 5218468522, "lat": 40.6436892, "lon": 45.107975}, {"type": "node", "id": 5218468523, "lat": 40.6430379, "lon": 45.1054}, {"type": "node", "id": 5218468524, "lat": 40.6431356, "lon": 45.1027393}, {"type": "node", "id": 5218468525, "lat": 40.6434775, "lon": 45.1013875}, {"type": "node", "id": 5218468526, "lat": 40.644894, "lon": 45.1017952}, {"type": "node", "id": 5218468527, "lat": 40.6465221, "lon": 45.1044988}, {"type": "node", "id": 5218468528, "lat": 40.6487688, "lon": 45.1046276}, {"type": "node", "id": 5218468529, "lat": 40.650755, "lon": 45.1031255}, {"type": "node", "id": 5218468530, "lat": 40.6508201, "lon": 45.1116228}, {"type": "node", "id": 5218484752, "lat": 40.7261327, "lon": 45.0922224}, {"type": "node", "id": 5218484753, "lat": 40.7254335, "lon": 45.0923082}, {"type": "node", "id": 5218484754, "lat": 40.7245716, "lon": 45.0925442}, {"type": "node", "id": 5218484755, "lat": 40.7231263, "lon": 45.0937485}, {"type": "node", "id": 5218484756, "lat": 40.7229454, "lon": 45.0939604}, {"type": "node", "id": 5218484757, "lat": 40.7226527, "lon": 45.0944325}, {"type": "node", "id": 5218484758, "lat": 40.7222624, "lon": 45.0955268}, {"type": "node", "id": 5218484759, "lat": 40.72236, "lon": 45.0961276}, {"type": "node", "id": 5218484760, "lat": 40.7225063, "lon": 45.096707}, {"type": "node", "id": 5218484761, "lat": 40.7228478, "lon": 45.0979516}, {"type": "node", "id": 5218484762, "lat": 40.7228153, "lon": 45.0985524}, {"type": "node", "id": 5218484763, "lat": 40.7226202, "lon": 45.0991103}, {"type": "node", "id": 5218484764, "lat": 40.7224901, "lon": 45.0996682}, {"type": "node", "id": 5218484765, "lat": 40.7222949, "lon": 45.1002046}, {"type": "node", "id": 5218484766, "lat": 40.7214981, "lon": 45.1008698}, {"type": "node", "id": 5218484767, "lat": 40.721124, "lon": 45.1003119}, {"type": "node", "id": 5218484768, "lat": 40.7210752, "lon": 45.0997325}, {"type": "node", "id": 5218484769, "lat": 40.7213354, "lon": 45.0987026}, {"type": "node", "id": 5218484770, "lat": 40.7211403, "lon": 45.096707}, {"type": "node", "id": 5218484771, "lat": 40.7209939, "lon": 45.0961276}, {"type": "node", "id": 5218484772, "lat": 40.7206687, "lon": 45.0957414}, {"type": "node", "id": 5218484773, "lat": 40.7202621, "lon": 45.0955268}, {"type": "node", "id": 5218484774, "lat": 40.7198718, "lon": 45.0951835}, {"type": "node", "id": 5218484775, "lat": 40.7194815, "lon": 45.0949046}, {"type": "node", "id": 5218484776, "lat": 40.7190424, "lon": 45.0949904}, {"type": "node", "id": 5218484777, "lat": 40.718587, "lon": 45.0949904}, {"type": "node", "id": 5218484778, "lat": 40.7181804, "lon": 45.0947329}, {"type": "node", "id": 5218484779, "lat": 40.718034, "lon": 45.0940248}, {"type": "node", "id": 5218484780, "lat": 40.7183593, "lon": 45.0940463}, {"type": "node", "id": 5218484781, "lat": 40.7199531, "lon": 45.0929734}, {"type": "node", "id": 5218484782, "lat": 40.721059, "lon": 45.0910422}, {"type": "node", "id": 5218484783, "lat": 40.7214413, "lon": 45.0894097}, {"type": "node", "id": 5218484785, "lat": 40.7225226, "lon": 45.0854203}, {"type": "node", "id": 5218484786, "lat": 40.7226527, "lon": 45.0836607}, {"type": "node", "id": 5218484787, "lat": 40.7225551, "lon": 45.0830385}, {"type": "node", "id": 5218484788, "lat": 40.7225388, "lon": 45.0820085}, {"type": "node", "id": 5218484789, "lat": 40.7226039, "lon": 45.0808283}, {"type": "node", "id": 5218484790, "lat": 40.722734, "lon": 45.0802704}, {"type": "node", "id": 5218484791, "lat": 40.7229129, "lon": 45.079734}, {"type": "node", "id": 5218484792, "lat": 40.7233194, "lon": 45.0787255}, {"type": "node", "id": 5218484793, "lat": 40.7235173, "lon": 45.0778135}, {"type": "node", "id": 5218484794, "lat": 40.7248318, "lon": 45.0792405}, {"type": "node", "id": 5218484795, "lat": 40.7247993, "lon": 45.0798198}, {"type": "node", "id": 5218484796, "lat": 40.724718, "lon": 45.0810644}, {"type": "node", "id": 5218484797, "lat": 40.7242464, "lon": 45.0824377}, {"type": "node", "id": 5218484798, "lat": 40.7241163, "lon": 45.0830599}, {"type": "node", "id": 5218484799, "lat": 40.7240512, "lon": 45.0836393}, {"type": "node", "id": 5218484800, "lat": 40.7236284, "lon": 45.0846693}, {"type": "node", "id": 5218484801, "lat": 40.7236447, "lon": 45.0852915}, {"type": "node", "id": 5218484802, "lat": 40.7239211, "lon": 45.0860211}, {"type": "node", "id": 5218484803, "lat": 40.7238886, "lon": 45.0866219}, {"type": "node", "id": 5218484804, "lat": 40.7238561, "lon": 45.0872013}, {"type": "node", "id": 5218484805, "lat": 40.723791, "lon": 45.087845}, {"type": "node", "id": 5218484806, "lat": 40.7235796, "lon": 45.0883814}, {"type": "node", "id": 5218484807, "lat": 40.7233032, "lon": 45.0888535}, {"type": "node", "id": 5218484808, "lat": 40.7230592, "lon": 45.0893256}, {"type": "node", "id": 5218484809, "lat": 40.7231406, "lon": 45.0899049}, {"type": "node", "id": 5218484810, "lat": 40.7235471, "lon": 45.0896903}, {"type": "node", "id": 5218484811, "lat": 40.7239862, "lon": 45.0894972}, {"type": "node", "id": 5218484812, "lat": 40.7244415, "lon": 45.0894329}, {"type": "node", "id": 5218484813, "lat": 40.7257587, "lon": 45.0894114}, {"type": "node", "id": 5218484814, "lat": 40.7266531, "lon": 45.0894543}, {"type": "node", "id": 5218484815, "lat": 40.7271084, "lon": 45.0895187}, {"type": "node", "id": 5218484816, "lat": 40.7280353, "lon": 45.0895401}, {"type": "node", "id": 5218484817, "lat": 40.7289784, "lon": 45.089862}, {"type": "node", "id": 5218484818, "lat": 40.7299866, "lon": 45.0902482}, {"type": "node", "id": 5218484819, "lat": 40.7303768, "lon": 45.0905057}, {"type": "node", "id": 5218484820, "lat": 40.7309784, "lon": 45.0913855}, {"type": "node", "id": 5218484821, "lat": 40.7312874, "lon": 45.0923296}, {"type": "node", "id": 5218484822, "lat": 40.7303118, "lon": 45.0927588}, {"type": "node", "id": 5218484823, "lat": 40.729889, "lon": 45.0925657}, {"type": "node", "id": 5218484824, "lat": 40.7294987, "lon": 45.0928446}, {"type": "node", "id": 5218484825, "lat": 40.7292548, "lon": 45.0933167}, {"type": "node", "id": 5218484826, "lat": 40.7290434, "lon": 45.0943252}, {"type": "node", "id": 5218484827, "lat": 40.7286044, "lon": 45.0943896}, {"type": "node", "id": 5218484828, "lat": 40.7284743, "lon": 45.0938102}, {"type": "node", "id": 5218484829, "lat": 40.728393, "lon": 45.0932523}, {"type": "node", "id": 5218484830, "lat": 40.7279702, "lon": 45.0930592}, {"type": "node", "id": 5218484831, "lat": 40.7275312, "lon": 45.0930807}, {"type": "node", "id": 5218484832, "lat": 40.6978847, "lon": 45.1043701}, {"type": "node", "id": 5218484833, "lat": 40.6978522, "lon": 45.1038122}, {"type": "node", "id": 5218484834, "lat": 40.6976569, "lon": 45.1033187}, {"type": "node", "id": 5218484835, "lat": 40.6975268, "lon": 45.1027608}, {"type": "node", "id": 5218484836, "lat": 40.6981622, "lon": 45.1024148}, {"type": "node", "id": 5218484837, "lat": 40.6980636, "lon": 45.1002288}, {"type": "node", "id": 5218484838, "lat": 40.697966, "lon": 45.0996494}, {"type": "node", "id": 5218484839, "lat": 40.6980799, "lon": 45.0990701}, {"type": "node", "id": 5218484840, "lat": 40.6989096, "lon": 45.0984907}, {"type": "node", "id": 5218484841, "lat": 40.6995115, "lon": 45.1000142}, {"type": "node", "id": 5218484842, "lat": 40.6996091, "lon": 45.1005721}, {"type": "node", "id": 5218484843, "lat": 40.6998857, "lon": 45.1015806}, {"type": "node", "id": 5218484844, "lat": 40.7000646, "lon": 45.1020956}, {"type": "node", "id": 5218484845, "lat": 40.7004713, "lon": 45.103147}, {"type": "node", "id": 5218484846, "lat": 40.7007641, "lon": 45.1035762}, {"type": "node", "id": 5218484847, "lat": 40.7011057, "lon": 45.1032543}, {"type": "node", "id": 5218484848, "lat": 40.7015287, "lon": 45.1030826}, {"type": "node", "id": 5218484849, "lat": 40.7019028, "lon": 45.1038122}, {"type": "node", "id": 5218484850, "lat": 40.70161, "lon": 45.1044988}, {"type": "node", "id": 5218484851, "lat": 40.7009817, "lon": 45.1059445}, {"type": "node", "id": 5218484853, "lat": 40.6993488, "lon": 45.1076531}, {"type": "node", "id": 5218484854, "lat": 40.6989584, "lon": 45.1079106}, {"type": "node", "id": 5218484855, "lat": 40.6980799, "lon": 45.1084256}, {"type": "node", "id": 5218484856, "lat": 40.6975268, "lon": 45.1088118}, {"type": "node", "id": 5218484857, "lat": 40.6971526, "lon": 45.1091766}, {"type": "node", "id": 5218484858, "lat": 40.6968435, "lon": 45.1096272}, {"type": "node", "id": 5218484859, "lat": 40.6964693, "lon": 45.109992}, {"type": "node", "id": 5218484860, "lat": 40.695786, "lon": 45.1105714}, {"type": "node", "id": 5218484861, "lat": 40.6953631, "lon": 45.110743}, {"type": "node", "id": 5218484862, "lat": 40.6949401, "lon": 45.1106357}, {"type": "node", "id": 5218484863, "lat": 40.6945008, "lon": 45.1104426}, {"type": "node", "id": 5218484864, "lat": 40.6943869, "lon": 45.1093268}, {"type": "node", "id": 5218484865, "lat": 40.6949563, "lon": 45.1081037}, {"type": "node", "id": 5218484866, "lat": 40.6952492, "lon": 45.1076102}, {"type": "node", "id": 5218484867, "lat": 40.6954932, "lon": 45.1071596}, {"type": "node", "id": 5218484868, "lat": 40.6953305, "lon": 45.1066232}, {"type": "node", "id": 5218484869, "lat": 40.6942242, "lon": 45.1058721}, {"type": "node", "id": 5218484870, "lat": 40.6932155, "lon": 45.1014948}, {"type": "node", "id": 5218484871, "lat": 40.693606, "lon": 45.100615}, {"type": "node", "id": 5218484872, "lat": 40.6942893, "lon": 45.1009154}, {"type": "node", "id": 5218484873, "lat": 40.6945821, "lon": 45.1013446}, {"type": "node", "id": 5218484874, "lat": 40.6948424, "lon": 45.1019025}, {"type": "node", "id": 5218484875, "lat": 40.6948262, "lon": 45.1025033}, {"type": "node", "id": 5218484876, "lat": 40.6947286, "lon": 45.1030612}, {"type": "node", "id": 5218484877, "lat": 40.6945496, "lon": 45.1036191}, {"type": "node", "id": 5218484878, "lat": 40.6947448, "lon": 45.1041341}, {"type": "node", "id": 5218484879, "lat": 40.6950865, "lon": 45.1044988}, {"type": "node", "id": 5218484880, "lat": 40.6955257, "lon": 45.1047134}, {"type": "node", "id": 5218484881, "lat": 40.6963554, "lon": 45.1053357}, {"type": "node", "id": 5218484882, "lat": 40.6967947, "lon": 45.1053786}, {"type": "node", "id": 5218484883, "lat": 40.6971851, "lon": 45.1051426}, {"type": "node", "id": 5218484884, "lat": 40.6975756, "lon": 45.1048851}, {"type": "node", "id": 5218484885, "lat": 40.6818097, "lon": 45.1283598}, {"type": "node", "id": 5218484886, "lat": 40.6825907, "lon": 45.1278448}, {"type": "node", "id": 5218484887, "lat": 40.6836647, "lon": 45.127716}, {"type": "node", "id": 5218484888, "lat": 40.68578, "lon": 45.1269865}, {"type": "node", "id": 5218484889, "lat": 40.6861705, "lon": 45.1246261}, {"type": "node", "id": 5218484890, "lat": 40.6873095, "lon": 45.1208925}, {"type": "node", "id": 5218484891, "lat": 40.6878301, "lon": 45.1199483}, {"type": "node", "id": 5218484892, "lat": 40.6884159, "lon": 45.1190042}, {"type": "node", "id": 5218484893, "lat": 40.6895507, "lon": 45.1189988}, {"type": "node", "id": 5218484894, "lat": 40.6909866, "lon": 45.1196748}, {"type": "node", "id": 5218484895, "lat": 40.6926786, "lon": 45.1161289}, {"type": "node", "id": 5218484896, "lat": 40.6936223, "lon": 45.1163005}, {"type": "node", "id": 5218484897, "lat": 40.6941103, "lon": 45.1172447}, {"type": "node", "id": 5218484898, "lat": 40.6944032, "lon": 45.1199054}, {"type": "node", "id": 5218484899, "lat": 40.6933945, "lon": 45.1218795}, {"type": "node", "id": 5218484900, "lat": 40.6931667, "lon": 45.1230382}, {"type": "node", "id": 5218484901, "lat": 40.6931016, "lon": 45.1242399}, {"type": "node", "id": 5218484902, "lat": 40.6927437, "lon": 45.126729}, {"type": "node", "id": 5218484903, "lat": 40.6923532, "lon": 45.1278019}, {"type": "node", "id": 5218484904, "lat": 40.6922231, "lon": 45.1290035}, {"type": "node", "id": 5218484905, "lat": 40.6925159, "lon": 45.1302051}, {"type": "node", "id": 5218484906, "lat": 40.6926136, "lon": 45.1314926}, {"type": "node", "id": 5218484907, "lat": 40.6923858, "lon": 45.1326084}, {"type": "node", "id": 5218484908, "lat": 40.6908239, "lon": 45.1356983}, {"type": "node", "id": 5218484909, "lat": 40.6901731, "lon": 45.1365137}, {"type": "node", "id": 5218484910, "lat": 40.6897175, "lon": 45.1400327}, {"type": "node", "id": 5218484911, "lat": 40.689685, "lon": 45.1436805}, {"type": "node", "id": 5218484912, "lat": 40.6901405, "lon": 45.1462984}, {"type": "node", "id": 5218484913, "lat": 40.6903032, "lon": 45.1477146}, {"type": "node", "id": 5218484914, "lat": 40.6900755, "lon": 45.1494741}, {"type": "node", "id": 5218484915, "lat": 40.689685, "lon": 45.150547}, {"type": "node", "id": 5218484916, "lat": 40.6891643, "lon": 45.151534}, {"type": "node", "id": 5218484917, "lat": 40.6889365, "lon": 45.1526928}, {"type": "node", "id": 5218484918, "lat": 40.6887738, "lon": 45.1538944}, {"type": "node", "id": 5218484919, "lat": 40.6883833, "lon": 45.1549673}, {"type": "node", "id": 5218484920, "lat": 40.6875047, "lon": 45.1549673}, {"type": "node", "id": 5218484921, "lat": 40.6869515, "lon": 45.1540231}, {"type": "node", "id": 5218484922, "lat": 40.6865935, "lon": 45.1522207}, {"type": "node", "id": 5218484923, "lat": 40.6866261, "lon": 45.1474571}, {"type": "node", "id": 5218484924, "lat": 40.6869515, "lon": 45.1464271}, {"type": "node", "id": 5218484925, "lat": 40.6873095, "lon": 45.1442813}, {"type": "node", "id": 5218484926, "lat": 40.6875373, "lon": 45.1431655}, {"type": "node", "id": 5218484927, "lat": 40.6874396, "lon": 45.1420497}, {"type": "node", "id": 5218484928, "lat": 40.6828836, "lon": 45.137887}, {"type": "node", "id": 5218484929, "lat": 40.6818422, "lon": 45.1317071}, {"type": "node", "id": 5218484930, "lat": 40.6812239, "lon": 45.1291322}, {"type": "node", "id": 5310284451, "lat": 40.6583572, "lon": 45.2711767}, {"type": "node", "id": 5320369860, "lat": 40.6790027, "lon": 45.1702666}, {"type": "node", "id": 5320369861, "lat": 40.6791084, "lon": 45.1696229}, {"type": "node", "id": 5320369862, "lat": 40.6795803, "lon": 45.1683569}, {"type": "node", "id": 5320369863, "lat": 40.6803492, "lon": 45.1662648}, {"type": "node", "id": 5320369864, "lat": 40.6812218, "lon": 45.1649183}, {"type": "node", "id": 5320369865, "lat": 40.6842377, "lon": 45.1620668}, {"type": "node", "id": 5320369866, "lat": 40.6860555, "lon": 45.1610385}, {"type": "node", "id": 5320369867, "lat": 40.6849827, "lon": 45.1656532}, {"type": "node", "id": 5320369868, "lat": 40.6855196, "lon": 45.169537}, {"type": "node", "id": 5320369869, "lat": 40.6875372, "lon": 45.1716184}, {"type": "node", "id": 5320369870, "lat": 40.6904497, "lon": 45.1721549}, {"type": "node", "id": 5320369871, "lat": 40.6897338, "lon": 45.1741504}, {"type": "node", "id": 5320369872, "lat": 40.6911493, "lon": 45.1763391}, {"type": "node", "id": 5320369873, "lat": 40.6912632, "lon": 45.1777982}, {"type": "node", "id": 5320369874, "lat": 40.689506, "lon": 45.1788926}, {"type": "node", "id": 5320369875, "lat": 40.688904, "lon": 45.1796651}, {"type": "node", "id": 5320369876, "lat": 40.6902056, "lon": 45.180974}, {"type": "node", "id": 5320369877, "lat": 40.6910516, "lon": 45.1822829}, {"type": "node", "id": 5320369878, "lat": 40.6903846, "lon": 45.1840639}, {"type": "node", "id": 5320369879, "lat": 40.6906612, "lon": 45.1863384}, {"type": "node", "id": 5320369880, "lat": 40.6891643, "lon": 45.185759}, {"type": "node", "id": 5320369881, "lat": 40.6878952, "lon": 45.18327}, {"type": "node", "id": 5320369882, "lat": 40.6868701, "lon": 45.182991}, {"type": "node", "id": 5320369883, "lat": 40.68578, "lon": 45.1842785}, {"type": "node", "id": 5320369884, "lat": 40.6850152, "lon": 45.184257}, {"type": "node", "id": 5320369885, "lat": 40.6843481, "lon": 45.1820683}, {"type": "node", "id": 5320369886, "lat": 40.6825094, "lon": 45.1799869}, {"type": "node", "id": 5320369887, "lat": 40.6808659, "lon": 45.1783132}, {"type": "node", "id": 5320369888, "lat": 40.679499, "lon": 45.1823687}, {"type": "node", "id": 5320369889, "lat": 40.6787829, "lon": 45.1823044}, {"type": "node", "id": 5320369890, "lat": 40.6784738, "lon": 45.1808238}, {"type": "node", "id": 5320369891, "lat": 40.6791735, "lon": 45.1791286}, {"type": "node", "id": 5320369892, "lat": 40.6790921, "lon": 45.1776695}, {"type": "node", "id": 5320369893, "lat": 40.6789945, "lon": 45.1755023}, {"type": "node", "id": 5320369894, "lat": 40.6784494, "lon": 45.1738071}, {"type": "node", "id": 5526886376, "lat": 40.691773, "lon": 45.1171988}, {"type": "node", "id": 5526886377, "lat": 40.6918557, "lon": 45.1166775}, {"type": "node", "id": 5526886378, "lat": 40.6919208, "lon": 45.1164393}, {"type": "node", "id": 5526886379, "lat": 40.6923584, "lon": 45.1163938}, {"type": "node", "id": 5802056424, "lat": 40.6286866, "lon": 45.334593}, {"type": "node", "id": 6042513445, "lat": 40.6481167, "lon": 45.112288}, {"type": "node", "id": 6241525656, "lat": 40.8538973, "lon": 45.5693539}, {"type": "node", "id": 6241525657, "lat": 40.8557475, "lon": 45.5666288}, {"type": "node", "id": 6241525658, "lat": 40.8565103, "lon": 45.5665215}, {"type": "node", "id": 6241525659, "lat": 40.8568998, "lon": 45.5678948}, {"type": "node", "id": 6241525660, "lat": 40.8567862, "lon": 45.5695685}, {"type": "node", "id": 6241525661, "lat": 40.8569485, "lon": 45.5701264}, {"type": "node", "id": 6241525662, "lat": 40.8577275, "lon": 45.5706414}, {"type": "node", "id": 6241525663, "lat": 40.8575003, "lon": 45.5720147}, {"type": "node", "id": 6241525664, "lat": 40.8578736, "lon": 45.573388}, {"type": "node", "id": 6241525665, "lat": 40.8590421, "lon": 45.574611}, {"type": "node", "id": 6241525666, "lat": 40.8594235, "lon": 45.5752494}, {"type": "node", "id": 6241525667, "lat": 40.8593261, "lon": 45.5763169}, {"type": "node", "id": 6241525668, "lat": 40.8586769, "lon": 45.5767086}, {"type": "node", "id": 6241525669, "lat": 40.8585187, "lon": 45.5773362}, {"type": "node", "id": 6241525670, "lat": 40.8586323, "lon": 45.57776}, {"type": "node", "id": 6241525671, "lat": 40.8589284, "lon": 45.5778512}, {"type": "node", "id": 6241525672, "lat": 40.8593829, "lon": 45.5786665}, {"type": "node", "id": 6241525673, "lat": 40.8594478, "lon": 45.5791815}, {"type": "node", "id": 6241525674, "lat": 40.8591881, "lon": 45.5795034}, {"type": "node", "id": 6241525675, "lat": 40.8589447, "lon": 45.5805334}, {"type": "node", "id": 6241525676, "lat": 40.8581657, "lon": 45.5803402}, {"type": "node", "id": 6241525677, "lat": 40.857127, "lon": 45.5802115}, {"type": "node", "id": 6241525678, "lat": 40.8564129, "lon": 45.5800828}, {"type": "node", "id": 6241525679, "lat": 40.855926, "lon": 45.5800828}, {"type": "node", "id": 6241525680, "lat": 40.8557637, "lon": 45.5806407}, {"type": "node", "id": 6241525681, "lat": 40.8559098, "lon": 45.5811986}, {"type": "node", "id": 6241525682, "lat": 40.8561695, "lon": 45.5818637}, {"type": "node", "id": 6241525683, "lat": 40.8563155, "lon": 45.5828723}, {"type": "node", "id": 6241525684, "lat": 40.856137, "lon": 45.5836447}, {"type": "node", "id": 6241526285, "lat": 40.8558611, "lon": 45.5841597}, {"type": "node", "id": 6241526286, "lat": 40.8556664, "lon": 45.5846318}, {"type": "node", "id": 6241526287, "lat": 40.8556339, "lon": 45.5854257}, {"type": "node", "id": 6241526288, "lat": 40.8556988, "lon": 45.5864342}, {"type": "node", "id": 6241526289, "lat": 40.8553904, "lon": 45.5869063}, {"type": "node", "id": 6241526290, "lat": 40.8553093, "lon": 45.5871209}, {"type": "node", "id": 6241526291, "lat": 40.8550009, "lon": 45.5879148}, {"type": "node", "id": 6241526292, "lat": 40.8536376, "lon": 45.5879363}, {"type": "node", "id": 6241526293, "lat": 40.8523879, "lon": 45.5874213}, {"type": "node", "id": 6241526294, "lat": 40.8515926, "lon": 45.5868634}, {"type": "node", "id": 6241526295, "lat": 40.8513004, "lon": 45.586563}, {"type": "node", "id": 6241526296, "lat": 40.8511868, "lon": 45.5862626}, {"type": "node", "id": 6241526297, "lat": 40.8503428, "lon": 45.5860694}, {"type": "node", "id": 6241526298, "lat": 40.8494338, "lon": 45.5862197}, {"type": "node", "id": 6241526299, "lat": 40.8488333, "lon": 45.585769}, {"type": "node", "id": 6241526300, "lat": 40.847973, "lon": 45.5841383}, {"type": "node", "id": 6241526301, "lat": 40.8475348, "lon": 45.5829152}, {"type": "node", "id": 6241526302, "lat": 40.8474211, "lon": 45.5814346}, {"type": "node", "id": 6241526303, "lat": 40.8470965, "lon": 45.5804261}, {"type": "node", "id": 6241526304, "lat": 40.8475023, "lon": 45.5800184}, {"type": "node", "id": 6241526305, "lat": 40.8479081, "lon": 45.5800828}, {"type": "node", "id": 6241526306, "lat": 40.8489307, "lon": 45.5801686}, {"type": "node", "id": 6241526307, "lat": 40.8502779, "lon": 45.5793532}, {"type": "node", "id": 6241526308, "lat": 40.8510732, "lon": 45.5787095}, {"type": "node", "id": 6241526309, "lat": 40.8515276, "lon": 45.5777439}, {"type": "node", "id": 6241526310, "lat": 40.8513166, "lon": 45.5768426}, {"type": "node", "id": 6241526311, "lat": 40.8509596, "lon": 45.5762847}, {"type": "node", "id": 6241526312, "lat": 40.8508135, "lon": 45.5749973}, {"type": "node", "id": 6241526313, "lat": 40.8512355, "lon": 45.5737957}, {"type": "node", "id": 6241526314, "lat": 40.852258, "lon": 45.5717572}, {"type": "node", "id": 6241526315, "lat": 40.8529559, "lon": 45.5711564}, {"type": "node", "id": 6578874350, "lat": 40.6995036, "lon": 45.1074015}, {"type": "node", "id": 6958416780, "lat": 40.6463366, "lon": 45.1110183}, {"type": "node", "id": 6958416781, "lat": 40.646241, "lon": 45.1108198}, {"type": "node", "id": 7331252723, "lat": 40.6712364, "lon": 45.5093088, "tags": {"addr:city": "Tovuz rayonu", "name": "M\u0259\u015f\u0259diqulular", "name:az": "M\u0259\u015f\u0259diqulular", "place": "village"}}, {"type": "node", "id": 7710582485, "lat": 40.8868164, "lon": 45.4443025}, {"type": "node", "id": 7710582486, "lat": 40.8855349, "lon": 45.4450536}, {"type": "node", "id": 7710582487, "lat": 40.8837666, "lon": 45.4468131}, {"type": "node", "id": 7710582488, "lat": 40.8831988, "lon": 45.4502249}, {"type": "node", "id": 7710582489, "lat": 40.8808464, "lon": 45.4500961}, {"type": "node", "id": 7710582490, "lat": 40.8769801, "lon": 45.4495963}, {"type": "node", "id": 7710582491, "lat": 40.8738689, "lon": 45.44751}, {"type": "node", "id": 7710582492, "lat": 40.8729289, "lon": 45.445354}, {"type": "node", "id": 7710582493, "lat": 40.8744378, "lon": 45.4407406}, {"type": "node", "id": 7710582494, "lat": 40.8743567, "lon": 45.437994}, {"type": "node", "id": 7710582495, "lat": 40.8763523, "lon": 45.4343891}, {"type": "node", "id": 7710582496, "lat": 40.8805706, "lon": 45.4326081}, {"type": "node", "id": 7710582497, "lat": 40.8826797, "lon": 45.4358911}, {"type": "node", "id": 7710582498, "lat": 40.8873193, "lon": 45.4429507}, {"type": "node", "id": 7710582499, "lat": 40.8816576, "lon": 45.4542589}, {"type": "node", "id": 7710582500, "lat": 40.8801813, "lon": 45.4559326}, {"type": "node", "id": 7710582501, "lat": 40.8799379, "lon": 45.4571986}, {"type": "node", "id": 7710582502, "lat": 40.8837666, "lon": 45.458529}, {"type": "node", "id": 7710582503, "lat": 40.8855186, "lon": 45.4609108}, {"type": "node", "id": 7710582504, "lat": 40.8823552, "lon": 45.4625201}, {"type": "node", "id": 7710582505, "lat": 40.8798081, "lon": 45.462327}, {"type": "node", "id": 7710582506, "lat": 40.8796459, "lon": 45.4642582}, {"type": "node", "id": 7710582507, "lat": 40.882339, "lon": 45.466876}, {"type": "node", "id": 7710582508, "lat": 40.8818685, "lon": 45.468421}, {"type": "node", "id": 7710582509, "lat": 40.8787373, "lon": 45.4675841}, {"type": "node", "id": 7710582510, "lat": 40.8769364, "lon": 45.4664254}, {"type": "node", "id": 7710582512, "lat": 40.8756547, "lon": 45.4593229}, {"type": "node", "id": 7710582513, "lat": 40.8717768, "lon": 45.4523277}, {"type": "node", "id": 7710582514, "lat": 40.8723205, "lon": 45.4497281}, {"type": "node", "id": 7710582515, "lat": 40.8742756, "lon": 45.4494524}, {"type": "node", "id": 7710582516, "lat": 40.8771747, "lon": 45.4497287}, {"type": "node", "id": 7710582517, "lat": 40.8775043, "lon": 45.4507613}, {"type": "node", "id": 7710582518, "lat": 40.8781533, "lon": 45.4527139}, {"type": "node", "id": 7710582519, "lat": 40.8814791, "lon": 45.453937}, {"type": "node", "id": 7955452039, "lat": 40.6599716, "lon": 45.2090804}, {"type": "node", "id": 7955452040, "lat": 40.6602146, "lon": 45.2095008}, {"type": "node", "id": 7955452041, "lat": 40.66025, "lon": 45.2100748}, {"type": "node", "id": 7955452042, "lat": 40.6594552, "lon": 45.2100347}, {"type": "node", "id": 7955452043, "lat": 40.6584427, "lon": 45.2100214}, {"type": "node", "id": 7955452044, "lat": 40.6574352, "lon": 45.2100414}, {"type": "node", "id": 7955452045, "lat": 40.6566353, "lon": 45.2107621}, {"type": "node", "id": 7955452046, "lat": 40.6558961, "lon": 45.2110157}, {"type": "node", "id": 7955452047, "lat": 40.6555923, "lon": 45.2116297}, {"type": "node", "id": 7955452048, "lat": 40.654681, "lon": 45.2117832}, {"type": "node", "id": 7955452049, "lat": 40.6542152, "lon": 45.2118099}, {"type": "node", "id": 7955452050, "lat": 40.6538153, "lon": 45.2121569}, {"type": "node", "id": 7955452051, "lat": 40.65339, "lon": 45.212891}, {"type": "node", "id": 7955452052, "lat": 40.6528179, "lon": 45.213258}, {"type": "node", "id": 7955452053, "lat": 40.6523419, "lon": 45.2129511}, {"type": "node", "id": 7955452054, "lat": 40.6515318, "lon": 45.21195}, {"type": "node", "id": 7955452055, "lat": 40.6507724, "lon": 45.211623}, {"type": "node", "id": 7955452056, "lat": 40.6502762, "lon": 45.2117031}, {"type": "node", "id": 7955452057, "lat": 40.6496939, "lon": 45.2116764}, {"type": "node", "id": 7955452058, "lat": 40.6491572, "lon": 45.21189}, {"type": "node", "id": 7955452059, "lat": 40.6488179, "lon": 45.212931}, {"type": "node", "id": 7955452060, "lat": 40.6484078, "lon": 45.2134382}, {"type": "node", "id": 7955452061, "lat": 40.6479521, "lon": 45.2139454}, {"type": "node", "id": 7955452062, "lat": 40.6473951, "lon": 45.2131112}, {"type": "node", "id": 7955452063, "lat": 40.64659, "lon": 45.2138787}, {"type": "node", "id": 7955452064, "lat": 40.6461343, "lon": 45.2142124}, {"type": "node", "id": 7955452065, "lat": 40.6458355, "lon": 45.2141857}, {"type": "node", "id": 7955452066, "lat": 40.6458305, "lon": 45.2134316}, {"type": "node", "id": 7955452067, "lat": 40.6457444, "lon": 45.2127308}, {"type": "node", "id": 7955452068, "lat": 40.6450861, "lon": 45.2119767}, {"type": "node", "id": 7955452069, "lat": 40.6451773, "lon": 45.2107087}, {"type": "node", "id": 7955452070, "lat": 40.6441088, "lon": 45.2097811}, {"type": "node", "id": 7955452071, "lat": 40.6432885, "lon": 45.2093006}, {"type": "node", "id": 7955452072, "lat": 40.6424125, "lon": 45.2081795}, {"type": "node", "id": 7955452073, "lat": 40.6419821, "lon": 45.2074721}, {"type": "node", "id": 7955452074, "lat": 40.6418707, "lon": 45.2069248}, {"type": "node", "id": 7955452075, "lat": 40.6423922, "lon": 45.2059171}, {"type": "node", "id": 7955452076, "lat": 40.6438354, "lon": 45.2067513}, {"type": "node", "id": 7955452077, "lat": 40.643805, "lon": 45.2074253}, {"type": "node", "id": 7955452078, "lat": 40.644595, "lon": 45.2079459}, {"type": "node", "id": 7955452079, "lat": 40.6456178, "lon": 45.2085865}, {"type": "node", "id": 7955452080, "lat": 40.6463065, "lon": 45.2093674}, {"type": "node", "id": 7955452081, "lat": 40.6469343, "lon": 45.2099413}, {"type": "node", "id": 7955452082, "lat": 40.6476078, "lon": 45.2104151}, {"type": "node", "id": 7955452083, "lat": 40.6483116, "lon": 45.2101482}, {"type": "node", "id": 7955452084, "lat": 40.6487319, "lon": 45.2087667}, {"type": "node", "id": 7955454185, "lat": 40.6495673, "lon": 45.2077523}, {"type": "node", "id": 7955454186, "lat": 40.6510508, "lon": 45.2075521}, {"type": "node", "id": 7955454187, "lat": 40.6519419, "lon": 45.2077924}, {"type": "node", "id": 7955454188, "lat": 40.6528735, "lon": 45.2084731}, {"type": "node", "id": 7955454189, "lat": 40.6539469, "lon": 45.2081861}, {"type": "node", "id": 7955454190, "lat": 40.6552076, "lon": 45.2080326}, {"type": "node", "id": 7955454191, "lat": 40.655729, "lon": 45.2080059}, {"type": "node", "id": 7955454192, "lat": 40.6564075, "lon": 45.207105}, {"type": "node", "id": 7955454193, "lat": 40.6570555, "lon": 45.2068114}, {"type": "node", "id": 7955454194, "lat": 40.6579111, "lon": 45.207452}, {"type": "node", "id": 7955454195, "lat": 40.6585692, "lon": 45.2081461}, {"type": "node", "id": 7955454196, "lat": 40.6596627, "lon": 45.2088802}, {"type": "node", "id": 7982637894, "lat": 40.4995895, "lon": 45.2693233}, {"type": "node", "id": 8270187032, "lat": 40.5561511, "lon": 45.2222907}, {"type": "node", "id": 8270187033, "lat": 40.5547735, "lon": 45.225032}, {"type": "node", "id": 8270187034, "lat": 40.5548754, "lon": 45.2209791}, {"type": "node", "id": 8270187035, "lat": 40.5533735, "lon": 45.2237566}, {"type": "node", "id": 8270187036, "lat": 40.5532441, "lon": 45.2194496}, {"type": "node", "id": 8270187037, "lat": 40.5512545, "lon": 45.2216031}, {"type": "node", "id": 8270187038, "lat": 40.5506189, "lon": 45.2117931}, {"type": "node", "id": 8270187039, "lat": 40.5509206, "lon": 45.2148489}, {"type": "node", "id": 8270187040, "lat": 40.5483932, "lon": 45.217256}, {"type": "node", "id": 8270187041, "lat": 40.549881, "lon": 45.2103403}, {"type": "node", "id": 8270187042, "lat": 40.5480284, "lon": 45.208026}, {"type": "node", "id": 8270187043, "lat": 40.5459948, "lon": 45.2099795}, {"type": "node", "id": 8270187044, "lat": 40.5468605, "lon": 45.2138301}, {"type": "node", "id": 8270187045, "lat": 40.5447172, "lon": 45.212188}, {"type": "node", "id": 8314997184, "lat": 40.6489142, "lon": 45.2950713}, {"type": "node", "id": 8314997185, "lat": 40.6504519, "lon": 45.2926738}, {"type": "node", "id": 8314997186, "lat": 40.6517148, "lon": 45.2949293}, {"type": "node", "id": 8314997187, "lat": 40.6512615, "lon": 45.2963968}, {"type": "node", "id": 8314997192, "lat": 40.6516265, "lon": 45.2102644, "tags": {"is_in:country": "Armenia", "is_in:country_code": "AM", "is_in:municipality": "\u0543\u0561\u0574\u0562\u0561\u0580\u0561\u056f\u056b \u0570\u0561\u0574\u0561\u0575\u0576\u0584", "is_in:region": "\u0533\u0565\u0572\u0561\u0580\u0584\u0578\u0582\u0576\u056b\u0584\u056b \u0574\u0561\u0580\u0566", "name": "\u0543\u0561\u057a\u056f\u0578\u0582\u057f", "name:en": "Chapkut", "name:hy": "\u0543\u0561\u057a\u056f\u0578\u0582\u057f", "name:ru": "\u0427\u0430\u043f\u043a\u0443\u0442", "place": "village", "population": "0", "population:date": "2022-01-01", "source:population": "Armstat", "wikidata": "Q6203488", "wikipedia": "en:Chapkut"}}, {"type": "node", "id": 8345768563, "lat": 40.8609433, "lon": 45.161001}, {"type": "node", "id": 8345768564, "lat": 40.8633288, "lon": 45.1610654}, {"type": "node", "id": 8345768565, "lat": 40.8664932, "lon": 45.160765}, {"type": "node", "id": 8345768566, "lat": 40.864136, "lon": 45.1517936}, {"type": "node", "id": 8345768567, "lat": 40.8595978, "lon": 45.1520213}, {"type": "node", "id": 8345768568, "lat": 40.8576422, "lon": 45.1519725}, {"type": "node", "id": 8345768569, "lat": 40.8531897, "lon": 45.1531596}, {"type": "node", "id": 8345768570, "lat": 40.8486753, "lon": 45.1552574}, {"type": "node", "id": 8345768571, "lat": 40.8456, "lon": 45.1568836}, {"type": "node", "id": 8345768572, "lat": 40.8425983, "lon": 45.1575341}, {"type": "node", "id": 8345768573, "lat": 40.8394919, "lon": 45.1559648}, {"type": "node", "id": 8345768574, "lat": 40.8395595, "lon": 45.1510293}, {"type": "node", "id": 8345768575, "lat": 40.8369882, "lon": 45.1480534}, {"type": "node", "id": 8345768576, "lat": 40.8338385, "lon": 45.1519562}, {"type": "node", "id": 8345768577, "lat": 40.8296796, "lon": 45.1503138}, {"type": "node", "id": 8345768578, "lat": 40.8265665, "lon": 45.1493056}, {"type": "node", "id": 8345768579, "lat": 40.8230471, "lon": 45.1503788}, {"type": "node", "id": 8345768580, "lat": 40.8227887, "lon": 45.1518424}, {"type": "node", "id": 8345768581, "lat": 40.826628, "lon": 45.1542817}, {"type": "node", "id": 8345768582, "lat": 40.8286103, "lon": 45.1589262}, {"type": "node", "id": 8345768583, "lat": 40.8303087, "lon": 45.1651609}, {"type": "node", "id": 8345768584, "lat": 40.8311193, "lon": 45.1662667}, {"type": "node", "id": 8345768585, "lat": 40.8354011, "lon": 45.1637786}, {"type": "node", "id": 8345768586, "lat": 40.8376034, "lon": 45.1653235}, {"type": "node", "id": 8345768587, "lat": 40.8406791, "lon": 45.1658114}, {"type": "node", "id": 8345768588, "lat": 40.8442591, "lon": 45.1658927}, {"type": "node", "id": 8345768589, "lat": 40.8467563, "lon": 45.167031}, {"type": "node", "id": 8345768590, "lat": 40.8499546, "lon": 45.1681693}, {"type": "node", "id": 8345768591, "lat": 40.8505205, "lon": 45.1710152}, {"type": "node", "id": 8345768592, "lat": 40.8524516, "lon": 45.1731292}, {"type": "node", "id": 8345768593, "lat": 40.8544935, "lon": 45.172869}, {"type": "node", "id": 8345768594, "lat": 40.8578759, "lon": 45.1715193}, {"type": "node", "id": 8345768595, "lat": 40.8589828, "lon": 45.1697955}, {"type": "node", "id": 8345768596, "lat": 40.859893, "lon": 45.1632908}, {"type": "node", "id": 8345768600, "lat": 40.8737397, "lon": 45.3390826}, {"type": "node", "id": 8345768601, "lat": 40.8738533, "lon": 45.3356923}, {"type": "node", "id": 8345768602, "lat": 40.8717115, "lon": 45.3321732}, {"type": "node", "id": 8345768603, "lat": 40.8680119, "lon": 45.3300275}, {"type": "node", "id": 8345768604, "lat": 40.8666813, "lon": 45.3290833}, {"type": "node", "id": 8345768605, "lat": 40.8657726, "lon": 45.3295125}, {"type": "node", "id": 8345768606, "lat": 40.8647503, "lon": 45.3312291}, {"type": "node", "id": 8345768607, "lat": 40.8632411, "lon": 45.3346409}, {"type": "node", "id": 8345768608, "lat": 40.862235, "lon": 45.3392972}, {"type": "node", "id": 8345768609, "lat": 40.8628517, "lon": 45.3435029}, {"type": "node", "id": 8345768610, "lat": 40.8625109, "lon": 45.3466786}, {"type": "node", "id": 8345768611, "lat": 40.862949, "lon": 45.3501977}, {"type": "node", "id": 8345768612, "lat": 40.863728, "lon": 45.3527082}, {"type": "node", "id": 8345768613, "lat": 40.8660485, "lon": 45.3544248}, {"type": "node", "id": 8345768614, "lat": 40.8681093, "lon": 45.3540386}, {"type": "node", "id": 8345768615, "lat": 40.8690829, "lon": 45.3520645}, {"type": "node", "id": 8345768616, "lat": 40.8692776, "lon": 45.3478159}, {"type": "node", "id": 8345827317, "lat": 40.8697482, "lon": 45.3448547}, {"type": "node", "id": 8345827318, "lat": 40.8724741, "lon": 45.3432239}, {"type": "node", "id": 8345827319, "lat": 40.8733503, "lon": 45.3417863}, {"type": "node", "id": 9070352879, "lat": 40.5452139, "lon": 45.2109821}, {"type": "node", "id": 10559501419, "lat": 40.5814158, "lon": 45.3602528}, {"type": "node", "id": 10559501420, "lat": 40.5803728, "lon": 45.3646087}, {"type": "node", "id": 10559501421, "lat": 40.5814484, "lon": 45.3653812}, {"type": "node", "id": 10559501422, "lat": 40.585164, "lon": 45.3603601}, {"type": "node", "id": 10653201570, "lat": 40.6096745, "lon": 45.3562539}, {"type": "node", "id": 10653201571, "lat": 40.6122872, "lon": 45.3526775}, {"type": "node", "id": 10653201572, "lat": 40.6146913, "lon": 45.3517848}, {"type": "node", "id": 10653201573, "lat": 40.6168038, "lon": 45.3414792}, {"type": "node", "id": 10653201574, "lat": 40.6210884, "lon": 45.3424601}, {"type": "node", "id": 10653201575, "lat": 40.6177078, "lon": 45.3389933}, {"type": "node", "id": 10653201576, "lat": 40.6241148, "lon": 45.3400293}, {"type": "node", "id": 10653201577, "lat": 40.6207222, "lon": 45.3365599}, {"type": "node", "id": 10653201578, "lat": 40.6165965, "lon": 45.3330319}, {"type": "node", "id": 10653201579, "lat": 40.6154884, "lon": 45.3348295}, {"type": "node", "id": 10653201580, "lat": 40.6295735, "lon": 45.3364391}, {"type": "node", "id": 10653201581, "lat": 40.6278794, "lon": 45.3329129}, {"type": "node", "id": 10653201582, "lat": 40.625057, "lon": 45.3323329}, {"type": "node", "id": 10653201583, "lat": 40.6217931, "lon": 45.3345709}, {"type": "node", "id": 10653201584, "lat": 40.6266793, "lon": 45.3383426}, {"type": "node", "id": 10653201585, "lat": 40.6267581, "lon": 45.3405434}, {"type": "node", "id": 10653201586, "lat": 40.6251529, "lon": 45.3413574}, {"type": "node", "id": 10653201587, "lat": 40.6197556, "lon": 45.3447362}, {"type": "node", "id": 10673358653, "lat": 40.8614738, "lon": 45.4795092}, {"type": "node", "id": 10673358654, "lat": 40.8664123, "lon": 45.4819376}, {"type": "node", "id": 10673358655, "lat": 40.8679237, "lon": 45.494289}, {"type": "node", "id": 10673358656, "lat": 40.8657181, "lon": 45.4978561}, {"type": "node", "id": 10673358657, "lat": 40.8600766, "lon": 45.4989251}, {"type": "node", "id": 10673358658, "lat": 40.8573084, "lon": 45.4933478}, {"type": "node", "id": 10673358659, "lat": 40.8568162, "lon": 45.4883166}, {"type": "node", "id": 10673358660, "lat": 40.8586969, "lon": 45.4813334}, {"type": "node", "id": 10673358661, "lat": 40.8418945, "lon": 45.4591601}, {"type": "node", "id": 10673358662, "lat": 40.8474585, "lon": 45.4600896}, {"type": "node", "id": 10673358663, "lat": 40.8494625, "lon": 45.4686996}, {"type": "node", "id": 10673358664, "lat": 40.8442239, "lon": 45.4767285}, {"type": "node", "id": 10673358665, "lat": 40.848399, "lon": 45.4810974}, {"type": "node", "id": 10673358666, "lat": 40.8457358, "lon": 45.4878831}, {"type": "node", "id": 10673358667, "lat": 40.8414199, "lon": 45.4870233}, {"type": "node", "id": 10673358668, "lat": 40.833596, "lon": 45.4808883}, {"type": "node", "id": 10673358669, "lat": 40.8353982, "lon": 45.4706749}, {"type": "node", "id": 10673358670, "lat": 40.835029, "lon": 45.4624832}, {"type": "node", "id": 10673358671, "lat": 40.8252475, "lon": 45.5550326}, {"type": "node", "id": 10673358672, "lat": 40.8297323, "lon": 45.5502288}, {"type": "node", "id": 10673358673, "lat": 40.8324173, "lon": 45.5528431}, {"type": "node", "id": 10673358674, "lat": 40.8374301, "lon": 45.5521635}, {"type": "node", "id": 10673358675, "lat": 40.8358949, "lon": 45.5408098}, {"type": "node", "id": 10673358676, "lat": 40.8382441, "lon": 45.5372706}, {"type": "node", "id": 10673358677, "lat": 40.8375443, "lon": 45.5334766}, {"type": "node", "id": 10673358678, "lat": 40.8326601, "lon": 45.5353925}, {"type": "node", "id": 10673358679, "lat": 40.8285611, "lon": 45.5343826}, {"type": "node", "id": 10673358680, "lat": 40.8259402, "lon": 45.532882}, {"type": "node", "id": 10673358681, "lat": 40.8218837, "lon": 45.5327216}, {"type": "node", "id": 10673358682, "lat": 40.8204195, "lon": 45.5411968}, {"type": "node", "id": 10673358683, "lat": 40.8289608, "lon": 45.521868}, {"type": "node", "id": 10673358684, "lat": 40.8240225, "lon": 45.5209242}, {"type": "node", "id": 10673358685, "lat": 40.8277219, "lon": 45.52729}, {"type": "node", "id": 10673358686, "lat": 40.8247243, "lon": 45.5281513}, {"type": "node", "id": 10902393486, "lat": 40.6534085, "lon": 45.1039088}, {"type": "node", "id": 10902393487, "lat": 40.6543609, "lon": 45.1072776}, {"type": "node", "id": 10902393488, "lat": 40.6535144, "lon": 45.1108932}, {"type": "node", "id": 10926104944, "lat": 40.901558, "lon": 45.1406091}, {"type": "node", "id": 10926123709, "lat": 40.8893247, "lon": 45.1489102}, {"type": "node", "id": 11020134804, "lat": 40.8114208, "lon": 45.4660738, "tags": {"name": "\u0544\u0565\u0570\u0580\u0561\u0562", "name:en": "Mehrab", "name:hy": "\u0544\u0565\u0570\u0580\u0561\u0562", "name:ru": "\u041c\u0435\u0445\u0440\u0430\u0431", "place": "village"}}, {"type": "node", "id": 11051265290, "lat": 40.7220376, "lon": 45.087348}, {"type": "node", "id": 11051265292, "lat": 40.7203575, "lon": 45.092099}, {"type": "node", "id": 11051265293, "lat": 40.7204633, "lon": 45.0919595}, {"type": "node", "id": 11051265294, "lat": 40.7205324, "lon": 45.0919059}, {"type": "node", "id": 11051265295, "lat": 40.7206015, "lon": 45.0918254}, {"type": "node", "id": 11051265296, "lat": 40.7206909, "lon": 45.091643}, {"type": "node", "id": 11051265297, "lat": 40.720821, "lon": 45.0913641}, {"type": "node", "id": 11051265298, "lat": 40.7207682, "lon": 45.0914553}, {"type": "node", "id": 11051265299, "lat": 40.7208576, "lon": 45.0912782}, {"type": "node", "id": 11051265300, "lat": 40.7208942, "lon": 45.0911656}, {"type": "node", "id": 11051265301, "lat": 40.7209186, "lon": 45.0910583}, {"type": "node", "id": 11051265303, "lat": 40.7218263, "lon": 45.0881106}, {"type": "node", "id": 11051265304, "lat": 40.7219463, "lon": 45.0877605}, {"type": "node", "id": 11051265305, "lat": 40.7221149, "lon": 45.0870176}, {"type": "node", "id": 11051265306, "lat": 40.7222054, "lon": 45.0867668}, {"type": "node", "id": 11051265307, "lat": 40.7222502, "lon": 45.0865656}, {"type": "node", "id": 11051265308, "lat": 40.7222908, "lon": 45.0862572}, {"type": "node", "id": 11051265309, "lat": 40.7223416, "lon": 45.086048}, {"type": "node", "id": 11051265319, "lat": 40.7243242, "lon": 45.0758843}, {"type": "node", "id": 11051265329, "lat": 40.5816888, "lon": 45.3469598}, {"type": "node", "id": 11054225370, "lat": 40.7225757, "lon": 45.0848602}, {"type": "node", "id": 11054225371, "lat": 40.7225824, "lon": 45.0847371}, {"type": "node", "id": 11054225372, "lat": 40.7226228, "lon": 45.0845823}, {"type": "node", "id": 11054225373, "lat": 40.7227372, "lon": 45.0842818}, {"type": "node", "id": 11054225374, "lat": 40.7227261, "lon": 45.0844246}, {"type": "node", "id": 11154326560, "lat": 40.8827074, "lon": 45.1339294}, {"type": "node", "id": 11154326567, "lat": 40.8816382, "lon": 45.1343989}, {"type": "node", "id": 11357608687, "lat": 40.8989013, "lon": 45.1310576}, {"type": "node", "id": 11422269250, "lat": 40.7246455, "lon": 45.0748682}, {"type": "node", "id": 11422269251, "lat": 40.7257412, "lon": 45.0748071}, {"type": "node", "id": 11422269252, "lat": 40.7260254, "lon": 45.0733642}, {"type": "node", "id": 11422269253, "lat": 40.7249018, "lon": 45.0735511}, {"type": "node", "id": 11422269254, "lat": 40.7259298, "lon": 45.0718126}, {"type": "node", "id": 11422269255, "lat": 40.7244591, "lon": 45.0721311}, {"type": "node", "id": 11422269256, "lat": 40.7245683, "lon": 45.0703625}, {"type": "node", "id": 11422269257, "lat": 40.7258995, "lon": 45.06975}, {"type": "node", "id": 11422269258, "lat": 40.7266356, "lon": 45.0704809}, {"type": "node", "id": 11422269259, "lat": 40.7251472, "lon": 45.0685006}, {"type": "node", "id": 11422269260, "lat": 40.7244404, "lon": 45.0688808}, {"type": "node", "id": 11422269261, "lat": 40.724455, "lon": 45.0673067}, {"type": "node", "id": 11422269262, "lat": 40.7240601, "lon": 45.0671317}, {"type": "node", "id": 11422269263, "lat": 40.7242765, "lon": 45.0662322}, {"type": "node", "id": 11422269264, "lat": 40.7232766, "lon": 45.0660418}, {"type": "node", "id": 11422269265, "lat": 40.723492, "lon": 45.0647387}, {"type": "node", "id": 11422269266, "lat": 40.7225278, "lon": 45.0650827}, {"type": "node", "id": 11422269267, "lat": 40.7229286, "lon": 45.0636017}, {"type": "node", "id": 11422269268, "lat": 40.7213839, "lon": 45.0628652}, {"type": "node", "id": 11422269269, "lat": 40.7230886, "lon": 45.0628723}, {"type": "node", "id": 11422269270, "lat": 40.7221549, "lon": 45.0616349}, {"type": "node", "id": 11422269282, "lat": 40.6843023, "lon": 45.1583114}, {"type": "node", "id": 11422269283, "lat": 40.6858082, "lon": 45.1578756}, {"type": "node", "id": 11533863598, "lat": 40.5822453, "lon": 45.3477619}, {"type": "node", "id": 11533863599, "lat": 40.5812549, "lon": 45.3461505}, {"type": "node", "id": 11533863600, "lat": 40.5804003, "lon": 45.3467783}, {"type": "node", "id": 11533863601, "lat": 40.5809397, "lon": 45.3477332}, {"type": "node", "id": 11900555868, "lat": 40.86896, "lon": 45.1377914}, {"type": "node", "id": 12178839102, "lat": 40.7167289, "lon": 45.5363989}, {"type": "node", "id": 12178839103, "lat": 40.717355, "lon": 45.5369568}, {"type": "node", "id": 12178839104, "lat": 40.7171273, "lon": 45.5375576}, {"type": "node", "id": 12178839105, "lat": 40.7165256, "lon": 45.5371177}, {"type": "node", "id": 12178839106, "lat": 40.7158343, "lon": 45.5385017}, {"type": "node", "id": 12178839107, "lat": 40.7143706, "lon": 45.5411732}, {"type": "node", "id": 12178839108, "lat": 40.7139965, "lon": 45.5409801}, {"type": "node", "id": 12178839109, "lat": 40.7130776, "lon": 45.543158}, {"type": "node", "id": 12178839110, "lat": 40.7131995, "lon": 45.5441666}, {"type": "node", "id": 12178839111, "lat": 40.7127523, "lon": 45.5443919}, {"type": "node", "id": 12178839112, "lat": 40.7128824, "lon": 45.5461407}, {"type": "node", "id": 12178839113, "lat": 40.7119472, "lon": 45.5463016}, {"type": "node", "id": 12178839114, "lat": 40.7120122, "lon": 45.5477393}, {"type": "node", "id": 12178839115, "lat": 40.7116544, "lon": 45.5482113}, {"type": "node", "id": 12178839116, "lat": 40.7121423, "lon": 45.5503142}, {"type": "node", "id": 12178839117, "lat": 40.711695, "lon": 45.5516446}, {"type": "node", "id": 12178839118, "lat": 40.711939, "lon": 45.5518591}, {"type": "node", "id": 12178839119, "lat": 40.7115649, "lon": 45.5525243}, {"type": "node", "id": 12178839120, "lat": 40.7116137, "lon": 45.5531868}, {"type": "node", "id": 12178839121, "lat": 40.7115283, "lon": 45.5533209}, {"type": "node", "id": 12178839122, "lat": 40.7114795, "lon": 45.5535436}, {"type": "node", "id": 12178839123, "lat": 40.7114673, "lon": 45.5537018}, {"type": "node", "id": 12178839124, "lat": 40.7115365, "lon": 45.5540344}, {"type": "node", "id": 12178839125, "lat": 40.7116361, "lon": 45.5543509}, {"type": "node", "id": 12178839126, "lat": 40.7118008, "lon": 45.5546942}, {"type": "node", "id": 12178839127, "lat": 40.7118882, "lon": 45.5548418}, {"type": "node", "id": 12178839128, "lat": 40.7120447, "lon": 45.5550268}, {"type": "node", "id": 12178839129, "lat": 40.7128315, "lon": 45.5556786}, {"type": "node", "id": 12178839130, "lat": 40.7130491, "lon": 45.5558395}, {"type": "node", "id": 12178839131, "lat": 40.7133215, "lon": 45.5561104}, {"type": "node", "id": 12178839132, "lat": 40.7140351, "lon": 45.5568185}, {"type": "node", "id": 12178839133, "lat": 40.7135695, "lon": 45.5577654}, {"type": "node", "id": 12178839134, "lat": 40.7125733, "lon": 45.5567729}, {"type": "node", "id": 12178839135, "lat": 40.7125083, "lon": 45.5563492}, {"type": "node", "id": 12178839136, "lat": 40.7109712, "lon": 45.5548042}, {"type": "node", "id": 12178839137, "lat": 40.710158, "lon": 45.5545467}, {"type": "node", "id": 12178839138, "lat": 40.7100726, "lon": 45.5542356}, {"type": "node", "id": 12178839139, "lat": 40.7108127, "lon": 45.5537474}, {"type": "node", "id": 12178839140, "lat": 40.7108899, "lon": 45.5518055}, {"type": "node", "id": 12178839141, "lat": 40.709605, "lon": 45.5492735}, {"type": "node", "id": 12178839142, "lat": 40.7090519, "lon": 45.5496812}, {"type": "node", "id": 12178839143, "lat": 40.7095318, "lon": 45.5504751}, {"type": "node", "id": 12178839146, "lat": 40.7096538, "lon": 45.5519611}, {"type": "node", "id": 12178839147, "lat": 40.7089381, "lon": 45.5529159}, {"type": "node", "id": 12178839148, "lat": 40.7086758, "lon": 45.552696}, {"type": "node", "id": 12178839149, "lat": 40.7083606, "lon": 45.5532861}, {"type": "node", "id": 12178839150, "lat": 40.7075433, "lon": 45.5545306}, {"type": "node", "id": 12178839151, "lat": 40.7072098, "lon": 45.5542088}, {"type": "node", "id": 12178839152, "lat": 40.7079865, "lon": 45.5529803}, {"type": "node", "id": 12178839153, "lat": 40.7073522, "lon": 45.5523473}, {"type": "node", "id": 12178839154, "lat": 40.7064372, "lon": 45.5537152}, {"type": "node", "id": 12178839155, "lat": 40.7069089, "lon": 45.5542463}, {"type": "node", "id": 12178839156, "lat": 40.7065917, "lon": 45.5547291}, {"type": "node", "id": 12178839157, "lat": 40.7059411, "lon": 45.5540264}, {"type": "node", "id": 12178839158, "lat": 40.7054287, "lon": 45.5548578}, {"type": "node", "id": 12178839159, "lat": 40.7050789, "lon": 45.5559307}, {"type": "node", "id": 12178839160, "lat": 40.7054246, "lon": 45.5561882}, {"type": "node", "id": 12178839162, "lat": 40.7047984, "lon": 45.5579504}, {"type": "node", "id": 12178839163, "lat": 40.7043063, "lon": 45.557591}, {"type": "node", "id": 12178839164, "lat": 40.7040521, "lon": 45.55776}, {"type": "node", "id": 12178839165, "lat": 40.7025982, "lon": 45.5565477}, {"type": "node", "id": 12178839166, "lat": 40.700756, "lon": 45.5553567}, {"type": "node", "id": 12178839167, "lat": 40.700634, "lon": 45.5544126}, {"type": "node", "id": 12178839168, "lat": 40.7017158, "lon": 45.5541551}, {"type": "node", "id": 12178839169, "lat": 40.7018459, "lon": 45.5546486}, {"type": "node", "id": 12178839170, "lat": 40.7029521, "lon": 45.5541336}, {"type": "node", "id": 12178839171, "lat": 40.7037979, "lon": 45.5520308}, {"type": "node", "id": 12178839172, "lat": 40.7042453, "lon": 45.5523741}, {"type": "node", "id": 12178839173, "lat": 40.7060102, "lon": 45.5502176}, {"type": "node", "id": 12178839174, "lat": 40.7062623, "lon": 45.5503571}, {"type": "node", "id": 12178839175, "lat": 40.7064738, "lon": 45.54937}, {"type": "node", "id": 12178839176, "lat": 40.7054409, "lon": 45.5491018}, {"type": "node", "id": 12178839177, "lat": 40.7055547, "lon": 45.5481577}, {"type": "node", "id": 12178839178, "lat": 40.703985, "lon": 45.5480504}, {"type": "node", "id": 12178839179, "lat": 40.7034645, "lon": 45.547353}, {"type": "node", "id": 12178839180, "lat": 40.7035783, "lon": 45.5461943}, {"type": "node", "id": 12178839181, "lat": 40.7023095, "lon": 45.5453145}, {"type": "node", "id": 12178839182, "lat": 40.7024315, "lon": 45.5444348}, {"type": "node", "id": 12178839183, "lat": 40.700512, "lon": 45.5426109}, {"type": "node", "id": 12178839184, "lat": 40.7001622, "lon": 45.5430508}, {"type": "node", "id": 12178839185, "lat": 40.6995359, "lon": 45.5427182}, {"type": "node", "id": 12178839186, "lat": 40.6998043, "lon": 45.5419564}, {"type": "node", "id": 12178839187, "lat": 40.6995196, "lon": 45.5415702}, {"type": "node", "id": 12178839188, "lat": 40.6998857, "lon": 45.5408406}, {"type": "node", "id": 12178839189, "lat": 40.7022851, "lon": 45.5432224}, {"type": "node", "id": 12178839190, "lat": 40.704473, "lon": 45.5448425}, {"type": "node", "id": 12178839191, "lat": 40.704961, "lon": 45.5439091}, {"type": "node", "id": 12178839192, "lat": 40.7058475, "lon": 45.5445206}, {"type": "node", "id": 12178839193, "lat": 40.7078442, "lon": 45.5440485}, {"type": "node", "id": 12178839194, "lat": 40.7087144, "lon": 45.5434853}, {"type": "node", "id": 12178839195, "lat": 40.7091983, "lon": 45.5438501}, {"type": "node", "id": 12178839196, "lat": 40.7099059, "lon": 45.5436891}, {"type": "node", "id": 12178839197, "lat": 40.7099343, "lon": 45.5417472}, {"type": "node", "id": 12178839198, "lat": 40.7092797, "lon": 45.5405402}, {"type": "node", "id": 12178839199, "lat": 40.7096253, "lon": 45.5401111}, {"type": "node", "id": 12178839200, "lat": 40.710585, "lon": 45.5414307}, {"type": "node", "id": 12178839201, "lat": 40.7112559, "lon": 45.5412751}, {"type": "node", "id": 12178839202, "lat": 40.7113047, "lon": 45.5396229}, {"type": "node", "id": 12178839203, "lat": 40.7127035, "lon": 45.5390704}, {"type": "node", "id": 12178839204, "lat": 40.7130653, "lon": 45.5386949}, {"type": "node", "id": 12178839205, "lat": 40.714334, "lon": 45.5358571}, {"type": "node", "id": 12178839206, "lat": 40.7130897, "lon": 45.5344784}, {"type": "node", "id": 12178839207, "lat": 40.7131589, "lon": 45.5338508}, {"type": "node", "id": 12178839208, "lat": 40.713781, "lon": 45.5338937}, {"type": "node", "id": 12178839209, "lat": 40.7149195, "lon": 45.5353582}, {"type": "node", "id": 12178839210, "lat": 40.7152041, "lon": 45.5350149}, {"type": "node", "id": 12178839211, "lat": 40.7158709, "lon": 45.5357069}, {"type": "node", "id": 12178839212, "lat": 40.7161962, "lon": 45.5351758}, {"type": "node", "id": 12178839213, "lat": 40.7168061, "lon": 45.5357605}, {"type": "node", "id": 12178847899, "lat": 40.702033, "lon": 45.5552602}, {"type": "node", "id": 12202517321, "lat": 40.6931586, "lon": 45.4240358}, {"type": "node", "id": 12202517322, "lat": 40.6936466, "lon": 45.4242504}, {"type": "node", "id": 12202517323, "lat": 40.69276, "lon": 45.4274475}, {"type": "node", "id": 12202517324, "lat": 40.692337, "lon": 45.4272544}, {"type": "node", "id": 12202517325, "lat": 40.691857, "lon": 45.4281127}, {"type": "node", "id": 12202517326, "lat": 40.6909947, "lon": 45.4273724}, {"type": "node", "id": 12202517327, "lat": 40.6914909, "lon": 45.4262888}, {"type": "node", "id": 12202517328, "lat": 40.6914747, "lon": 45.4251945}, {"type": "node", "id": 12202517329, "lat": 40.6898802, "lon": 45.4252106}, {"type": "node", "id": 12202517330, "lat": 40.6890423, "lon": 45.4255056}, {"type": "node", "id": 12202517331, "lat": 40.688904, "lon": 45.4249585}, {"type": "node", "id": 12202517332, "lat": 40.6881311, "lon": 45.4250711}, {"type": "node", "id": 12202517333, "lat": 40.6882084, "lon": 45.4257363}, {"type": "node", "id": 12202517334, "lat": 40.6876023, "lon": 45.4261011}, {"type": "node", "id": 12202517335, "lat": 40.6870328, "lon": 45.4249102}, {"type": "node", "id": 12202517336, "lat": 40.6857474, "lon": 45.4257417}, {"type": "node", "id": 12202517337, "lat": 40.6859386, "lon": 45.4271364}, {"type": "node", "id": 12202517338, "lat": 40.6864674, "lon": 45.4277319}, {"type": "node", "id": 12202517339, "lat": 40.686866, "lon": 45.4286921}, {"type": "node", "id": 12202517340, "lat": 40.687285, "lon": 45.4290515}, {"type": "node", "id": 12202517341, "lat": 40.6869921, "lon": 45.4301298}, {"type": "node", "id": 12202517342, "lat": 40.6878382, "lon": 45.4319483}, {"type": "node", "id": 12202517343, "lat": 40.687403, "lon": 45.4325062}, {"type": "node", "id": 12202517344, "lat": 40.6876308, "lon": 45.4331338}, {"type": "node", "id": 12202517345, "lat": 40.6890097, "lon": 45.4341638}, {"type": "node", "id": 12202517346, "lat": 40.6893961, "lon": 45.4335844}, {"type": "node", "id": 12202517347, "lat": 40.6903073, "lon": 45.4345661}, {"type": "node", "id": 12202517348, "lat": 40.6905493, "lon": 45.4344884}, {"type": "node", "id": 12202517349, "lat": 40.6905981, "lon": 45.4343837}, {"type": "node", "id": 12202517350, "lat": 40.6906184, "lon": 45.434263}, {"type": "node", "id": 12202517351, "lat": 40.6908218, "lon": 45.4337749}, {"type": "node", "id": 12202517352, "lat": 40.6916455, "lon": 45.4340726}, {"type": "node", "id": 12202517353, "lat": 40.6921783, "lon": 45.4328173}, {"type": "node", "id": 12202517354, "lat": 40.6926705, "lon": 45.4318947}, {"type": "node", "id": 12202517355, "lat": 40.6933335, "lon": 45.4313368}, {"type": "node", "id": 12202517356, "lat": 40.6939395, "lon": 45.4316747}, {"type": "node", "id": 12202517357, "lat": 40.6947774, "lon": 45.4296684}, {"type": "node", "id": 12202517358, "lat": 40.6944032, "lon": 45.4293573}, {"type": "node", "id": 12202517359, "lat": 40.6948424, "lon": 45.4273188}, {"type": "node", "id": 12202517360, "lat": 40.6953468, "lon": 45.4275226}, {"type": "node", "id": 12202517361, "lat": 40.6959691, "lon": 45.4261064}, {"type": "node", "id": 12202517362, "lat": 40.6968394, "lon": 45.426144}, {"type": "node", "id": 12202517363, "lat": 40.6969086, "lon": 45.4255271}, {"type": "node", "id": 12202517364, "lat": 40.696453, "lon": 45.4252803}, {"type": "node", "id": 12202517365, "lat": 40.6966564, "lon": 45.421257}, {"type": "node", "id": 12202517366, "lat": 40.6978115, "lon": 45.420624}, {"type": "node", "id": 12202517367, "lat": 40.6984663, "lon": 45.4224747}, {"type": "node", "id": 12202517368, "lat": 40.6988486, "lon": 45.4221475}, {"type": "node", "id": 12202517369, "lat": 40.6992431, "lon": 45.4221904}, {"type": "node", "id": 12202517370, "lat": 40.7002761, "lon": 45.4211873}, {"type": "node", "id": 12202517371, "lat": 40.7001378, "lon": 45.4206508}, {"type": "node", "id": 12202517372, "lat": 40.700943, "lon": 45.4195833}, {"type": "node", "id": 12202517373, "lat": 40.7015449, "lon": 45.4194707}, {"type": "node", "id": 12202517374, "lat": 40.7016995, "lon": 45.4190522}, {"type": "node", "id": 12202517375, "lat": 40.7014229, "lon": 45.4175556}, {"type": "node", "id": 12202517376, "lat": 40.7009268, "lon": 45.4173195}, {"type": "node", "id": 12202517377, "lat": 40.6996091, "lon": 45.4183924}, {"type": "node", "id": 12202517378, "lat": 40.6988445, "lon": 45.4176628}, {"type": "node", "id": 12202517379, "lat": 40.6980718, "lon": 45.4182422}, {"type": "node", "id": 12202517380, "lat": 40.6983158, "lon": 45.4191971}, {"type": "node", "id": 12202517381, "lat": 40.6971119, "lon": 45.4197657}, {"type": "node", "id": 12202517382, "lat": 40.6912875, "lon": 45.4080766}, {"type": "node", "id": 12202517383, "lat": 40.6931301, "lon": 45.4116869}, {"type": "node", "id": 12202517384, "lat": 40.6926217, "lon": 45.4121965}, {"type": "node", "id": 12202517385, "lat": 40.6929593, "lon": 45.4130763}, {"type": "node", "id": 12202517386, "lat": 40.6940005, "lon": 45.4124111}, {"type": "node", "id": 12202517387, "lat": 40.6950051, "lon": 45.4129744}, {"type": "node", "id": 12202517388, "lat": 40.6948506, "lon": 45.4148573}, {"type": "node", "id": 12202517389, "lat": 40.6952288, "lon": 45.4149002}, {"type": "node", "id": 12202517390, "lat": 40.6953874, "lon": 45.4136771}, {"type": "node", "id": 12202517391, "lat": 40.6963107, "lon": 45.4135162}, {"type": "node", "id": 12202517392, "lat": 40.6965507, "lon": 45.4125988}, {"type": "node", "id": 12202517393, "lat": 40.6969574, "lon": 45.4128134}, {"type": "node", "id": 12202517394, "lat": 40.696087, "lon": 45.4161286}, {"type": "node", "id": 12202517395, "lat": 40.6950051, "lon": 45.4173517}, {"type": "node", "id": 12202517396, "lat": 40.6948262, "lon": 45.4197228}, {"type": "node", "id": 12202517397, "lat": 40.6934758, "lon": 45.4201412}, {"type": "node", "id": 12202517398, "lat": 40.6933863, "lon": 45.4184675}, {"type": "node", "id": 12202517399, "lat": 40.6919465, "lon": 45.4143798}, {"type": "node", "id": 12202517400, "lat": 40.6901242, "lon": 45.4112792}, {"type": "node", "id": 12202517401, "lat": 40.68975, "lon": 45.4070949}, {"type": "node", "id": 12202517402, "lat": 40.6903764, "lon": 45.4060435}, {"type": "node", "id": 12202517403, "lat": 40.6914625, "lon": 45.4064727}, {"type": "node", "id": 12202521803, "lat": 40.6901405, "lon": 45.434373}, {"type": "node", "id": 12202521804, "lat": 40.6894572, "lon": 45.4351562}, {"type": "node", "id": 12202521805, "lat": 40.6893189, "lon": 45.4353064}, {"type": "node", "id": 12202521806, "lat": 40.6892009, "lon": 45.4356497}, {"type": "node", "id": 12202521807, "lat": 40.6887168, "lon": 45.4371679}, {"type": "node", "id": 12202521808, "lat": 40.6877528, "lon": 45.4392654}, {"type": "node", "id": 12202521809, "lat": 40.6871915, "lon": 45.4392117}, {"type": "node", "id": 12202521810, "lat": 40.6858816, "lon": 45.4399842}, {"type": "node", "id": 12202521811, "lat": 40.6854952, "lon": 45.4408103}, {"type": "node", "id": 12202521812, "lat": 40.6837379, "lon": 45.4423928}, {"type": "node", "id": 12202521813, "lat": 40.6839535, "lon": 45.442881}, {"type": "node", "id": 12202521814, "lat": 40.6852633, "lon": 45.44213}, {"type": "node", "id": 12202521815, "lat": 40.6855115, "lon": 45.4427844}, {"type": "node", "id": 12202521816, "lat": 40.6860281, "lon": 45.4429775}, {"type": "node", "id": 12202521817, "lat": 40.6871549, "lon": 45.4410893}, {"type": "node", "id": 12202521818, "lat": 40.6879318, "lon": 45.4414701}, {"type": "node", "id": 12202521819, "lat": 40.6890219, "lon": 45.4383856}, {"type": "node", "id": 12202521820, "lat": 40.6887657, "lon": 45.438053}, {"type": "node", "id": 12202521821, "lat": 40.6889853, "lon": 45.4375541}, {"type": "node", "id": 12202521822, "lat": 40.6894755, "lon": 45.4356685}, {"type": "node", "id": 12202521823, "lat": 40.6895304, "lon": 45.4354888}, {"type": "node", "id": 12202521824, "lat": 40.6896158, "lon": 45.4353198}, {"type": "node", "id": 12202521825, "lat": 40.6900327, "lon": 45.4347485}, {"type": "node", "id": 12202521826, "lat": 40.6901283, "lon": 45.434652}, {"type": "node", "id": 12251222610, "lat": 40.5621096, "lon": 45.5179185}, {"type": "node", "id": 12251222611, "lat": 40.5615879, "lon": 45.5180633}, {"type": "node", "id": 12251222612, "lat": 40.5610418, "lon": 45.5232561}, {"type": "node", "id": 12251222613, "lat": 40.5601126, "lon": 45.5276871}, {"type": "node", "id": 12251222614, "lat": 40.5595828, "lon": 45.5337596}, {"type": "node", "id": 12251222615, "lat": 40.5591182, "lon": 45.5384052}, {"type": "node", "id": 12251222616, "lat": 40.5591997, "lon": 45.5432117}, {"type": "node", "id": 12251222617, "lat": 40.5646688, "lon": 45.5427879}, {"type": "node", "id": 12251222618, "lat": 40.5647707, "lon": 45.5453199}, {"type": "node", "id": 12251222619, "lat": 40.5666779, "lon": 45.5460226}, {"type": "node", "id": 12251222620, "lat": 40.5666004, "lon": 45.54856}, {"type": "node", "id": 12251222621, "lat": 40.5654105, "lon": 45.5490643}, {"type": "node", "id": 12251222622, "lat": 40.5655328, "lon": 45.5499709}, {"type": "node", "id": 12251222623, "lat": 40.5644121, "lon": 45.5504107}, {"type": "node", "id": 12251222624, "lat": 40.5638986, "lon": 45.5523795}, {"type": "node", "id": 12251222625, "lat": 40.5641156, "lon": 45.552649}, {"type": "node", "id": 12251222626, "lat": 40.5637845, "lon": 45.5532566}, {"type": "node", "id": 12251222627, "lat": 40.5636235, "lon": 45.5535583}, {"type": "node", "id": 12251222628, "lat": 40.5634768, "lon": 45.5539365}, {"type": "node", "id": 12251222629, "lat": 40.5634218, "lon": 45.5540143}, {"type": "node", "id": 12251222630, "lat": 40.5634463, "lon": 45.5541176}, {"type": "node", "id": 12251222631, "lat": 40.5635216, "lon": 45.5541457}, {"type": "node", "id": 12251222632, "lat": 40.5646057, "lon": 45.5550885}, {"type": "node", "id": 12251222633, "lat": 40.5647911, "lon": 45.5552682}, {"type": "node", "id": 12251222634, "lat": 40.5649154, "lon": 45.5554372}, {"type": "node", "id": 12251222635, "lat": 40.5657691, "lon": 45.557068}, {"type": "node", "id": 12251222636, "lat": 40.5653453, "lon": 45.5575508}, {"type": "node", "id": 12251222637, "lat": 40.5648481, "lon": 45.5567461}, {"type": "node", "id": 12251222638, "lat": 40.5632588, "lon": 45.5555177}, {"type": "node", "id": 12251222639, "lat": 40.5615023, "lon": 45.5552173}, {"type": "node", "id": 12251222640, "lat": 40.559595, "lon": 45.5571377}, {"type": "node", "id": 12251222641, "lat": 40.5587188, "lon": 45.5641276}, {"type": "node", "id": 12251222642, "lat": 40.5594157, "lon": 45.5645191}, {"type": "node", "id": 12251222644, "lat": 40.5584539, "lon": 45.5720669}, {"type": "node", "id": 12251222645, "lat": 40.5575613, "lon": 45.5721152}, {"type": "node", "id": 12251222646, "lat": 40.557602, "lon": 45.5748028}, {"type": "node", "id": 12251222647, "lat": 40.5597458, "lon": 45.5776834}, {"type": "node", "id": 12251222648, "lat": 40.5592282, "lon": 45.5783004}, {"type": "node", "id": 12251222649, "lat": 40.5589388, "lon": 45.5779463}, {"type": "node", "id": 12251222650, "lat": 40.5563345, "lon": 45.5774152}, {"type": "node", "id": 12251222651, "lat": 40.5555438, "lon": 45.5764443}, {"type": "node", "id": 12251222652, "lat": 40.555389, "lon": 45.5760419}, {"type": "node", "id": 12251222653, "lat": 40.5552708, "lon": 45.5751407}, {"type": "node", "id": 12251222654, "lat": 40.5562082, "lon": 45.5751246}, {"type": "node", "id": 12251222655, "lat": 40.5567584, "lon": 45.5673087}, {"type": "node", "id": 12251222656, "lat": 40.5575287, "lon": 45.5674508}, {"type": "node", "id": 12251222657, "lat": 40.5576061, "lon": 45.5670646}, {"type": "node", "id": 12251222658, "lat": 40.5576448, "lon": 45.5666676}, {"type": "node", "id": 12251222659, "lat": 40.5576571, "lon": 45.5658495}, {"type": "node", "id": 12251222660, "lat": 40.5576734, "lon": 45.565238}, {"type": "node", "id": 12251222661, "lat": 40.5577162, "lon": 45.5649483}, {"type": "node", "id": 12251222662, "lat": 40.5577814, "lon": 45.5648115}, {"type": "node", "id": 12251222663, "lat": 40.5579138, "lon": 45.5647337}, {"type": "node", "id": 12251222664, "lat": 40.5578894, "lon": 45.5642965}, {"type": "node", "id": 12251222665, "lat": 40.5574309, "lon": 45.5639934}, {"type": "node", "id": 12251222666, "lat": 40.5582786, "lon": 45.5572557}, {"type": "node", "id": 12251222667, "lat": 40.5575287, "lon": 45.557009}, {"type": "node", "id": 12251222668, "lat": 40.5573901, "lon": 45.5548847}, {"type": "node", "id": 12251222669, "lat": 40.5584498, "lon": 45.5545092}, {"type": "node", "id": 12251222670, "lat": 40.5576591, "lon": 45.5405617}, {"type": "node", "id": 12251222671, "lat": 40.5581482, "lon": 45.5332982}, {"type": "node", "id": 12251222672, "lat": 40.5589307, "lon": 45.5263567}, {"type": "node", "id": 12251222673, "lat": 40.5600881, "lon": 45.5216896}, {"type": "node", "id": 12251222674, "lat": 40.5606343, "lon": 45.5171084}, {"type": "node", "id": 12251222675, "lat": 40.5620851, "lon": 45.5167973}, {"type": "node", "id": 12251234947, "lat": 40.5375306, "lon": 45.5752802}, {"type": "node", "id": 12251234948, "lat": 40.5376366, "lon": 45.5756771}, {"type": "node", "id": 12251234949, "lat": 40.5380362, "lon": 45.5755591}, {"type": "node", "id": 12251234950, "lat": 40.5388352, "lon": 45.575881}, {"type": "node", "id": 12251234951, "lat": 40.5392755, "lon": 45.5755484}, {"type": "node", "id": 12251234952, "lat": 40.5425858, "lon": 45.5766213}, {"type": "node", "id": 12251234953, "lat": 40.5423819, "lon": 45.5788207}, {"type": "node", "id": 12251234954, "lat": 40.5446077, "lon": 45.5794752}, {"type": "node", "id": 12251234955, "lat": 40.5473633, "lon": 45.5806768}, {"type": "node", "id": 12251234956, "lat": 40.5475997, "lon": 45.5791533}, {"type": "node", "id": 12251234957, "lat": 40.549222, "lon": 45.5795824}, {"type": "node", "id": 12251234958, "lat": 40.5492791, "lon": 45.5790675}, {"type": "node", "id": 12251234959, "lat": 40.5467763, "lon": 45.5783594}, {"type": "node", "id": 12251234960, "lat": 40.5468823, "lon": 45.5776083}, {"type": "node", "id": 12251234961, "lat": 40.5505427, "lon": 45.5783594}, {"type": "node", "id": 12251234962, "lat": 40.5505835, "lon": 45.5790031}, {"type": "node", "id": 12251234963, "lat": 40.5509503, "lon": 45.579164}, {"type": "node", "id": 12251234964, "lat": 40.5509585, "lon": 45.5824041}, {"type": "node", "id": 12251234965, "lat": 40.5495155, "lon": 45.5827153}, {"type": "node", "id": 12251234966, "lat": 40.5495563, "lon": 45.5840671}, {"type": "node", "id": 12251234967, "lat": 40.5530494, "lon": 45.5849254}, {"type": "node", "id": 12251234968, "lat": 40.5531962, "lon": 45.5841261}, {"type": "node", "id": 12251234969, "lat": 40.5539176, "lon": 45.5843192}, {"type": "node", "id": 12251234970, "lat": 40.5546675, "lon": 45.5836594}, {"type": "node", "id": 12251234971, "lat": 40.5554175, "lon": 45.581857}, {"type": "node", "id": 12251234972, "lat": 40.5559473, "lon": 45.582152}, {"type": "node", "id": 12251234973, "lat": 40.5554664, "lon": 45.5840456}, {"type": "node", "id": 12251234974, "lat": 40.5562489, "lon": 45.5844212}, {"type": "node", "id": 12251234975, "lat": 40.5582705, "lon": 45.5848128}, {"type": "node", "id": 12251234976, "lat": 40.5592282, "lon": 45.5845553}, {"type": "node", "id": 12251234977, "lat": 40.5590978, "lon": 45.5838418}, {"type": "node", "id": 12251234978, "lat": 40.5599577, "lon": 45.5835736}, {"type": "node", "id": 12251234979, "lat": 40.5603653, "lon": 45.5852687}, {"type": "node", "id": 12251234980, "lat": 40.5616613, "lon": 45.585891}, {"type": "node", "id": 12251234981, "lat": 40.5619751, "lon": 45.5881923}, {"type": "node", "id": 12251234982, "lat": 40.5627983, "lon": 45.5879885}, {"type": "node", "id": 12251234983, "lat": 40.5660666, "lon": 45.5891043}, {"type": "node", "id": 12251234984, "lat": 40.5659607, "lon": 45.5897695}, {"type": "node", "id": 12251234985, "lat": 40.5640412, "lon": 45.5898339}, {"type": "node", "id": 12251234986, "lat": 40.5625986, "lon": 45.5893618}, {"type": "node", "id": 12251234987, "lat": 40.562081, "lon": 45.5910301}, {"type": "node", "id": 12251234988, "lat": 40.5619425, "lon": 45.5918187}, {"type": "node", "id": 12251234989, "lat": 40.5618447, "lon": 45.5921137}, {"type": "node", "id": 12251234990, "lat": 40.5616694, "lon": 45.5921459}, {"type": "node", "id": 12251234991, "lat": 40.5612945, "lon": 45.5921406}, {"type": "node", "id": 12251234992, "lat": 40.5610092, "lon": 45.5919689}, {"type": "node", "id": 12251234993, "lat": 40.5601289, "lon": 45.5916631}, {"type": "node", "id": 12251234994, "lat": 40.5588247, "lon": 45.5917704}, {"type": "node", "id": 12251234995, "lat": 40.5583275, "lon": 45.5897963}, {"type": "node", "id": 12251234996, "lat": 40.5572597, "lon": 45.5901074}, {"type": "node", "id": 12251234997, "lat": 40.5574716, "lon": 45.592103}, {"type": "node", "id": 12251234998, "lat": 40.5568847, "lon": 45.5932832}, {"type": "node", "id": 12251234999, "lat": 40.5561756, "lon": 45.5937981}, {"type": "node", "id": 12251235000, "lat": 40.5522383, "lon": 45.5935728}, {"type": "node", "id": 12251235001, "lat": 40.5492628, "lon": 45.5907082}, {"type": "node", "id": 12251235002, "lat": 40.546972, "lon": 45.5894208}, {"type": "node", "id": 12251235003, "lat": 40.544999, "lon": 45.5871248}, {"type": "node", "id": 12251235004, "lat": 40.5445425, "lon": 45.5874467}, {"type": "node", "id": 12251235005, "lat": 40.5438413, "lon": 45.587039}, {"type": "node", "id": 12251235006, "lat": 40.5432461, "lon": 45.5871999}, {"type": "node", "id": 12251235007, "lat": 40.5404741, "lon": 45.5857408}, {"type": "node", "id": 12251235008, "lat": 40.5387455, "lon": 45.5859017}, {"type": "node", "id": 12251235009, "lat": 40.536487, "lon": 45.5842817}, {"type": "node", "id": 12251235010, "lat": 40.5363076, "lon": 45.583477}, {"type": "node", "id": 12251235011, "lat": 40.5322795, "lon": 45.5806231}, {"type": "node", "id": 12251235012, "lat": 40.5325159, "lon": 45.5800652}, {"type": "node", "id": 12251235013, "lat": 40.5301104, "lon": 45.5779731}, {"type": "node", "id": 12251235014, "lat": 40.5304202, "lon": 45.577383}, {"type": "node", "id": 12251235015, "lat": 40.5325485, "lon": 45.5791962}, {"type": "node", "id": 12251235016, "lat": 40.5331601, "lon": 45.5780053}, {"type": "node", "id": 12251235017, "lat": 40.5354596, "lon": 45.5775761}, {"type": "node", "id": 12251235018, "lat": 40.5357205, "lon": 45.5754304}, {"type": "node", "id": 12251235047, "lat": 40.5549243, "lon": 45.5569071}, {"type": "node", "id": 12251235048, "lat": 40.5550466, "lon": 45.5578619}, {"type": "node", "id": 12251235049, "lat": 40.5554379, "lon": 45.5578136}, {"type": "node", "id": 12251235050, "lat": 40.5559188, "lon": 45.5604905}, {"type": "node", "id": 12251235051, "lat": 40.5567176, "lon": 45.5606407}, {"type": "node", "id": 12251235052, "lat": 40.5562326, "lon": 45.5636823}, {"type": "node", "id": 12251235053, "lat": 40.5550914, "lon": 45.5654097}, {"type": "node", "id": 12251235054, "lat": 40.5549814, "lon": 45.5668688}, {"type": "node", "id": 12251235055, "lat": 40.5529679, "lon": 45.5671316}, {"type": "node", "id": 12251235056, "lat": 40.5523606, "lon": 45.5683601}, {"type": "node", "id": 12251235057, "lat": 40.5534366, "lon": 45.5709994}, {"type": "node", "id": 12251235058, "lat": 40.5526378, "lon": 45.5722761}, {"type": "node", "id": 12251235059, "lat": 40.5538198, "lon": 45.574615}, {"type": "node", "id": 12251235060, "lat": 40.5545779, "lon": 45.5741912}, {"type": "node", "id": 12251235061, "lat": 40.5548876, "lon": 45.5751085}, {"type": "node", "id": 12251235062, "lat": 40.5545901, "lon": 45.5754733}, {"type": "node", "id": 12251235063, "lat": 40.5546798, "lon": 45.5764657}, {"type": "node", "id": 12251235064, "lat": 40.5552096, "lon": 45.5765355}, {"type": "node", "id": 12251235065, "lat": 40.5551526, "lon": 45.5773508}, {"type": "node", "id": 12251235066, "lat": 40.5543863, "lon": 45.5772489}, {"type": "node", "id": 12251235067, "lat": 40.5519775, "lon": 45.57307}, {"type": "node", "id": 12251235068, "lat": 40.551578, "lon": 45.5734563}, {"type": "node", "id": 12251235069, "lat": 40.5507383, "lon": 45.5724585}, {"type": "node", "id": 12251235070, "lat": 40.5510481, "lon": 45.571965}, {"type": "node", "id": 12251235071, "lat": 40.5487207, "lon": 45.5703556}, {"type": "node", "id": 12251235072, "lat": 40.547881, "lon": 45.5722117}, {"type": "node", "id": 12251235073, "lat": 40.5463035, "lon": 45.5741483}, {"type": "node", "id": 12251235074, "lat": 40.5450153, "lon": 45.5740678}, {"type": "node", "id": 12251235075, "lat": 40.5449807, "lon": 45.5734938}, {"type": "node", "id": 12251235076, "lat": 40.5447626, "lon": 45.5735502}, {"type": "node", "id": 12251235077, "lat": 40.5446362, "lon": 45.5735528}, {"type": "node", "id": 12251235078, "lat": 40.5443876, "lon": 45.573467}, {"type": "node", "id": 12251235079, "lat": 40.5440492, "lon": 45.573231}, {"type": "node", "id": 12251235080, "lat": 40.5440574, "lon": 45.5726087}, {"type": "node", "id": 12251235081, "lat": 40.5427855, "lon": 45.5722117}, {"type": "node", "id": 12251235082, "lat": 40.5421669, "lon": 45.5725417}, {"type": "node", "id": 12251235083, "lat": 40.5413832, "lon": 45.5704468}, {"type": "node", "id": 12251235084, "lat": 40.5418153, "lon": 45.570125}, {"type": "node", "id": 12251235085, "lat": 40.541322, "lon": 45.568462}, {"type": "node", "id": 12251235086, "lat": 40.5398829, "lon": 45.5672872}, {"type": "node", "id": 12251235087, "lat": 40.5398055, "lon": 45.5665845}, {"type": "node", "id": 12251235088, "lat": 40.5403925, "lon": 45.5658281}, {"type": "node", "id": 12251235089, "lat": 40.539406, "lon": 45.5642778}, {"type": "node", "id": 12251235090, "lat": 40.5404741, "lon": 45.5632746}, {"type": "node", "id": 12251235091, "lat": 40.539406, "lon": 45.5615151}, {"type": "node", "id": 12251235092, "lat": 40.5382563, "lon": 45.5573308}, {"type": "node", "id": 12251235093, "lat": 40.5373186, "lon": 45.5490053}, {"type": "node", "id": 12251235094, "lat": 40.537975, "lon": 45.5488658}, {"type": "node", "id": 12251235095, "lat": 40.5387578, "lon": 45.5548525}, {"type": "node", "id": 12251235096, "lat": 40.5391124, "lon": 45.554831}, {"type": "node", "id": 12251235102, "lat": 40.5397183, "lon": 45.5584795}, {"type": "node", "id": 12251235103, "lat": 40.5397851, "lon": 45.5600077}, {"type": "node", "id": 12251235104, "lat": 40.5419009, "lon": 45.563575}, {"type": "node", "id": 12251235105, "lat": 40.5436049, "lon": 45.5667883}, {"type": "node", "id": 12251235106, "lat": 40.5452884, "lon": 45.5685747}, {"type": "node", "id": 12251235107, "lat": 40.5473511, "lon": 45.5685532}, {"type": "node", "id": 12251235108, "lat": 40.5473266, "lon": 45.5669063}, {"type": "node", "id": 12251235109, "lat": 40.5459733, "lon": 45.5657476}, {"type": "node", "id": 12251235110, "lat": 40.5462729, "lon": 45.5651039}, {"type": "node", "id": 12251235111, "lat": 40.5463605, "lon": 45.5650315}, {"type": "node", "id": 12251235112, "lat": 40.5464339, "lon": 45.5650234}, {"type": "node", "id": 12251235117, "lat": 40.5465236, "lon": 45.56512}, {"type": "node", "id": 12251235118, "lat": 40.5476201, "lon": 45.5639827}, {"type": "node", "id": 12251235119, "lat": 40.5487207, "lon": 45.5652863}, {"type": "node", "id": 12251235120, "lat": 40.5491976, "lon": 45.5648947}, {"type": "node", "id": 12251235121, "lat": 40.5487044, "lon": 45.5634677}, {"type": "node", "id": 12251235122, "lat": 40.5490468, "lon": 45.5631995}, {"type": "node", "id": 12251235123, "lat": 40.5494095, "lon": 45.5635428}, {"type": "node", "id": 12251235124, "lat": 40.54965, "lon": 45.5629045}, {"type": "node", "id": 12251235125, "lat": 40.5490753, "lon": 45.5622929}, {"type": "node", "id": 12251235126, "lat": 40.5495807, "lon": 45.561263}, {"type": "node", "id": 12251235127, "lat": 40.5500393, "lon": 45.5616572}, {"type": "node", "id": 12251235128, "lat": 40.5503593, "lon": 45.5611771}, {"type": "node", "id": 12251235129, "lat": 40.5507118, "lon": 45.5615446}, {"type": "node", "id": 12251235130, "lat": 40.5504836, "lon": 45.5620328}, {"type": "node", "id": 12251235131, "lat": 40.550718, "lon": 45.5622661}, {"type": "node", "id": 12251235132, "lat": 40.5509442, "lon": 45.5625129}, {"type": "node", "id": 12251235133, "lat": 40.5511072, "lon": 45.5626953}, {"type": "node", "id": 12251235134, "lat": 40.5514802, "lon": 45.5632478}, {"type": "node", "id": 12251235135, "lat": 40.5520467, "lon": 45.562368}, {"type": "node", "id": 12251235136, "lat": 40.5524462, "lon": 45.5628642}, {"type": "node", "id": 12251235137, "lat": 40.5518185, "lon": 45.5639291}, {"type": "node", "id": 12251235138, "lat": 40.5519693, "lon": 45.5640873}, {"type": "node", "id": 12251235139, "lat": 40.5521201, "lon": 45.5641651}, {"type": "node", "id": 12251235140, "lat": 40.5523015, "lon": 45.5642268}, {"type": "node", "id": 12251235141, "lat": 40.5525481, "lon": 45.5642402}, {"type": "node", "id": 12251235142, "lat": 40.5525848, "lon": 45.5646855}, {"type": "node", "id": 12251235143, "lat": 40.5531106, "lon": 45.5646372}, {"type": "node", "id": 12251235144, "lat": 40.5533225, "lon": 45.566327}, {"type": "node", "id": 12251235145, "lat": 40.5542763, "lon": 45.5662519}, {"type": "node", "id": 12251235146, "lat": 40.5541988, "lon": 45.5647793}, {"type": "node", "id": 12251235147, "lat": 40.5543598, "lon": 45.5647176}, {"type": "node", "id": 12251235148, "lat": 40.5547185, "lon": 45.5643529}, {"type": "node", "id": 12251235149, "lat": 40.5548591, "lon": 45.5642188}, {"type": "node", "id": 12251235150, "lat": 40.5547918, "lon": 45.5639103}, {"type": "node", "id": 12251235151, "lat": 40.5548876, "lon": 45.562647}, {"type": "node", "id": 12251235152, "lat": 40.5545086, "lon": 45.5625021}, {"type": "node", "id": 12251235153, "lat": 40.5548387, "lon": 45.5605441}, {"type": "node", "id": 12251235154, "lat": 40.5544474, "lon": 45.5597609}, {"type": "node", "id": 12251235155, "lat": 40.5541091, "lon": 45.5576205}, {"type": "node", "id": 12251235156, "lat": 40.5535589, "lon": 45.557701}, {"type": "node", "id": 12251235157, "lat": 40.553404, "lon": 45.55695}, {"type": "node", "id": 12251235158, "lat": 40.5542559, "lon": 45.5562687}, {"type": "node", "id": 12251235159, "lat": 40.5540276, "lon": 45.555405}, {"type": "node", "id": 12251235160, "lat": 40.5545127, "lon": 45.5552173}, {"type": "node", "id": 12251235161, "lat": 40.5547613, "lon": 45.5560487}, {"type": "node", "id": 12251235162, "lat": 40.5551852, "lon": 45.555861}, {"type": "node", "id": 12251235163, "lat": 40.5554827, "lon": 45.5564725}, {"type": "node", "id": 12290730049, "lat": 40.6324295, "lon": 45.5284703}, {"type": "node", "id": 12290730050, "lat": 40.633431, "lon": 45.5282289}, {"type": "node", "id": 12290730051, "lat": 40.6344447, "lon": 45.5280679}, {"type": "node", "id": 12290730052, "lat": 40.6347093, "lon": 45.5279875}, {"type": "node", "id": 12290730053, "lat": 40.634921, "lon": 45.5278641}, {"type": "node", "id": 12290730054, "lat": 40.6353118, "lon": 45.5274135}, {"type": "node", "id": 12290730055, "lat": 40.6356944, "lon": 45.5270541}, {"type": "node", "id": 12290730056, "lat": 40.6363824, "lon": 45.5265713}, {"type": "node", "id": 12290730057, "lat": 40.6366022, "lon": 45.5263674}, {"type": "node", "id": 12290730058, "lat": 40.636875, "lon": 45.5261582}, {"type": "node", "id": 12290730059, "lat": 40.6372658, "lon": 45.5260134}, {"type": "node", "id": 12290730060, "lat": 40.6377441, "lon": 45.5258819}, {"type": "node", "id": 12290730061, "lat": 40.6378398, "lon": 45.5257988}, {"type": "node", "id": 12290730062, "lat": 40.6378886, "lon": 45.5256861}, {"type": "node", "id": 12290730063, "lat": 40.637913, "lon": 45.5255574}, {"type": "node", "id": 12290730064, "lat": 40.6379415, "lon": 45.5252382}, {"type": "node", "id": 12290730065, "lat": 40.6379741, "lon": 45.5249968}, {"type": "node", "id": 12290730066, "lat": 40.6392197, "lon": 45.5254769}, {"type": "node", "id": 12290730067, "lat": 40.6395128, "lon": 45.5249941}, {"type": "node", "id": 12290730068, "lat": 40.6404572, "lon": 45.5250585}, {"type": "node", "id": 12290730069, "lat": 40.6404653, "lon": 45.5237281}, {"type": "node", "id": 12290730070, "lat": 40.6385196, "lon": 45.522564}, {"type": "node", "id": 12290730071, "lat": 40.6385888, "lon": 45.5221617}, {"type": "node", "id": 12290730072, "lat": 40.6388412, "lon": 45.5217647}, {"type": "node", "id": 12290730073, "lat": 40.6389714, "lon": 45.5215824}, {"type": "node", "id": 12290730074, "lat": 40.639352, "lon": 45.5207401}, {"type": "node", "id": 12290730075, "lat": 40.6397204, "lon": 45.5199382}, {"type": "node", "id": 12290730076, "lat": 40.6372739, "lon": 45.5174518}, {"type": "node", "id": 12290730077, "lat": 40.6385033, "lon": 45.5159819}, {"type": "node", "id": 12290730078, "lat": 40.6390325, "lon": 45.5166793}, {"type": "node", "id": 12290730079, "lat": 40.6387394, "lon": 45.5172372}, {"type": "node", "id": 12290730080, "lat": 40.6395861, "lon": 45.5179453}, {"type": "node", "id": 12290730081, "lat": 40.6400176, "lon": 45.516969}, {"type": "node", "id": 12290730082, "lat": 40.6410434, "lon": 45.5170548}, {"type": "node", "id": 12290730083, "lat": 40.6418982, "lon": 45.516175}, {"type": "node", "id": 12290730084, "lat": 40.6421505, "lon": 45.5154133}, {"type": "node", "id": 12290730085, "lat": 40.6436729, "lon": 45.5148125}, {"type": "node", "id": 12290730086, "lat": 40.6471652, "lon": 45.515424}, {"type": "node", "id": 12290730087, "lat": 40.6470431, "lon": 45.5162501}, {"type": "node", "id": 12290730088, "lat": 40.6432251, "lon": 45.5164432}, {"type": "node", "id": 12290730089, "lat": 40.6427123, "lon": 45.518589}, {"type": "node", "id": 12290730090, "lat": 40.6410678, "lon": 45.5192435}, {"type": "node", "id": 12290730091, "lat": 40.6420121, "lon": 45.5233955}, {"type": "node", "id": 12290730092, "lat": 40.6420121, "lon": 45.5247474}, {"type": "node", "id": 12290730093, "lat": 40.6430053, "lon": 45.5247259}, {"type": "node", "id": 12290730094, "lat": 40.6474989, "lon": 45.5230951}, {"type": "node", "id": 12290730095, "lat": 40.647792, "lon": 45.5243182}, {"type": "node", "id": 12290730096, "lat": 40.6445195, "lon": 45.5258417}, {"type": "node", "id": 12290730097, "lat": 40.6443974, "lon": 45.5269897}, {"type": "node", "id": 12290730098, "lat": 40.6477676, "lon": 45.5282557}, {"type": "node", "id": 12290730099, "lat": 40.6475396, "lon": 45.5298328}, {"type": "node", "id": 12290730100, "lat": 40.6433391, "lon": 45.5284595}, {"type": "node", "id": 12290730101, "lat": 40.6404409, "lon": 45.5267644}, {"type": "node", "id": 12290730102, "lat": 40.6387068, "lon": 45.5285025}, {"type": "node", "id": 12290730103, "lat": 40.638658, "lon": 45.5294895}, {"type": "node", "id": 12290730104, "lat": 40.6356782, "lon": 45.5293608}, {"type": "node", "id": 12290730105, "lat": 40.6354421, "lon": 45.5320215}, {"type": "node", "id": 12290730106, "lat": 40.6343551, "lon": 45.5317587}, {"type": "node", "id": 12290730107, "lat": 40.6344569, "lon": 45.5302781}, {"type": "node", "id": 12290730108, "lat": 40.6319003, "lon": 45.5300581}, {"type": "node", "id": 12290730109, "lat": 40.6314341, "lon": 45.5293742}, {"type": "node", "id": 12290730110, "lat": 40.6321669, "lon": 45.5285615}, {"type": "node", "id": 12467244159, "lat": 40.6180327, "lon": 45.6075096}, {"type": "node", "id": 12467244160, "lat": 40.6180001, "lon": 45.6092262}, {"type": "node", "id": 12467244162, "lat": 40.6168762, "lon": 45.6073272}, {"type": "node", "id": 12467244163, "lat": 40.616583, "lon": 45.6086576}, {"type": "node", "id": 12467244164, "lat": 40.6159641, "lon": 45.6084108}, {"type": "node", "id": 12467244165, "lat": 40.6160374, "lon": 45.6075203}, {"type": "node", "id": 12467244166, "lat": 40.6139524, "lon": 45.6067586}, {"type": "node", "id": 12467244167, "lat": 40.6137651, "lon": 45.6073594}, {"type": "node", "id": 12467244168, "lat": 40.6142701, "lon": 45.6023598}, {"type": "node", "id": 12467244169, "lat": 40.6147139, "lon": 45.6012064}, {"type": "node", "id": 12467244170, "lat": 40.613081, "lon": 45.6018984}, {"type": "node", "id": 12467244171, "lat": 40.6082104, "lon": 45.5990231}, {"type": "node", "id": 12467244172, "lat": 40.6007246, "lon": 45.5973923}, {"type": "node", "id": 12467244173, "lat": 40.5993154, "lon": 45.5822861}, {"type": "node", "id": 12467244174, "lat": 40.6017755, "lon": 45.5808484}, {"type": "node", "id": 12467244175, "lat": 40.6033232, "lon": 45.5795717}, {"type": "node", "id": 12467244176, "lat": 40.604374, "lon": 45.5765998}, {"type": "node", "id": 12467244177, "lat": 40.6029077, "lon": 45.5739605}, {"type": "node", "id": 12467244178, "lat": 40.5960568, "lon": 45.5784881}, {"type": "node", "id": 12467244179, "lat": 40.5949652, "lon": 45.5793679}, {"type": "node", "id": 12467244187, "lat": 40.592513, "lon": 45.5831981}, {"type": "node", "id": 12467244188, "lat": 40.5929855, "lon": 45.5826402}, {"type": "node", "id": 12467244189, "lat": 40.5922767, "lon": 45.580076}, {"type": "node", "id": 12467244190, "lat": 40.5915027, "lon": 45.5812669}, {"type": "node", "id": 12467244191, "lat": 40.5894089, "lon": 45.6032288}, {"type": "node", "id": 12467244192, "lat": 40.6021257, "lon": 45.6188285}, {"type": "node", "id": 13306488353, "lat": 40.869838, "lon": 45.1615027}, {"type": "node", "id": 13306488538, "lat": 40.8867929, "lon": 45.1649825}, {"type": "node", "id": 13306488580, "lat": 40.880321, "lon": 45.1622907}, {"type": "way", "id": 83391587, "nodes": [970813551, 11357608687, 970813554, 970813557, 10926104944, 970813559, 4284009393, 1882609096, 4284009389, 970813578, 2985549584, 10926123709, 4284009085, 1882609095, 4284009084, 4284009080, 4980407324, 970813598, 970813551], "tags": {"name": "\u0533\u0565\u057f\u0561\u0570\u0578\u057e\u056b\u057f", "name:en": "Getahovit", "name:hy": "\u0533\u0565\u057f\u0561\u0570\u0578\u057e\u056b\u057f", "name:ka": "\u10d2\u10d4\u10d7\u10d0\u10f0\u10dd\u10d5\u10d8\u10d7\u10d8", "name:ru": "\u0413\u0435\u0442\u0430\u043e\u0432\u0438\u0442", "place": "village", "wikidata": "Q70729", "wikipedia": "en:Getahovit"}}, {"type": "way", "id": 177131869, "nodes": [1875918874, 3267967767, 4340229972, 1875918876, 1875918878, 1875918879, 1875918877, 4340229971, 4340229970, 1875918875, 4086138686, 1875918873, 4086138616, 1875918872, 1875918874], "tags": {"is_in": "Armenia, Tavush", "landuse": "residential", "name": "\u0532\u0565\u0580\u0564", "name:en": "Berd", "name:fa": "\u0628\u0631\u062f", "name:hy": "\u0532\u0565\u0580\u0564", "name:ru": "\u0411\u0435\u0440\u0434", "place": "town", "wikidata": "Q1886688", "wikipedia": "en:Berd"}}, {"type": "way", "id": 177131878, "nodes": [1875918722, 1875918723, 4895455212, 10653201573, 10653201575, 10653201579, 10653201578, 10653201577, 10653201583, 10653201582, 10653201581, 5802056424, 10653201580, 10653201584, 10653201585, 10653201586, 10653201576, 10653201574, 10653201587, 10653201572, 10653201571, 10653201570, 4895455213, 4895455214, 4895455215, 4895455216, 4895455217, 4895455218, 4895455219, 1875918721, 4895455220, 4895455188, 4895455221, 4895455189, 4895455193, 4895455222, 4895455190, 4895455191, 4895455192, 4895455223, 4895455224, 1875918720, 4895455208, 10559501422, 10559501421, 10559501420, 10559501419, 4895455238, 4895455239, 11533863601, 11533863600, 11533863599, 11051265329, 11533863598, 4895455240, 4895455241, 1875918719, 4895455209, 4895455210, 4895455211, 1875918722], "tags": {"landuse": "residential", "name": "\u0543\u0561\u0574\u0562\u0561\u0580\u0561\u056f", "name:az": "\u00c7\u0259mb\u0259r\u0259k", "name:en": "Chambarak", "name:hy": "\u0543\u0561\u0574\u0562\u0561\u0580\u0561\u056f", "name:ru": "\u0427\u0430\u043c\u0431\u0430\u0440\u0430\u043a", "place": "town", "wikidata": "Q1024822", "wikipedia": "en:Chambarak"}}, {"type": "way", "id": 177856553, "nodes": [1882609093, 4284009053, 4284009054, 4284009056, 11154326567, 4284009058, 11154326560, 4284009061, 4284009066, 4284009065, 4284009063, 4284009062, 4284009064, 4284009068, 4284009072, 4284009074, 4284009073, 4284009080, 4284009084, 1882609095, 4284009085, 10926123709, 2985549584, 970813578, 4284009389, 1882609096, 4284009393, 4284009392, 2985549585, 4284009088, 4284009087, 4284009086, 4284009083, 4284009082, 4284009081, 4284009079, 4284009078, 4284009076, 4284009077, 13306488538, 4284009071, 4284009067, 4284009070, 4284009075, 4284009069, 4284009060, 4284009059, 13306488580, 2985549583, 4284009057, 4284009055, 4284009052, 4284009051, 4284009050, 4284009049, 4284009046, 4284009045, 4284009044, 4284009043, 1882609094, 4284009042, 4284009041, 4284009037, 4284009035, 4284009034, 4284009038, 4284009040, 4284009039, 4284009032, 4284009030, 4284009031, 4284009033, 4284009029, 4284009028, 4284009036, 11900555868, 1882609092, 4284009047, 4284009048, 1882609093], "tags": {"int_name": "Ijevan", "landuse": "residential", "name": "\u053b\u057b\u0587\u0561\u0576", "name:de": "Idschewan", "name:el": "\u0399\u03bd\u03c4\u03b6\u03b5\u03b2\u03ac\u03bd", "name:en": "Ijevan", "name:hy": "\u053b\u057b\u0587\u0561\u0576", "name:ka": "\u10d8\u10ef\u10d4\u10d5\u10d0\u10dc\u10d8", "name:pl": "Id\u017cewan", "name:ru": "\u0418\u0434\u0436\u0435\u0432\u0430\u043d", "nat_name": "\u053b\u057b\u0587\u0561\u0576", "place": "town", "population": "20500"}}, {"type": "way", "id": 358587767, "nodes": [3634950256, 12467244189, 12467244188, 12467244187, 12467244190, 3634950257, 3634950259, 3634950261, 3634950264, 3634950265, 12467244191, 3634950266, 3634950267, 3634950268, 3634950270, 3634950271, 3634950272, 12467244192, 3634950273, 3634950274, 3634950275, 3634950276, 3634950277, 3634950280, 3634950281, 3634950282, 12467244167, 12467244166, 12467244165, 12467244164, 12467244163, 12467244162, 12467244159, 12467244160, 3634950283, 3634950284, 3634950285, 3634950286, 12467244168, 3634950287, 12467244169, 3634950288, 12467244170, 3634950289, 3634950290, 12467244171, 3634950291, 3634950292, 12467244172, 3634951094, 3634951095, 12467244173, 3634951097, 12467244174, 3634951098, 12467244175, 12467244176, 3634951099, 12467244177, 3634951100, 3634951101, 3634951103, 12467244178, 12467244179, 3634950256], "tags": {"addr:city": "G\u0259d\u0259b\u0259y rayonu", "landuse": "residential", "name": "Novosaratovka", "name:az": "Novosaratovka", "place": "village"}}, {"type": "way", "id": 360381136, "nodes": [3649308476, 3649308477, 3649308478, 3649308479, 3649308480, 3649308481, 3649308482, 3649308483, 3649308484, 3649308485, 3649308486, 3649308487, 3649308488, 3649308489, 3649308490, 3649308491, 3649308492, 3649308476], "tags": {"landuse": "residential", "place": "village"}}, {"type": "way", "id": 361287090, "nodes": [3657842583, 3657842584, 3657842585, 3657842586, 3657842587, 3657842588, 3657842589, 3657842590, 3657842591, 3657842592, 3657842593, 3657842594, 3657842595, 3657842596, 3657842597, 3657842598, 3657842599, 3657842600, 3657842601, 3657842602, 3657842603, 3657842583], "tags": {"landuse": "residential", "place": "village"}}, {"type": "way", "id": 378655959, "nodes": [3820714378, 3820714370, 3820714365, 3820714368, 3820714369, 2958765418, 3820714371, 3820714366, 3820714367, 3820714372, 3820714373, 3820714377, 3820714382, 3820714390, 3820714394, 3820714387, 3820714384, 3820714386, 3820714392, 3820714388, 3820714381, 3820714374, 3820714375, 3820714376, 3820714380, 3820714383, 3820714385, 3820714389, 3820714391, 3820714379, 3820714378], "tags": {"landuse": "residential", "name": "\u053b\u056e\u0561\u0584\u0561\u0580", "name:en": "Itsaqar", "name:hy": "\u053b\u056e\u0561\u0584\u0561\u0580", "name:ru": "\u0418\u0446\u0430\u043a\u0430\u0440", "place": "village", "wikidata": "Q33891", "wikipedia": "en:Itsakar"}}, {"type": "way", "id": 498080294, "nodes": [4895651042, 4895651052, 4895651041, 4895651040, 4895651039, 4895651038, 4895651037, 4895651036, 4895651035, 4895651034, 4895651033, 4895651032, 4895651031, 4895651030, 4895651029, 4895651028, 4895651027, 4895651026, 4895651025, 4895651024, 4895651023, 4895651022, 4895651021, 4895651042], "tags": {"landuse": "residential", "name": "\u0544\u0561\u0580\u057f\u0578\u0582\u0576\u056b", "name:en": "Martuni", "name:hy": "\u0544\u0561\u0580\u057f\u0578\u0582\u0576\u056b", "name:ru": "\u041c\u0430\u0440\u0442\u0443\u043d\u0438", "place": "village", "wikidata": "Q1024527", "wikipedia": "en:Martuni (village)"}}, {"type": "way", "id": 498080295, "nodes": [4895651065, 4895651064, 4895651063, 4895651062, 4895651061, 4895651060, 4895651059, 4895651058, 4895651057, 4895651056, 5310284451, 4895651055, 4895651054, 4895651053, 4895651052, 4895651042, 4895651051, 4895651050, 4895651049, 4895651048, 4895651047, 4895651046, 4895651045, 4895651044, 4895651043, 4895651065], "tags": {"landuse": "residential", "name": "\u0533\u0565\u057f\u056b\u056f", "name:en": "Getik", "name:hy": "\u0533\u0565\u057f\u056b\u056f", "name:ru": "\u0413\u0435\u0442\u0438\u043a", "place": "village", "wikidata": "Q1024418", "wikipedia": "en:Getik, Gegharkunik"}}, {"type": "way", "id": 498080297, "nodes": [4895651231, 4895651230, 4895651229, 4895651228, 4895651227, 4895651226, 4895651225, 4895651224, 4895651223, 4895651222, 4895651221, 4895651120, 4895651119, 4895651118, 4895651117, 4895651116, 4895651115, 4895651114, 4895651113, 4895651112, 4895651231], "tags": {"landuse": "residential", "name": "\u054e\u0561\u0570\u0561\u0576", "name:en": "Vahan", "name:hy": "\u054e\u0561\u0570\u0561\u0576", "name:ru": "\u0412\u0430\u0433\u0430\u043d", "place": "village", "wikidata": "Q1024185", "wikipedia": "en:Vahan, Armenia"}}, {"type": "way", "id": 498080298, "nodes": [4895651256, 4895651255, 4895651254, 4895651253, 4895651252, 4895651251, 4895651250, 4895651249, 4895651248, 4895651247, 4895651246, 4895651245, 4895651244, 4895651243, 4895651242, 4895651241, 4895651240, 4895651239, 4895651238, 4895651237, 4895651236, 4895651235, 4895651234, 4895651233, 4895651232, 4895651256], "tags": {"landuse": "residential", "name": "\u0531\u0580\u057f\u0561\u0576\u056b\u0577", "name:az": "Ardan\u0131\u015f", "name:en": "Artanish", "name:hy": "\u0531\u0580\u057f\u0561\u0576\u056b\u0577", "name:ru": "\u0410\u0440\u0442\u0430\u043d\u0438\u0448", "place": "village", "wikidata": "Q1024715", "wikipedia": "en:Artanish"}}, {"type": "way", "id": 498080299, "nodes": [4895651278, 4895651277, 4895651276, 4895651275, 4895651274, 4895651273, 4895651272, 4895651271, 4895651270, 4895651269, 4895651268, 4895651267, 4895651266, 4895651265, 4895651264, 4895651263, 4895651262, 4895651261, 4895651260, 4895651259, 4895651258, 4895651257, 4895651278], "tags": {"name": "\u0531\u0572\u0562\u0565\u0580\u0584", "name:en": "Aghberk", "name:hy": "\u0531\u0572\u0562\u0565\u0580\u0584", "name:ru": "\u0410\u0433\u0431\u0435\u0440\u043a", "place": "village", "wikidata": "Q1024539", "wikipedia": "en:Aghberk"}}, {"type": "way", "id": 498080300, "nodes": [4895651295, 4895651294, 4895651293, 4895651292, 4895651291, 7982637894, 4895651290, 4895651289, 4895651288, 4895651287, 4895651286, 4895651285, 4895651284, 4895651283, 4895651282, 4895651281, 4895651280, 4895651279, 4895651295], "tags": {"landuse": "residential", "name": "\u0547\u0578\u0572\u0561\u056f\u0561\u0569", "name:en": "Shoghakat", "name:hy": "\u0547\u0578\u0572\u0561\u056f\u0561\u0569", "name:ru": "\u0428\u043e\u0433\u0430\u043a\u0430\u0442", "old_name": "\u0547\u0578\u0580\u056a\u0561", "old_name:en": "Shorzha", "old_name:hy": "\u0547\u0578\u0580\u056a\u0561", "old_name:ru": "\u0428\u043e\u0440\u0436\u0430", "place": "village", "wikidata": "Q1024552", "wikipedia": "en:Shoghakat, Armenia"}}, {"type": "way", "id": 498080723, "nodes": [4895662662, 4895662661, 4895662660, 4895662659, 4895662658, 4895662657, 4895662656, 4895662655, 4895662654, 4895662653, 4895662652, 4895662651, 4895662650, 8270187032, 8270187034, 8270187036, 8270187039, 8270187038, 8270187041, 8270187042, 8270187043, 9070352879, 8270187045, 8270187044, 8270187040, 8270187037, 8270187035, 8270187033, 4895662649, 4895662648, 4895662647, 4895662646, 4895662645, 4895662644, 4895662643, 4895662642, 4895662641, 4895662640, 4895662639, 4895662638, 4895662637, 4895662636, 4895662635, 4895662634, 4895662633, 4895662632, 4895662631, 4895662630, 4895662629, 4895662628, 4895662627, 4895662626, 4895662625, 4895662624, 4895662623, 4895662622, 4895662621, 4895661620, 4895661619, 4895661618, 4895662662], "tags": {"name": "\u0534\u0580\u0561\u056d\u057f\u056b\u056f", "name:en": "Drakhtik", "name:hy": "\u0534\u0580\u0561\u056d\u057f\u056b\u056f", "name:ru": "\u0414\u0440\u0430\u0445\u0442\u0438\u043a", "place": "village", "wikidata": "Q1024548", "wikipedia": "en:Drakhtik"}}, {"type": "way", "id": 498080724, "nodes": [4895662680, 4895662679, 4895662678, 4895662677, 4895662676, 4895662675, 4895662674, 8314997184, 8314997185, 8314997186, 8314997187, 4895662673, 4895662672, 4895662671, 4895662670, 4895662669, 4895662668, 4895662667, 4895662666, 4895662665, 4895662664, 4895662663, 4895662680], "tags": {"landuse": "residential", "name": "\u0539\u0569\u0578\u0582\u057b\u0578\u0582\u0580", "name:en": "Ttujur", "name:hy": "\u0539\u0569\u0578\u0582\u057b\u0578\u0582\u0580", "name:ru": "\u0422\u0442\u0443\u0434\u0436\u0443\u0440", "place": "village", "wikidata": "Q1024542", "wikipedia": "en:Ttujur, Gegharkunik"}}, {"type": "way", "id": 539272227, "nodes": [5218467200, 5218467199, 5218467198, 5113224985, 5113224984, 5113224981, 5113224980, 5113224979, 5218467197, 5218467196, 5113223086, 5113223095, 5113223096, 5113223082, 5144862455, 5113224848, 5218467195, 5113224840, 5113224833, 5113224828, 5113224800, 5113224798, 5113224796, 5218467194, 5218467193, 5113224770, 5113224769, 5218467192, 5218467191, 5113224758, 5113224757, 5113224755, 5113224754, 5113224741, 5218467190, 5218467189, 5086011692, 5218467188, 5086011691, 5086011690, 5218467187, 2456021927, 5086011717, 5086011718, 5086011720, 5218467186, 5218467185, 5218467184, 5105356048, 5218467183, 4973378638, 5218467182, 5218467181, 5218467180, 5218467179, 2940563094, 5218467178, 5095291340, 5218467177, 5218467176, 4973378504, 4973378505, 4973378508, 4973378510, 5113225556, 5113225557, 5218467175, 5218467174, 5218467173, 5218467172, 5218467171, 5086385279, 5218467170, 5218467169, 5113225067, 5113225066, 5218467168, 5218467167, 5218467200], "tags": {"landuse": "residential", "name": "\u0531\u0576\u057f\u0561\u057c\u0561\u0574\u0565\u057b", "name:en": "Antaramej", "name:hy": "\u0531\u0576\u057f\u0561\u057c\u0561\u0574\u0565\u057b", "name:ru": "\u0410\u043d\u0442\u0430\u0440\u0430\u043c\u0435\u0447", "place": "village", "wikidata": "Q554466", "wikipedia": "en:Antaramej"}}, {"type": "way", "id": 539272228, "nodes": [5218467217, 5218467216, 5218467215, 5088421446, 5218467214, 5218467213, 5218467212, 5218467211, 5218467210, 5218467209, 5218467208, 5218467207, 5218467206, 5218467205, 5218467204, 5218467203, 5218467202, 5218467201, 5218467217], "tags": {"name": "\u0532\u0561\u0580\u0565\u057a\u0561\u057f", "name:en": "Barepat", "name:hy": "\u0532\u0561\u0580\u0565\u057a\u0561\u057f", "name:ru": "\u0411\u0430\u0440\u0435\u043f\u0430\u0442", "place": "village", "wikidata": "Q4860462", "wikipedia": "en:Barepat"}}, {"type": "way", "id": 539272229, "nodes": [5218468530, 10902393488, 10902393487, 10902393486, 5218468529, 5218468528, 5218468527, 5218468526, 5218468525, 5218468524, 5218468523, 5218468522, 5218468521, 6958416781, 6958416780, 5218467220, 5218467219, 6042513445, 5218467218, 5218468530], "tags": {"name": "\u053f\u0561\u056c\u0561\u057e\u0561\u0576", "name:en": "Kalavan", "name:hy": "\u053f\u0561\u056c\u0561\u057e\u0561\u0576", "name:ru": "\u041a\u0430\u043b\u0430\u0432\u0430\u043d", "place": "village", "wikidata": "Q1024602", "wikipedia": "en:Kalavan"}}, {"type": "way", "id": 539273994, "nodes": [5218484831, 5218484830, 5218484829, 5218484828, 5218484827, 5218484826, 5119793936, 5218484825, 5218484824, 5218484823, 5218484822, 5069629734, 5069629733, 5069629732, 5119793934, 4937134405, 5069629780, 5069629779, 5069629828, 5069629830, 5218484821, 5069715585, 5218484820, 5069629970, 5069629971, 5069629972, 5069629973, 5218484819, 5218484818, 5069630022, 5069630023, 5069630026, 5069630025, 5069630034, 5218484817, 5069630074, 5069630075, 5218484816, 5218484815, 5218484814, 5218484813, 5218484812, 5218484811, 5218484810, 5218484809, 5218484808, 5218484807, 5218484806, 5218484805, 5218484804, 5218484803, 5218484802, 5218484801, 5218484800, 5218484799, 5218484798, 5218484797, 5069630180, 5069630181, 5069630182, 5069630183, 5218484796, 2940569734, 2940569727, 2940569744, 5218484795, 5218484794, 4937134168, 4937134169, 3268006359, 2940568718, 2940568716, 2940568710, 11422269251, 11422269252, 11422269254, 11422269258, 11422269257, 11422269259, 11422269261, 11422269263, 11422269265, 11422269267, 11422269269, 11422269270, 11422269268, 11422269266, 11422269264, 11422269262, 11422269260, 11422269256, 11422269255, 11422269253, 11422269250, 11051265319, 5218484793, 5218484792, 5112826359, 5112826360, 5218484791, 5218484790, 5218484789, 5218484788, 5112826375, 5112826376, 5218484787, 5218484786, 11054225373, 11054225374, 4937134130, 11054225372, 11054225371, 11054225370, 5218484785, 5112826391, 11051265309, 11051265308, 11051265307, 11051265306, 5119793951, 11051265305, 11051265290, 11051265304, 11051265303, 5218484783, 2940570085, 2940570095, 4754205505, 5218484782, 11051265301, 11051265300, 11051265299, 11051265297, 11051265298, 11051265296, 11051265295, 11051265294, 11051265293, 11051265292, 5112826426, 5119793721, 5218484781, 5112826430, 5112826431, 5105356513, 5105356512, 5119793723, 5105356511, 5112826438, 5112826439, 5112826440, 5218484780, 5112826442, 5218484779, 5193625252, 5069715409, 5218484778, 5218484777, 5218484776, 5218484775, 5218484774, 5218484773, 5218484772, 5218484771, 5218484770, 4975976982, 4975976981, 5218484769, 4975976978, 4975976977, 5218484768, 5218484767, 5218484766, 5069629184, 5218484765, 5218484764, 5218484763, 5218484762, 5218484761, 5069716126, 5218484760, 5218484759, 5218484758, 5069715899, 5218484757, 5218484756, 5218484755, 4077674490, 4069487268, 5069715868, 5218484754, 5218484753, 5107412365, 5107412366, 5218484752, 5107412380, 5107412381, 5107412382, 5107412383, 5107412349, 5107412343, 5218484831], "tags": {"landuse": "residential", "name": "\u0531\u0572\u0561\u057e\u0576\u0561\u057e\u0561\u0576\u0584", "name:en": "Aghavnavank", "name:hy": "\u0531\u0572\u0561\u057e\u0576\u0561\u057e\u0561\u0576\u0584", "name:ru": "\u0410\u0433\u0430\u0432\u043d\u0430\u0432\u0430\u043d\u043a", "place": "village", "wikidata": "Q2212551", "wikipedia": "en:Aghavnavank"}}, {"type": "way", "id": 539273995, "nodes": [6578874350, 5218484851, 5218484850, 5218484849, 5218484848, 5218484847, 5218484846, 5218484845, 5218484844, 5218484843, 5218484842, 5218484841, 5218484840, 5218484839, 5218484838, 5218484837, 5218484836, 5218484835, 5218484834, 5218484833, 5218484832, 5218484884, 5218484883, 5218484882, 5218484881, 5218484880, 5218484879, 5218484878, 5218484877, 5218484876, 5218484875, 5218484874, 5218484873, 5218484872, 5218484871, 5218484870, 4975979367, 4975979368, 4975979369, 5218484869, 5218484868, 5218484867, 5218484866, 5218484865, 5218484864, 5218484863, 5218484862, 5218484861, 5218484860, 5218484859, 5218484858, 5218484857, 5218484856, 5218484855, 5193681469, 5218484854, 5218484853, 6578874350], "tags": {"name": "\u0541\u0578\u0580\u0561\u057e\u0561\u0576\u0584", "name:en": "Dzoravank", "name:hy": "\u0541\u0578\u0580\u0561\u057e\u0561\u0576\u0584", "name:ru": "\u0414\u0437\u043e\u0440\u0430\u0432\u0430\u043d\u043a", "place": "village", "wikidata": "Q1024560", "wikipedia": "en:Dzoravank"}}, {"type": "way", "id": 539273996, "nodes": [5218484930, 5218484929, 5097250719, 3279041410, 5097250937, 5097250938, 5218484928, 5097250931, 5097222378, 5097250929, 4754062432, 3279041432, 5097223266, 5218484927, 5218484926, 5218484925, 4968543015, 3767539921, 5218484924, 5218484923, 4754062429, 4754062390, 5218484922, 5218484921, 5218484920, 5218484919, 5218484918, 5218484917, 5218484916, 5218484915, 5218484914, 2954218227, 5218484913, 4682129860, 5218484912, 2226166675, 5218484911, 5218484910, 4682129871, 5218484909, 5218484908, 5218484907, 5218484906, 5218484905, 5218484904, 5218484903, 5218484902, 5218484901, 5218484900, 5218484899, 5218484898, 5218484897, 5218484896, 5218484895, 5526886379, 5526886378, 5526886377, 5526886376, 5218484894, 5218484893, 5218484892, 5218484891, 5218484890, 5097250417, 5097250419, 5218484889, 3279041440, 5218484888, 5218484887, 5218484886, 5218484885, 5218484930], "tags": {"name": "\u0534\u057a\u0580\u0561\u0562\u0561\u056f", "name:en": "Dprabak", "name:hy": "\u0534\u057a\u0580\u0561\u0562\u0561\u056f", "name:ru": "\u0414\u043f\u0440\u0430\u0431\u0430\u043a", "place": "village", "wikidata": "Q1024554", "wikipedia": "en:Dprabak"}}, {"type": "way", "id": 550888350, "nodes": [5320369894, 5320369893, 5320369892, 5320369891, 5320369890, 5320369889, 5320369888, 5320369887, 5320369886, 5320369885, 5320369884, 5320369883, 5320369882, 5320369881, 5320369880, 5320369879, 5320369878, 5320369877, 5320369876, 5320369875, 5320369874, 5320369873, 5320369872, 5320369871, 5320369870, 5320369869, 5320369868, 5320369867, 5320369866, 11422269283, 11422269282, 5320369865, 5320369864, 5320369863, 5320369862, 5320369861, 5320369860, 5320369894], "tags": {"name": "\u0531\u0575\u0563\u0578\u0582\u057f", "name:en": "Aygut", "name:hy": "\u0531\u0575\u0563\u0578\u0582\u057f", "name:ru": "\u0410\u0439\u0433\u0443\u0442", "place": "village", "wikidata": "Q1024593", "wikipedia": "en:Aygut"}}, {"type": "way", "id": 666633735, "nodes": [6241525656, 6241525657, 6241525658, 6241525659, 6241525660, 6241525661, 6241525662, 6241525663, 6241525664, 6241525665, 6241525666, 6241525667, 6241525668, 6241525669, 6241525670, 6241525671, 6241525672, 6241525673, 6241525674, 6241525675, 6241525676, 6241525677, 6241525678, 6241525679, 6241525680, 6241525681, 6241525682, 6241525683, 6241525684, 6241526285, 6241526286, 6241526287, 6241526288, 6241526289, 6241526290, 6241526291, 6241526292, 6241526293, 6241526294, 6241526295, 6241526296, 6241526297, 6241526298, 6241526299, 6241526300, 6241526301, 6241526302, 6241526303, 6241526304, 6241526305, 6241526306, 6241526307, 6241526308, 6241526309, 6241526310, 6241526311, 6241526312, 6241526313, 6241526314, 6241526315, 6241525656], "tags": {"landuse": "residential", "name": "\u0549\u056b\u0576\u0561\u0580\u056b", "name:en": "Chinari", "name:hy": "\u0549\u056b\u0576\u0561\u0580\u056b", "name:ru": "\u0427\u0438\u043d\u0430\u0440\u0438", "place": "village", "wikidata": "Q2710141", "wikipedia": "en:Chinari, Armenia"}}, {"type": "way", "id": 825816874, "nodes": [7710582498, 7710582497, 7710582496, 7710582495, 3279082095, 7710582494, 7710582493, 7710582492, 7710582491, 7710582490, 7710582489, 7710582488, 7710582487, 7710582486, 7710582485, 7710582498], "tags": {"landuse": "residential", "place": "village"}}, {"type": "way", "id": 825816875, "nodes": [7710582519, 7710582518, 7710582517, 7710582516, 7710582515, 7710582514, 4709827785, 7710582513, 4709827847, 7710582512, 4709827898, 7710582510, 7710582509, 7710582508, 7710582507, 7710582506, 7710582505, 7710582504, 7710582503, 2145157722, 7710582502, 7710582501, 7710582500, 7710582499, 7710582519], "tags": {"landuse": "residential", "name": "\u0546\u0578\u0580\u0561\u0577\u0565\u0576", "name:en": "Norashen", "name:hy": "\u0546\u0578\u0580\u0561\u0577\u0565\u0576", "name:ru": "\u041d\u043e\u0440\u0430\u0448\u0435\u043d", "place": "village"}}, {"type": "way", "id": 852890746, "nodes": [7955452039, 7955452040, 7955452041, 7955452042, 7955452043, 7955452044, 7955452045, 7955452046, 7955452047, 7955452048, 7955452049, 7955452050, 7955452051, 7955452052, 7955452053, 7955452054, 7955452055, 7955452056, 7955452057, 7955452058, 7955452059, 7955452060, 7955452061, 7955452062, 7955452063, 7955452064, 7955452065, 7955452066, 7955452067, 7955452068, 7955452069, 7955452070, 7955452071, 7955452072, 7955452073, 7955452074, 7955452075, 7955452076, 7955452077, 7955452078, 7955452079, 7955452080, 7955452081, 7955452082, 7955452083, 7955452084, 7955454185, 7955454186, 7955454187, 7955454188, 7955454189, 7955454190, 7955454191, 7955454192, 7955454193, 7955454194, 7955454195, 7955454196, 7955452039], "tags": {"name": "\u0543\u0561\u057a\u056f\u0578\u0582\u057f", "name:en": "Chapkut", "name:hy": "\u0543\u0561\u057a\u056f\u0578\u0582\u057f", "name:ru": "\u0427\u0430\u043f\u043a\u0443\u0442", "place": "village", "wikidata": "Q6203488", "wikipedia": "en:Chapkut"}}, {"type": "way", "id": 898032901, "nodes": [8345768563, 8345768564, 8345768565, 13306488353, 4284009045, 4284009044, 4284009043, 1882609094, 4284009042, 4284009041, 4284009037, 8345768566, 8345768567, 8345768568, 8345768569, 8345768570, 8345768571, 8345768572, 8345768573, 8345768574, 8345768575, 8345768576, 8345768577, 8345768578, 8345768579, 8345768580, 8345768581, 8345768582, 8345768583, 8345768584, 8345768585, 8345768586, 8345768587, 8345768588, 8345768589, 8345768590, 8345768591, 8345768592, 8345768593, 8345768594, 8345768595, 8345768596, 8345768563], "tags": {"name": "\u0533\u0561\u0576\u0571\u0561\u0584\u0561\u0580", "name:en": "Gandzaqar", "name:hy": "\u0533\u0561\u0576\u0571\u0561\u0584\u0561\u0580", "name:ru": "\u0413\u0430\u043d\u0434\u0437\u0430\u043a\u0430\u0440", "place": "village"}}, {"type": "way", "id": 898032902, "nodes": [8345768600, 8345768601, 8345768602, 8345768603, 8345768604, 8345768605, 8345768606, 8345768607, 8345768608, 8345768609, 8345768610, 8345768611, 8345768612, 8345768613, 8345768614, 8345768615, 8345768616, 8345827317, 8345827318, 8345827319, 8345768600], "tags": {"landuse": "residential", "name": "\u0546\u0561\u057e\u0578\u0582\u0580", "name:en": "Navur", "name:hy": "\u0546\u0561\u057e\u0578\u0582\u0580", "name:ru": "\u041d\u0430\u0432\u0443\u0440", "place": "village", "wikidata": "Q33922", "wikipedia": "en:Navur"}}, {"type": "way", "id": 1147000322, "nodes": [10673358653, 10673358654, 10673358655, 10673358656, 10673358657, 10673358658, 10673358659, 10673358660, 10673358653], "tags": {"landuse": "residential", "name": "\u0549\u0578\u0580\u0561\u0569\u0561\u0576", "name:en": "Choratan", "name:hy": "\u0549\u0578\u0580\u0561\u0569\u0561\u0576", "name:ru": "\u0427\u043e\u0440\u0430\u0442\u0430\u043d", "place": "village", "wikidata": "Q33824", "wikipedia": "en:Choratan"}}, {"type": "way", "id": 1147000323, "nodes": [10673358661, 10673358662, 10673358663, 10673358664, 10673358665, 10673358666, 10673358667, 10673358668, 10673358669, 10673358670, 10673358661], "tags": {"landuse": "residential", "name": "\u0531\u0580\u056e\u057e\u0561\u0562\u0565\u0580\u0564", "name:en": "Artsvaberd", "name:hy": "\u0531\u0580\u056e\u057e\u0561\u0562\u0565\u0580\u0564", "name:ru": "\u0410\u0440\u0446\u0432\u0430\u0431\u0435\u0440\u0434", "place": "village", "wikidata": "Q2672592", "wikipedia": "en:Artsvaberd"}}, {"type": "way", "id": 1147000324, "nodes": [10673358671, 10673358672, 10673358673, 10673358674, 10673358675, 10673358676, 10673358677, 10673358678, 10673358679, 10673358680, 10673358686, 10673358685, 10673358683, 10673358684, 10673358681, 10673358682, 10673358671], "tags": {"landuse": "residential", "name": "\u0531\u0575\u0563\u0565\u0571\u0578\u0580", "name:en": "Aygedzor", "name:hy": "\u0531\u0575\u0563\u0565\u0571\u0578\u0580", "name:ru": "\u0410\u0439\u0433\u0435\u0434\u0437\u043e\u0440", "place": "village", "wikidata": "Q2672635", "wikipedia": "en:Aygedzor"}}, {"type": "way", "id": 1315759498, "nodes": [12178839213, 12178839212, 12178839211, 12178839210, 12178839209, 12178839208, 12178839207, 12178839206, 12178839205, 12178839204, 12178839203, 12178839202, 12178839201, 12178839200, 12178839199, 12178839198, 12178839197, 12178839196, 12178839195, 12178839194, 12178839193, 12178839192, 12178839191, 12178839190, 12178839189, 12178839188, 12178839187, 12178839186, 12178839185, 12178839184, 12178839183, 12178839182, 12178839181, 12178839180, 12178839179, 12178839178, 12178839177, 12178839176, 12178839175, 12178839174, 12178839173, 12178839172, 12178839171, 12178839170, 12178839169, 12178839168, 12178839167, 12178839166, 12178847899, 12178839165, 12178839164, 12178839163, 12178839162, 12178839160, 12178839159, 12178839158, 12178839157, 12178839156, 12178839155, 12178839154, 12178839153, 12178839152, 12178839151, 12178839150, 12178839149, 12178839148, 12178839147, 12178839146, 12178839143, 12178839142, 12178839141, 12178839140, 12178839139, 12178839138, 12178839137, 12178839136, 12178839135, 12178839134, 12178839133, 12178839132, 12178839131, 12178839130, 12178839129, 12178839128, 12178839127, 12178839126, 12178839125, 12178839124, 12178839123, 12178839122, 12178839121, 12178839120, 12178839119, 12178839118, 12178839117, 12178839116, 12178839115, 12178839114, 12178839113, 12178839112, 12178839111, 12178839110, 12178839109, 12178839108, 12178839107, 12178839106, 12178839105, 12178839104, 12178839103, 12178839102, 12178839213], "tags": {"addr:city": "Tovuz rayonu", "landuse": "residential", "name": "Mollalar", "name:az": "Mollalar", "place": "village"}}, {"type": "way", "id": 1318500489, "nodes": [12202517346, 12202521803, 12202521804, 12202521805, 12202521806, 12202521807, 12202521808, 12202521809, 12202521810, 12202521811, 12202521812, 12202521813, 12202521814, 12202521815, 12202521816, 12202521817, 12202521818, 12202521819, 12202521820, 12202521821, 12202521822, 12202521823, 12202521824, 12202521825, 12202521826, 12202517347, 12202517348, 12202517349, 12202517350, 12202517351, 12202517352, 12202517353, 12202517354, 12202517355, 12202517356, 12202517357, 12202517358, 12202517359, 12202517360, 12202517361, 12202517362, 12202517363, 12202517364, 12202517365, 12202517366, 12202517367, 12202517368, 12202517369, 12202517370, 12202517371, 12202517372, 12202517373, 12202517374, 12202517375, 12202517376, 12202517377, 12202517378, 12202517379, 12202517380, 12202517381, 12202517396, 12202517395, 12202517394, 12202517393, 12202517392, 12202517391, 12202517390, 12202517389, 12202517388, 12202517387, 12202517386, 12202517385, 12202517384, 12202517383, 12202517382, 12202517403, 12202517402, 12202517401, 12202517400, 12202517399, 12202517398, 12202517397, 12202517321, 12202517322, 12202517323, 12202517324, 12202517325, 12202517326, 12202517327, 12202517328, 12202517329, 12202517330, 12202517331, 12202517332, 12202517333, 12202517334, 12202517335, 12202517336, 12202517337, 12202517338, 12202517339, 12202517340, 12202517341, 12202517342, 12202517343, 12202517344, 12202517345, 12202517346], "tags": {"addr:city": "G\u0259d\u0259b\u0259y rayonu", "landuse": "residential", "name": "G\u00f6y\u0259lli", "name:az": "G\u00f6y\u0259lli", "place": "village"}}, {"type": "way", "id": 1323942652, "nodes": [12251235018, 12251235017, 12251235016, 12251235015, 12251235014, 12251235013, 12251235012, 12251235011, 12251235010, 12251235009, 12251235008, 12251235007, 12251235006, 12251235005, 12251235004, 12251235003, 12251235002, 12251235001, 12251235000, 12251234999, 12251234998, 12251234997, 12251234996, 12251234995, 12251234994, 12251234993, 12251234992, 12251234991, 12251234990, 12251234989, 12251234988, 12251234987, 12251234986, 12251234985, 12251234984, 12251234983, 12251234982, 12251234981, 12251234980, 12251234979, 12251234978, 12251234977, 12251234976, 12251234975, 12251234974, 12251234973, 12251234972, 12251234971, 12251234970, 12251234969, 12251234968, 12251234967, 12251234966, 12251234965, 12251234964, 12251234963, 12251234962, 12251234961, 12251234960, 12251234959, 12251234958, 12251234957, 12251234956, 12251234955, 12251234954, 12251234953, 12251234952, 12251234951, 12251234950, 12251234949, 12251234948, 12251234947, 12251235018], "tags": {"addr:city": "G\u0259d\u0259b\u0259y rayonu", "landuse": "residential", "name": "\u015eahda\u011f", "name:az": "\u015eahda\u011f", "place": "village"}}, {"type": "way", "id": 1323942656, "nodes": [12251235163, 12251235162, 12251235161, 12251235160, 12251235159, 12251235158, 12251235157, 12251235156, 12251235155, 12251235154, 12251235153, 12251235152, 12251235151, 12251235150, 12251235149, 12251235148, 12251235147, 12251235146, 12251235145, 12251235144, 12251235143, 12251235142, 12251235141, 12251235140, 12251235139, 12251235138, 12251235137, 12251235136, 12251235135, 12251235134, 12251235133, 12251235132, 12251235131, 12251235130, 12251235129, 12251235128, 12251235127, 12251235126, 12251235125, 12251235124, 12251235123, 12251235122, 12251235121, 12251235120, 12251235119, 12251235118, 12251235117, 12251235112, 12251235111, 12251235110, 12251235109, 12251235108, 12251235107, 12251235106, 12251235105, 12251235104, 12251235103, 12251235102, 12251235096, 12251235095, 12251235094, 12251235093, 12251235092, 12251235091, 12251235090, 12251235089, 12251235088, 12251235087, 12251235086, 12251235085, 12251235084, 12251235083, 12251235082, 12251235081, 12251235080, 12251235079, 12251235078, 12251235077, 12251235076, 12251235075, 12251235074, 12251235073, 12251235072, 12251235071, 12251235070, 12251235069, 12251235068, 12251235067, 12251235066, 12251235065, 12251235064, 12251235063, 12251235062, 12251235061, 12251235060, 12251235059, 12251235058, 12251235057, 12251235056, 12251235055, 12251235054, 12251235053, 12251235052, 12251235051, 12251235050, 12251235049, 12251235048, 12251235047, 12251235163], "tags": {"addr:city": "G\u0259d\u0259b\u0259y rayonu", "landuse": "residential", "name": "\u00c7i\u00e7\u0259kli", "name:az": "\u00c7i\u00e7\u0259kli", "place": "village"}}, {"type": "way", "id": 1323942660, "nodes": [12251222675, 12251222674, 12251222673, 12251222672, 12251222671, 12251222670, 12251222669, 12251222668, 12251222667, 12251222666, 12251222665, 12251222664, 12251222663, 12251222662, 12251222661, 12251222660, 12251222659, 12251222658, 12251222657, 12251222656, 12251222655, 12251222654, 12251222653, 12251222652, 12251222651, 12251222650, 12251222649, 12251222648, 12251222647, 12251222646, 12251222645, 12251222644, 12251222642, 12251222641, 12251222640, 12251222639, 12251222638, 12251222637, 12251222636, 12251222635, 12251222634, 12251222633, 12251222632, 12251222631, 12251222630, 12251222629, 12251222628, 12251222627, 12251222626, 12251222625, 12251222624, 12251222623, 12251222622, 12251222621, 12251222620, 12251222619, 12251222618, 12251222617, 12251222616, 12251222615, 12251222614, 12251222613, 12251222612, 12251222611, 12251222610, 12251222675], "tags": {"addr:city": "G\u0259d\u0259b\u0259y rayonu", "landuse": "residential", "name": "Novoivanovka", "name:az": "Novoivanovka", "place": "village"}}, {"type": "way", "id": 1328451901, "nodes": [12290730110, 12290730109, 12290730108, 12290730107, 12290730106, 12290730105, 12290730104, 12290730103, 12290730102, 12290730101, 12290730100, 12290730099, 12290730098, 12290730097, 12290730096, 12290730095, 12290730094, 12290730093, 12290730092, 12290730091, 12290730090, 12290730089, 12290730088, 12290730087, 12290730086, 12290730085, 12290730084, 12290730083, 12290730082, 12290730081, 12290730080, 12290730079, 12290730078, 12290730077, 12290730076, 12290730075, 12290730074, 12290730073, 12290730072, 12290730071, 12290730070, 12290730069, 12290730068, 12290730067, 12290730066, 12290730065, 12290730064, 12290730063, 12290730062, 12290730061, 12290730060, 12290730059, 12290730058, 12290730057, 12290730056, 12290730055, 12290730054, 12290730053, 12290730052, 12290730051, 12290730050, 12290730049, 12290730110], "tags": {"addr:city": "G\u0259d\u0259b\u0259y rayonu", "alt_name:hy": "\u0531\u0580\u056e\u057e\u0561\u0577\u0565\u0576", "landuse": "residential", "name": "Ba\u015fk\u0259nd", "name:az": "Ba\u015fk\u0259nd", "place": "village"}}]}